<?xml version="1.0" encoding="UTF-8"?>
<gpx xmlns="http://www.topografix.com/GPX/1/1" xmlns:gpxtpx="http://www.garmin.com/xmlschemas/TrackPointExtension/v1" xmlns:xsi="http://www.w3.org/2001/XMLSchema-instance" xsi:schemaLocation="http://www.topografix.com/GPX/1/1 http://www.topografix.com/GPX/1/1/gpx.xsd" version="1.1" creator="gpx.py -- https://github.com/tkrajina/gpxpy">
  <trk>
    <name>gpx from keep</name>
    <type>Walk</type>
    <trkseg>
      <trkpt lat="30.681431225700532" lon="104.051100712422">
        <ele>462.0</ele>
        <time>2020-03-20T14:26:44Z</time>
      </trkpt>
      <trkpt lat="30.681483321045864" lon="104.05104224640743">
        <ele>461.0</ele>
        <time>2020-03-20T14:26:47Z</time>
      </trkpt>
      <trkpt lat="30.681401703820292" lon="104.0510817203567">
        <ele>462.0</ele>
        <time>2020-03-20T14:26:50Z</time>
      </trkpt>
      <trkpt lat="30.681435461541685" lon="104.05128273158032">
        <ele>467.0</ele>
        <time>2020-03-20T14:26:59Z</time>
      </trkpt>
      <trkpt lat="30.68134095619614" lon="104.05157405211416">
        <ele>461.0</ele>
        <time>2020-03-20T14:27:05Z</time>
      </trkpt>
      <trkpt lat="30.6813899161961" lon="104.05145509965455">
        <ele>461.0</ele>
        <time>2020-03-20T14:27:08Z</time>
      </trkpt>
      <trkpt lat="30.681459541797864" lon="104.0515129659361">
        <ele>463.0</ele>
        <time>2020-03-20T14:27:14Z</time>
      </trkpt>
      <trkpt lat="30.680896978472536" lon="104.05175445016998">
        <ele>461.0</ele>
        <time>2020-03-20T14:27:26Z</time>
      </trkpt>
      <trkpt lat="30.6807824914863" lon="104.0516850825391">
        <ele>472.0</ele>
        <time>2020-03-20T14:27:32Z</time>
      </trkpt>
      <trkpt lat="30.68079719918919" lon="104.051771641756">
        <ele>468.0</ele>
        <time>2020-03-20T14:27:35Z</time>
      </trkpt>
      <trkpt lat="30.68066519702336" lon="104.05175888008594">
        <ele>465.0</ele>
        <time>2020-03-20T14:27:41Z</time>
      </trkpt>
      <trkpt lat="30.680768664447545" lon="104.05172013622288">
        <ele>477.0</ele>
        <time>2020-03-20T14:27:44Z</time>
      </trkpt>
      <trkpt lat="30.680933702693615" lon="104.05179925501399">
        <ele>473.0</ele>
        <time>2020-03-20T14:27:47Z</time>
      </trkpt>
      <trkpt lat="30.681040707928588" lon="104.05184923057874">
        <ele>469.0</ele>
        <time>2020-03-20T14:27:54Z</time>
      </trkpt>
      <trkpt lat="30.680890460411575" lon="104.051548698355">
        <ele>466.0</ele>
        <time>2020-03-20T14:28:09Z</time>
      </trkpt>
      <trkpt lat="30.680931798181188" lon="104.05151941535688">
        <ele>469.0</ele>
        <time>2020-03-20T14:28:12Z</time>
      </trkpt>
      <trkpt lat="30.680999549078855" lon="104.05152354595556">
        <ele>470.0</ele>
        <time>2020-03-20T14:28:15Z</time>
      </trkpt>
      <trkpt lat="30.681057148116903" lon="104.05150730437602">
        <ele>468.0</ele>
        <time>2020-03-20T14:28:21Z</time>
      </trkpt>
      <trkpt lat="30.681136580777892" lon="104.05141597491775">
        <ele>472.0</ele>
        <time>2020-03-20T14:28:30Z</time>
      </trkpt>
      <trkpt lat="30.681109114303837" lon="104.05145889938498">
        <ele>475.0</ele>
        <time>2020-03-20T14:28:42Z</time>
      </trkpt>
      <trkpt lat="30.681077720735342" lon="104.0514208352902">
        <ele>466.0</ele>
        <time>2020-03-20T14:29:00Z</time>
      </trkpt>
      <trkpt lat="30.681030989421693" lon="104.0514100140362">
        <ele>470.0</ele>
        <time>2020-03-20T14:29:15Z</time>
      </trkpt>
      <trkpt lat="30.681012189744393" lon="104.0514154245624">
        <ele>468.0</ele>
        <time>2020-03-20T14:30:09Z</time>
      </trkpt>
    </trkseg>
  </trk>
</gpx>