<?xml version="1.0" encoding="UTF-8"?>
<gpx xmlns="http://www.topografix.com/GPX/1/1" xmlns:gpxtpx="http://www.garmin.com/xmlschemas/TrackPointExtension/v1" xmlns:xsi="http://www.w3.org/2001/XMLSchema-instance" xsi:schemaLocation="http://www.topografix.com/GPX/1/1 http://www.topografix.com/GPX/1/1/gpx.xsd" version="1.1" creator="gpx.py -- https://github.com/tkrajina/gpxpy">
  <trk>
    <name>gpx from keep</name>
    <type>Run</type>
    <trkseg>
      <trkpt lat="30.683754056406386" lon="104.05519313110133">
        <ele>477.4</ele>
        <time>2025-08-05T12:49:57.263000Z</time>
      </trkpt>
      <trkpt lat="30.683663469423866" lon="104.05498460717817">
        <ele>464.4</ele>
        <time>2025-08-05T12:50:06.363000Z</time>
      </trkpt>
      <trkpt lat="30.683627564269017" lon="104.05494070842325">
        <ele>463.0</ele>
        <time>2025-08-05T12:50:09.363000Z</time>
      </trkpt>
      <trkpt lat="30.68351807221918" lon="104.05464653094478">
        <ele>457.7</ele>
        <time>2025-08-05T12:50:21.363000Z</time>
      </trkpt>
      <trkpt lat="30.683383475280532" lon="104.05449573413318">
        <ele>457.1</ele>
        <time>2025-08-05T12:50:30.363000Z</time>
      </trkpt>
      <trkpt lat="30.683329727127983" lon="104.05437002483261">
        <ele>457.0</ele>
        <time>2025-08-05T12:50:36.363000Z</time>
      </trkpt>
      <trkpt lat="30.683212981125255" lon="104.054259284676">
        <ele>459.5</ele>
        <time>2025-08-05T12:50:42.363000Z</time>
      </trkpt>
      <trkpt lat="30.683051076613406" lon="104.05424731960176">
        <ele>460.1</ele>
        <time>2025-08-05T12:50:48.363000Z</time>
      </trkpt>
      <trkpt lat="30.6829730578119" lon="104.05427725429581">
        <ele>460.5</ele>
        <time>2025-08-05T12:50:51.363000Z</time>
      </trkpt>
      <trkpt lat="30.682898992019577" lon="104.05433213153074">
        <ele>460.4</ele>
        <time>2025-08-05T12:50:54.363000Z</time>
      </trkpt>
      <trkpt lat="30.682777551493846" lon="104.0546065084007">
        <ele>454.0</ele>
        <time>2025-08-05T12:51:06.363000Z</time>
      </trkpt>
      <trkpt lat="30.682759251224805" lon="104.05477811776083">
        <ele>451.5</ele>
        <time>2025-08-05T12:51:12.363000Z</time>
      </trkpt>
      <trkpt lat="30.682796987290608" lon="104.05491580291402">
        <ele>452.3</ele>
        <time>2025-08-05T12:51:18.363000Z</time>
      </trkpt>
      <trkpt lat="30.682943480809477" lon="104.05516223792816">
        <ele>454.7</ele>
        <time>2025-08-05T12:51:30.363000Z</time>
      </trkpt>
      <trkpt lat="30.682969327116943" lon="104.05524205651179">
        <ele>454.2</ele>
        <time>2025-08-05T12:51:33.363000Z</time>
      </trkpt>
      <trkpt lat="30.683064119279038" lon="104.0553348430273">
        <ele>453.3</ele>
        <time>2025-08-05T12:51:39.363000Z</time>
      </trkpt>
      <trkpt lat="30.683136856541882" lon="104.05546454798848">
        <ele>455.3</ele>
        <time>2025-08-05T12:51:45.363000Z</time>
      </trkpt>
      <trkpt lat="30.683135545599512" lon="104.05564115208799">
        <ele>454.3</ele>
        <time>2025-08-05T12:51:51.363000Z</time>
      </trkpt>
      <trkpt lat="30.68319714952661" lon="104.05585068134071">
        <ele>452.7</ele>
        <time>2025-08-05T12:52:00.363000Z</time>
      </trkpt>
      <trkpt lat="30.683299954229568" lon="104.05593548781911">
        <ele>451.6</ele>
        <time>2025-08-05T12:52:06.363000Z</time>
      </trkpt>
      <trkpt lat="30.683426814453203" lon="104.0559823777611">
        <ele>451.0</ele>
        <time>2025-08-05T12:52:12.363000Z</time>
      </trkpt>
      <trkpt lat="30.683667919232175" lon="104.05585963986324">
        <ele>451.1</ele>
        <time>2025-08-05T12:52:24.363000Z</time>
      </trkpt>
      <trkpt lat="30.683724005604326" lon="104.05579577967764">
        <ele>450.5</ele>
        <time>2025-08-05T12:52:27.363000Z</time>
      </trkpt>
      <trkpt lat="30.68378721520608" lon="104.05566007995432">
        <ele>450.3</ele>
        <time>2025-08-05T12:52:33.363000Z</time>
      </trkpt>
      <trkpt lat="30.683802443900458" lon="104.05552637878239">
        <ele>450.5</ele>
        <time>2025-08-05T12:52:39.363000Z</time>
      </trkpt>
      <trkpt lat="30.68377571540965" lon="104.05537970951822">
        <ele>451.5</ele>
        <time>2025-08-05T12:52:45.363000Z</time>
      </trkpt>
      <trkpt lat="30.683635391362277" lon="104.05503549311194">
        <ele>452.8</ele>
        <time>2025-08-05T12:53:00.363000Z</time>
      </trkpt>
      <trkpt lat="30.68355698279225" lon="104.05472520189223">
        <ele>453.2</ele>
        <time>2025-08-05T12:53:12.363000Z</time>
      </trkpt>
      <trkpt lat="30.68342237110683" lon="104.05454362273841">
        <ele>453.2</ele>
        <time>2025-08-05T12:53:21.363000Z</time>
      </trkpt>
      <trkpt lat="30.683364633562135" lon="104.05441292479094">
        <ele>453.1</ele>
        <time>2025-08-05T12:53:27.363000Z</time>
      </trkpt>
      <trkpt lat="30.68320204408698" lon="104.05422735865301">
        <ele>454.2</ele>
        <time>2025-08-05T12:53:39.363000Z</time>
      </trkpt>
      <trkpt lat="30.683075201611963" lon="104.05417249083045">
        <ele>454.4</ele>
        <time>2025-08-05T12:53:48.363000Z</time>
      </trkpt>
      <trkpt lat="30.6830062021945" lon="104.05418945489103">
        <ele>455.4</ele>
        <time>2025-08-05T12:53:51.363000Z</time>
      </trkpt>
      <trkpt lat="30.68287012460037" lon="104.05426628422983">
        <ele>456.0</ele>
        <time>2025-08-05T12:53:57.363000Z</time>
      </trkpt>
      <trkpt lat="30.682737872101878" lon="104.05443889386164">
        <ele>457.4</ele>
        <time>2025-08-05T12:54:06.363000Z</time>
      </trkpt>
      <trkpt lat="30.682691626565752" lon="104.05458655792276">
        <ele>456.1</ele>
        <time>2025-08-05T12:54:12.363000Z</time>
      </trkpt>
      <trkpt lat="30.682689165020136" lon="104.05484397109169">
        <ele>456.0</ele>
        <time>2025-08-05T12:54:21.363000Z</time>
      </trkpt>
      <trkpt lat="30.682830498523252" lon="104.0551812002456">
        <ele>453.8</ele>
        <time>2025-08-05T12:54:36.363000Z</time>
      </trkpt>
      <trkpt lat="30.68292502359561" lon="104.05542464732534">
        <ele>452.9</ele>
        <time>2025-08-05T12:54:48.363000Z</time>
      </trkpt>
      <trkpt lat="30.68304873283614" lon="104.05555734378223">
        <ele>452.4</ele>
        <time>2025-08-05T12:54:57.363000Z</time>
      </trkpt>
      <trkpt lat="30.683174177476396" lon="104.05584070462557">
        <ele>452.2</ele>
        <time>2025-08-05T12:55:09.363000Z</time>
      </trkpt>
      <trkpt lat="30.683215052261495" lon="104.0559015671848">
        <ele>452.2</ele>
        <time>2025-08-05T12:55:12.363000Z</time>
      </trkpt>
      <trkpt lat="30.683336843255542" lon="104.0559893663428">
        <ele>452.2</ele>
        <time>2025-08-05T12:55:18.363000Z</time>
      </trkpt>
      <trkpt lat="30.683475779935563" lon="104.05598936000666">
        <ele>452.4</ele>
        <time>2025-08-05T12:55:24.363000Z</time>
      </trkpt>
      <trkpt lat="30.683597830678004" lon="104.05592848977358">
        <ele>452.6</ele>
        <time>2025-08-05T12:55:30.463000Z</time>
      </trkpt>
      <trkpt lat="30.683753032638098" lon="104.05577282956446">
        <ele>453.8</ele>
        <time>2025-08-05T12:55:39.463000Z</time>
      </trkpt>
      <trkpt lat="30.68381223013974" lon="104.05564511230183">
        <ele>453.9</ele>
        <time>2025-08-05T12:55:45.463000Z</time>
      </trkpt>
      <trkpt lat="30.68382074789946" lon="104.05534977483389">
        <ele>455.4</ele>
        <time>2025-08-05T12:55:57.463000Z</time>
      </trkpt>
      <trkpt lat="30.683710243352973" lon="104.05509934511804">
        <ele>457.0</ele>
        <time>2025-08-05T12:56:09.463000Z</time>
      </trkpt>
      <trkpt lat="30.683702376846938" lon="104.0550265104053">
        <ele>457.2</ele>
        <time>2025-08-05T12:56:12.463000Z</time>
      </trkpt>
      <trkpt lat="30.683622764766298" lon="104.05482996031478">
        <ele>458.1</ele>
        <time>2025-08-05T12:56:21.463000Z</time>
      </trkpt>
      <trkpt lat="30.6834624194823" lon="104.0545067054049">
        <ele>460.3</ele>
        <time>2025-08-05T12:56:39.463000Z</time>
      </trkpt>
      <trkpt lat="30.68330989351156" lon="104.05428322518146">
        <ele>462.3</ele>
        <time>2025-08-05T12:56:51.463000Z</time>
      </trkpt>
      <trkpt lat="30.683263986871196" lon="104.0542433190857">
        <ele>462.6</ele>
        <time>2025-08-05T12:56:54.463000Z</time>
      </trkpt>
      <trkpt lat="30.683078145849876" lon="104.05420242173496">
        <ele>462.4</ele>
        <time>2025-08-05T12:57:03.463000Z</time>
      </trkpt>
      <trkpt lat="30.68300517545714" lon="104.05420442046352">
        <ele>461.6</ele>
        <time>2025-08-05T12:57:06.463000Z</time>
      </trkpt>
      <trkpt lat="30.68288003140051" lon="104.0543151713688">
        <ele>460.8</ele>
        <time>2025-08-05T12:57:12.463000Z</time>
      </trkpt>
      <trkpt lat="30.68275067345392" lon="104.05454564878154">
        <ele>461.9</ele>
        <time>2025-08-05T12:57:21.463000Z</time>
      </trkpt>
      <trkpt lat="30.682728302928105" lon="104.05475716689615">
        <ele>460.0</ele>
        <time>2025-08-05T12:57:30.463000Z</time>
      </trkpt>
      <trkpt lat="30.68274216950974" lon="104.05482800498848">
        <ele>459.5</ele>
        <time>2025-08-05T12:57:33.463000Z</time>
      </trkpt>
      <trkpt lat="30.682875762398773" lon="104.0550215593884">
        <ele>458.4</ele>
        <time>2025-08-05T12:57:45.463000Z</time>
      </trkpt>
      <trkpt lat="30.683000116596993" lon="104.05535280550707">
        <ele>457.2</ele>
        <time>2025-08-05T12:57:57.463000Z</time>
      </trkpt>
      <trkpt lat="30.68310171574373" lon="104.05555335031436">
        <ele>457.7</ele>
        <time>2025-08-05T12:58:06.463000Z</time>
      </trkpt>
      <trkpt lat="30.68311644722062" lon="104.05570201682741">
        <ele>457.2</ele>
        <time>2025-08-05T12:58:12.463000Z</time>
      </trkpt>
      <trkpt lat="30.68316220566595" lon="104.05582773408679">
        <ele>457.0</ele>
        <time>2025-08-05T12:58:18.463000Z</time>
      </trkpt>
      <trkpt lat="30.683206089530145" lon="104.0558826098042">
        <ele>457.2</ele>
        <time>2025-08-05T12:58:21.463000Z</time>
      </trkpt>
      <trkpt lat="30.68337581504029" lon="104.05599535126326">
        <ele>455.8</ele>
        <time>2025-08-05T12:58:30.463000Z</time>
      </trkpt>
      <trkpt lat="30.68357169788202" lon="104.05601130686534">
        <ele>455.7</ele>
        <time>2025-08-05T12:58:39.463000Z</time>
      </trkpt>
      <trkpt lat="30.683635713997802" lon="104.05598536158203">
        <ele>455.6</ele>
        <time>2025-08-05T12:58:42.463000Z</time>
      </trkpt>
      <trkpt lat="30.68368678314084" lon="104.05593247683755">
        <ele>455.5</ele>
        <time>2025-08-05T12:58:45.463000Z</time>
      </trkpt>
      <trkpt lat="30.683783090769253" lon="104.0557319195417">
        <ele>455.7</ele>
        <time>2025-08-05T12:58:54.463000Z</time>
      </trkpt>
      <trkpt lat="30.6838295954769" lon="104.05543358590081">
        <ele>454.4</ele>
        <time>2025-08-05T12:59:06.463000Z</time>
      </trkpt>
      <trkpt lat="30.68381972538283" lon="104.05536274568239">
        <ele>455.0</ele>
        <time>2025-08-05T12:59:09.463000Z</time>
      </trkpt>
      <trkpt lat="30.68379085176284" lon="104.05529889081713">
        <ele>455.3</ele>
        <time>2025-08-05T12:59:12.463000Z</time>
      </trkpt>
      <trkpt lat="30.68378596027674" lon="104.0552390260382">
        <ele>455.5</ele>
        <time>2025-08-05T12:59:15.463000Z</time>
      </trkpt>
      <trkpt lat="30.6838100432952" lon="104.05518614432405">
        <ele>455.2</ele>
        <time>2025-08-05T12:59:18.463000Z</time>
      </trkpt>
      <trkpt lat="30.683818149446893" lon="104.05505627044896">
        <ele>462.1</ele>
        <time>2025-08-05T12:59:27.663000Z</time>
      </trkpt>
      <trkpt lat="30.683771228443103" lon="104.05504152245355">
        <ele>459.9</ele>
        <time>2025-08-05T12:59:33.663000Z</time>
      </trkpt>
      <trkpt lat="30.683729321827762" lon="104.05505045492741">
        <ele>460.1</ele>
        <time>2025-08-05T12:59:42.663000Z</time>
      </trkpt>
      <trkpt lat="30.68368953244593" lon="104.0549427010692">
        <ele>458.4</ele>
        <time>2025-08-05T12:59:48.663000Z</time>
      </trkpt>
      <trkpt lat="30.6836415810786" lon="104.05492773723084">
        <ele>456.8</ele>
        <time>2025-08-05T12:59:51.663000Z</time>
      </trkpt>
      <trkpt lat="30.683604674691864" lon="104.05488483636718">
        <ele>455.1</ele>
        <time>2025-08-05T12:59:57.663000Z</time>
      </trkpt>
      <trkpt lat="30.68357694321936" lon="104.05474216232174">
        <ele>453.2</ele>
        <time>2025-08-05T13:00:09.663000Z</time>
      </trkpt>
      <trkpt lat="30.683658981124843" lon="104.05470025412153">
        <ele>459.7</ele>
        <time>2025-08-05T13:00:12.663000Z</time>
      </trkpt>
      <trkpt lat="30.68363709700963" lon="104.0546413894618">
        <ele>459.6</ele>
        <time>2025-08-05T13:00:15.663000Z</time>
      </trkpt>
      <trkpt lat="30.683567191770496" lon="104.0546064724164">
        <ele>460.9</ele>
        <time>2025-08-05T13:00:24.663000Z</time>
      </trkpt>
      <trkpt lat="30.683524391234652" lon="104.05450670258094">
        <ele>460.7</ele>
        <time>2025-08-05T13:00:30.663000Z</time>
      </trkpt>
      <trkpt lat="30.683523496195402" lon="104.05444883519155">
        <ele>460.3</ele>
        <time>2025-08-05T13:00:33.663000Z</time>
      </trkpt>
      <trkpt lat="30.68348966146627" lon="104.05436602670764">
        <ele>458.6</ele>
        <time>2025-08-05T13:00:39.663000Z</time>
      </trkpt>
      <trkpt lat="30.6834228945303" lon="104.05425428658992">
        <ele>464.5</ele>
        <time>2025-08-05T13:00:51.663000Z</time>
      </trkpt>
      <trkpt lat="30.68335498165282" lon="104.05422336087304">
        <ele>463.0</ele>
        <time>2025-08-05T13:00:57.663000Z</time>
      </trkpt>
      <trkpt lat="30.68330008827443" lon="104.05417846678912">
        <ele>460.8</ele>
        <time>2025-08-05T13:01:15.663000Z</time>
      </trkpt>
      <trkpt lat="30.68325109608322" lon="104.0541864506297">
        <ele>458.1</ele>
        <time>2025-08-05T13:01:36.663000Z</time>
      </trkpt>
      <trkpt lat="30.683205187777624" lon="104.05414754240691">
        <ele>456.6</ele>
        <time>2025-08-05T13:01:45.663000Z</time>
      </trkpt>
      <trkpt lat="30.68315833042187" lon="104.05413290416512">
        <ele>455.2</ele>
        <time>2025-08-05T13:01:54.663000Z</time>
      </trkpt>
      <trkpt lat="30.683080587231323" lon="104.05420341728534">
        <ele>454.5</ele>
        <time>2025-08-05T13:02:00.663000Z</time>
      </trkpt>
      <trkpt lat="30.682920042131787" lon="104.05429920623918">
        <ele>457.0</ele>
        <time>2025-08-05T13:02:03.663000Z</time>
      </trkpt>
      <trkpt lat="30.682710738444364" lon="104.05451970996448">
        <ele>463.7</ele>
        <time>2025-08-05T13:02:27.663000Z</time>
      </trkpt>
      <trkpt lat="30.682677676087152" lon="104.05456261330994">
        <ele>464.7</ele>
        <time>2025-08-05T13:02:30.663000Z</time>
      </trkpt>
      <trkpt lat="30.68266257686946" lon="104.05462147944701">
        <ele>465.2</ele>
        <time>2025-08-05T13:02:36.663000Z</time>
      </trkpt>
      <trkpt lat="30.68271324173032" lon="104.05479508123777">
        <ele>466.2</ele>
        <time>2025-08-05T13:02:51.763000Z</time>
      </trkpt>
      <trkpt lat="30.682779004404466" lon="104.05491081506383">
        <ele>466.3</ele>
        <time>2025-08-05T13:03:00.763000Z</time>
      </trkpt>
      <trkpt lat="30.682800853521503" lon="104.05498963518258">
        <ele>466.6</ele>
        <time>2025-08-05T13:03:06.763000Z</time>
      </trkpt>
      <trkpt lat="30.682778726463326" lon="104.05506646210536">
        <ele>466.1</ele>
        <time>2025-08-05T13:03:12.763000Z</time>
      </trkpt>
      <trkpt lat="30.682720662196356" lon="104.05511734959583">
        <ele>463.4</ele>
        <time>2025-08-05T13:03:24.763000Z</time>
      </trkpt>
      <trkpt lat="30.682640624010393" lon="104.05515925849797">
        <ele>465.8</ele>
        <time>2025-08-05T13:03:33.763000Z</time>
      </trkpt>
    </trkseg>
  </trk>
</gpx>