<?xml version="1.0" encoding="UTF-8"?>
<gpx xmlns="http://www.topografix.com/GPX/1/1" xmlns:gpxtpx="http://www.garmin.com/xmlschemas/TrackPointExtension/v1" xmlns:xsi="http://www.w3.org/2001/XMLSchema-instance" xsi:schemaLocation="http://www.topografix.com/GPX/1/1 http://www.topografix.com/GPX/1/1/gpx.xsd" version="1.1" creator="gpx.py -- https://github.com/tkrajina/gpxpy">
  <trk>
    <name>gpx from keep</name>
    <type>Walk</type>
    <trkseg>
      <trkpt lat="30.67577823002691" lon="104.04525200395405">
        <ele>471.0</ele>
        <time>2020-03-21T06:43:05.935000Z</time>
      </trkpt>
      <trkpt lat="30.67573138066182" lon="104.04526505507991">
        <ele>472.0</ele>
        <time>2020-03-21T06:43:08.935000Z</time>
      </trkpt>
      <trkpt lat="30.675619644114153" lon="104.04519208789988">
        <ele>467.0</ele>
        <time>2020-03-21T06:43:20.935000Z</time>
      </trkpt>
      <trkpt lat="30.67561992007794" lon="104.04513986295804">
        <ele>463.0</ele>
        <time>2020-03-21T06:43:33.035000Z</time>
      </trkpt>
      <trkpt lat="30.675689766444172" lon="104.04495582574745">
        <ele>461.0</ele>
        <time>2020-03-21T06:43:50.935000Z</time>
      </trkpt>
      <trkpt lat="30.675831917817128" lon="104.04482874412331">
        <ele>454.0</ele>
        <time>2020-03-21T06:44:11.935000Z</time>
      </trkpt>
      <trkpt lat="30.675887887271795" lon="104.04481578303813">
        <ele>452.0</ele>
        <time>2020-03-21T06:44:17.835000Z</time>
      </trkpt>
      <trkpt lat="30.675921180360078" lon="104.04485252657213">
        <ele>453.0</ele>
        <time>2020-03-21T06:44:35.935000Z</time>
      </trkpt>
      <trkpt lat="30.6759801001377" lon="104.04510319034773">
        <ele>451.0</ele>
        <time>2020-03-21T06:45:14.935000Z</time>
      </trkpt>
      <trkpt lat="30.675897393644963" lon="104.0454151497283">
        <ele>454.0</ele>
        <time>2020-03-21T06:45:44.935000Z</time>
      </trkpt>
      <trkpt lat="30.675887878221673" lon="104.04547496539736">
        <ele>455.0</ele>
        <time>2020-03-21T06:45:50.935000Z</time>
      </trkpt>
      <trkpt lat="30.675925712928837" lon="104.04553150087311">
        <ele>459.0</ele>
        <time>2020-03-21T06:46:02.935000Z</time>
      </trkpt>
      <trkpt lat="30.676027439242116" lon="104.04560197783734">
        <ele>462.0</ele>
        <time>2020-03-21T06:46:14.935000Z</time>
      </trkpt>
      <trkpt lat="30.676077370131555" lon="104.0456082385538">
        <ele>461.0</ele>
        <time>2020-03-21T06:46:26.835000Z</time>
      </trkpt>
      <trkpt lat="30.676157237314136" lon="104.0456919667427">
        <ele>452.0</ele>
        <time>2020-03-21T06:47:08.935000Z</time>
      </trkpt>
      <trkpt lat="30.676217267216337" lon="104.04568455617716">
        <ele>450.0</ele>
        <time>2020-03-21T06:47:17.935000Z</time>
      </trkpt>
      <trkpt lat="30.676220501440547" lon="104.04573822131765">
        <ele>454.0</ele>
        <time>2020-03-21T06:47:26.835000Z</time>
      </trkpt>
      <trkpt lat="30.67630879769618" lon="104.04580903830923">
        <ele>455.0</ele>
        <time>2020-03-21T06:47:41.935000Z</time>
      </trkpt>
      <trkpt lat="30.67637738477639" lon="104.0457647542309">
        <ele>454.0</ele>
        <time>2020-03-21T06:47:59.835000Z</time>
      </trkpt>
      <trkpt lat="30.676436586142604" lon="104.04577613546167">
        <ele>454.0</ele>
        <time>2020-03-21T06:48:05.935000Z</time>
      </trkpt>
      <trkpt lat="30.67646087247051" lon="104.04585436301643">
        <ele>454.0</ele>
        <time>2020-03-21T06:48:11.835000Z</time>
      </trkpt>
      <trkpt lat="30.676607621380644" lon="104.04595282281772">
        <ele>445.0</ele>
        <time>2020-03-21T06:50:29.835000Z</time>
      </trkpt>
      <trkpt lat="30.67654062400686" lon="104.04599303652364">
        <ele>445.0</ele>
        <time>2020-03-21T06:50:35.835000Z</time>
      </trkpt>
      <trkpt lat="30.67653363970181" lon="104.04593901131462">
        <ele>449.0</ele>
        <time>2020-03-21T06:50:41.835000Z</time>
      </trkpt>
      <trkpt lat="30.67650322638548" lon="104.04589990748721">
        <ele>448.0</ele>
        <time>2020-03-21T06:51:05.935000Z</time>
      </trkpt>
      <trkpt lat="30.676457785832643" lon="104.0458975071486">
        <ele>453.0</ele>
        <time>2020-03-21T06:51:20.835000Z</time>
      </trkpt>
      <trkpt lat="30.67632851063005" lon="104.04597173397045">
        <ele>455.0</ele>
        <time>2020-03-21T06:51:47.835000Z</time>
      </trkpt>
      <trkpt lat="30.67628310926537" lon="104.04595901263967">
        <ele>457.0</ele>
        <time>2020-03-21T06:51:56.935000Z</time>
      </trkpt>
      <trkpt lat="30.676240655696212" lon="104.04591793859299">
        <ele>455.0</ele>
        <time>2020-03-21T06:52:08.935000Z</time>
      </trkpt>
      <trkpt lat="30.67617700308335" lon="104.04589117587221">
        <ele>455.0</ele>
        <time>2020-03-21T06:52:14.935000Z</time>
      </trkpt>
      <trkpt lat="30.6761383193253" lon="104.0458472515663">
        <ele>455.0</ele>
        <time>2020-03-21T06:52:23.935000Z</time>
      </trkpt>
      <trkpt lat="30.676072398805697" lon="104.04584737142079">
        <ele>455.0</ele>
        <time>2020-03-21T06:52:29.935000Z</time>
      </trkpt>
      <trkpt lat="30.67591516787381" lon="104.0457239592259">
        <ele>461.0</ele>
        <time>2020-03-21T06:52:47.935000Z</time>
      </trkpt>
      <trkpt lat="30.6758893223219" lon="104.04565561263014">
        <ele>459.0</ele>
        <time>2020-03-21T06:52:56.935000Z</time>
      </trkpt>
      <trkpt lat="30.676009645367124" lon="104.04529692876564">
        <ele>455.0</ele>
        <time>2020-03-21T06:53:41.935000Z</time>
      </trkpt>
      <trkpt lat="30.676075885520792" lon="104.04503339398279">
        <ele>454.0</ele>
        <time>2020-03-21T06:54:11.835000Z</time>
      </trkpt>
      <trkpt lat="30.675995906222433" lon="104.04479080094765">
        <ele>451.0</ele>
        <time>2020-03-21T06:54:38.835000Z</time>
      </trkpt>
      <trkpt lat="30.676000931278743" lon="104.04472577485475">
        <ele>449.0</ele>
        <time>2020-03-21T06:54:47.935000Z</time>
      </trkpt>
      <trkpt lat="30.67603117573849" lon="104.04465020784212">
        <ele>445.0</ele>
        <time>2020-03-21T06:54:56.835000Z</time>
      </trkpt>
      <trkpt lat="30.676042530017224" lon="104.04457413074748">
        <ele>446.0</ele>
        <time>2020-03-21T06:55:02.935000Z</time>
      </trkpt>
      <trkpt lat="30.676030243443723" lon="104.04448923278365">
        <ele>447.0</ele>
        <time>2020-03-21T06:55:08.935000Z</time>
      </trkpt>
      <trkpt lat="30.675941398076038" lon="104.04442810686781">
        <ele>453.0</ele>
        <time>2020-03-21T06:55:32.835000Z</time>
      </trkpt>
      <trkpt lat="30.675765380727878" lon="104.04435004917468">
        <ele>457.0</ele>
        <time>2020-03-21T06:55:50.935000Z</time>
      </trkpt>
      <trkpt lat="30.675639995069886" lon="104.04455166768915">
        <ele>455.0</ele>
        <time>2020-03-21T06:56:32.835000Z</time>
      </trkpt>
      <trkpt lat="30.6756383290749" lon="104.04460430260899">
        <ele>455.0</ele>
        <time>2020-03-21T06:56:41.935000Z</time>
      </trkpt>
      <trkpt lat="30.6755145678888" lon="104.04473252433075">
        <ele>454.0</ele>
        <time>2020-03-21T06:57:05.935000Z</time>
      </trkpt>
      <trkpt lat="30.67544010188735" lon="104.04492268203045">
        <ele>453.0</ele>
        <time>2020-03-21T06:57:26.935000Z</time>
      </trkpt>
      <trkpt lat="30.675415175925234" lon="104.04497774716037">
        <ele>456.0</ele>
        <time>2020-03-21T06:57:42.035000Z</time>
      </trkpt>
      <trkpt lat="30.675232825757153" lon="104.04525347279468">
        <ele>460.0</ele>
        <time>2020-03-21T06:58:23.835000Z</time>
      </trkpt>
      <trkpt lat="30.67514596374289" lon="104.04536543321319">
        <ele>460.0</ele>
        <time>2020-03-21T06:58:35.935000Z</time>
      </trkpt>
      <trkpt lat="30.67491949171204" lon="104.04549134465064">
        <ele>463.0</ele>
        <time>2020-03-21T06:58:56.935000Z</time>
      </trkpt>
      <trkpt lat="30.674774193231663" lon="104.04552586759343">
        <ele>467.0</ele>
        <time>2020-03-21T06:59:17.835000Z</time>
      </trkpt>
      <trkpt lat="30.674713949032604" lon="104.04560646513683">
        <ele>467.0</ele>
        <time>2020-03-21T06:59:20.935000Z</time>
      </trkpt>
      <trkpt lat="30.6746613091841" lon="104.04561383571495">
        <ele>469.0</ele>
        <time>2020-03-21T06:59:35.835000Z</time>
      </trkpt>
      <trkpt lat="30.67461210308776" lon="104.04554076862749">
        <ele>467.0</ele>
        <time>2020-03-21T06:59:41.835000Z</time>
      </trkpt>
      <trkpt lat="30.67456969070731" lon="104.04551460603304">
        <ele>466.0</ele>
        <time>2020-03-21T06:59:47.835000Z</time>
      </trkpt>
      <trkpt lat="30.67461593358093" lon="104.04554669920198">
        <ele>469.0</ele>
        <time>2020-03-21T06:59:56.835000Z</time>
      </trkpt>
      <trkpt lat="30.674497230221963" lon="104.04564404820889">
        <ele>458.0</ele>
        <time>2020-03-21T07:00:08.935000Z</time>
      </trkpt>
      <trkpt lat="30.674417282468923" lon="104.04568104155308">
        <ele>455.0</ele>
        <time>2020-03-21T07:00:14.935000Z</time>
      </trkpt>
      <trkpt lat="30.674295594466106" lon="104.04571911490358">
        <ele>457.0</ele>
        <time>2020-03-21T07:00:23.935000Z</time>
      </trkpt>
      <trkpt lat="30.674152235270242" lon="104.0458717191803">
        <ele>456.0</ele>
        <time>2020-03-21T07:00:41.935000Z</time>
      </trkpt>
      <trkpt lat="30.673995068451134" lon="104.04592835424164">
        <ele>459.0</ele>
        <time>2020-03-21T07:00:59.835000Z</time>
      </trkpt>
      <trkpt lat="30.67389145533506" lon="104.04589933120808">
        <ele>462.0</ele>
        <time>2020-03-21T07:01:14.935000Z</time>
      </trkpt>
      <trkpt lat="30.673833676610737" lon="104.04592150319887">
        <ele>462.0</ele>
        <time>2020-03-21T07:01:20.935000Z</time>
      </trkpt>
      <trkpt lat="30.673833676610737" lon="104.04592150319887">
        <ele>462.0</ele>
        <time>2020-03-21T07:01:23.335000Z</time>
      </trkpt>
    </trkseg>
  </trk>
</gpx>