<?xml version="1.0" encoding="UTF-8"?>
<gpx xmlns="http://www.topografix.com/GPX/1/1" xmlns:gpxtpx="http://www.garmin.com/xmlschemas/TrackPointExtension/v1" xmlns:xsi="http://www.w3.org/2001/XMLSchema-instance" xsi:schemaLocation="http://www.topografix.com/GPX/1/1 http://www.topografix.com/GPX/1/1/gpx.xsd" version="1.1" creator="gpx.py -- https://github.com/tkrajina/gpxpy">
  <trk>
    <name>gpx from keep</name>
    <type>Walk</type>
    <trkseg>
      <trkpt lat="31.28964911825314" lon="121.21606860157726">
        <ele>43.0</ele>
        <time>2025-04-25T11:13:55Z</time>
      </trkpt>
      <trkpt lat="31.289667024362412" lon="121.21598550966495">
        <ele>35.9</ele>
        <time>2025-04-25T11:13:58Z</time>
      </trkpt>
      <trkpt lat="31.289709923251877" lon="121.21590541865905">
        <ele>35.9</ele>
        <time>2025-04-25T11:14:01Z</time>
      </trkpt>
      <trkpt lat="31.28966091590036" lon="121.21587939438271">
        <ele>30.5</ele>
        <time>2025-04-25T11:14:13Z</time>
      </trkpt>
      <trkpt lat="31.28965985967524" lon="121.2158253353229">
        <ele>25.9</ele>
        <time>2025-04-25T11:14:25Z</time>
      </trkpt>
      <trkpt lat="31.289684802268162" lon="121.21578028383095">
        <ele>24.0</ele>
        <time>2025-04-25T11:14:28Z</time>
      </trkpt>
      <trkpt lat="31.28965772588348" lon="121.21569719487667">
        <ele>19.2</ele>
        <time>2025-04-25T11:14:34Z</time>
      </trkpt>
      <trkpt lat="31.28961370051512" lon="121.21565615344886">
        <ele>19.9</ele>
        <time>2025-04-25T11:14:37Z</time>
      </trkpt>
      <trkpt lat="31.289599631220202" lon="121.21558507628023">
        <ele>18.9</ele>
        <time>2025-04-25T11:14:43Z</time>
      </trkpt>
      <trkpt lat="31.28954353217233" lon="121.21546995373474">
        <ele>17.7</ele>
        <time>2025-04-25T11:14:58Z</time>
      </trkpt>
      <trkpt lat="31.289545467659785" lon="121.21540988695656">
        <ele>14.2</ele>
        <time>2025-04-25T11:15:01Z</time>
      </trkpt>
      <trkpt lat="31.289518398835085" lon="121.21533480580833">
        <ele>45.2</ele>
        <time>2025-04-25T11:15:07Z</time>
      </trkpt>
      <trkpt lat="31.289510155239867" lon="121.21510354821685">
        <ele>22.1</ele>
        <time>2025-04-25T11:15:22Z</time>
      </trkpt>
      <trkpt lat="31.289478980790847" lon="121.21492935504685">
        <ele>21.9</ele>
        <time>2025-04-25T11:15:34Z</time>
      </trkpt>
      <trkpt lat="31.28943193731867" lon="121.21487129353204">
        <ele>18.9</ele>
        <time>2025-04-25T11:15:40Z</time>
      </trkpt>
      <trkpt lat="31.289447828136698" lon="121.21477618461472">
        <ele>18.5</ele>
        <time>2025-04-25T11:15:46Z</time>
      </trkpt>
      <trkpt lat="31.289482774941238" lon="121.21474014079784">
        <ele>17.6</ele>
        <time>2025-04-25T11:15:49Z</time>
      </trkpt>
      <trkpt lat="31.289499675830413" lon="121.21465504273566">
        <ele>15.1</ele>
        <time>2025-04-25T11:15:55Z</time>
      </trkpt>
      <trkpt lat="31.289488587862387" lon="121.21456994679562">
        <ele>15.7</ele>
        <time>2025-04-25T11:16:01Z</time>
      </trkpt>
      <trkpt lat="31.28950850999844" lon="121.21450587198562">
        <ele>16.3</ele>
        <time>2025-04-25T11:16:04Z</time>
      </trkpt>
      <trkpt lat="31.289458245655847" lon="121.2142455777289">
        <ele>17.7</ele>
        <time>2025-04-25T11:16:22Z</time>
      </trkpt>
      <trkpt lat="31.28940295358152" lon="121.21396025244766">
        <ele>17.0</ele>
        <time>2025-04-25T11:16:46Z</time>
      </trkpt>
      <trkpt lat="31.289322841826806" lon="121.21383010778942">
        <ele>16.7</ele>
        <time>2025-04-25T11:16:58Z</time>
      </trkpt>
      <trkpt lat="31.28926089701008" lon="121.2138571445637">
        <ele>15.6</ele>
        <time>2025-04-25T11:17:04Z</time>
      </trkpt>
      <trkpt lat="31.28915684251185" lon="121.21377005179305">
        <ele>15.3</ele>
        <time>2025-04-25T11:17:16Z</time>
      </trkpt>
      <trkpt lat="31.289111856343116" lon="121.21376605093924">
        <ele>17.3</ele>
        <time>2025-04-25T11:17:19Z</time>
      </trkpt>
      <trkpt lat="31.28905789387417" lon="121.2137800718991">
        <ele>30.8</ele>
        <time>2025-04-25T11:18:04Z</time>
      </trkpt>
      <trkpt lat="31.289123679622946" lon="121.2136118693868">
        <ele>27.2</ele>
        <time>2025-04-25T11:18:40Z</time>
      </trkpt>
      <trkpt lat="31.28915547608093" lon="121.2134416664127">
        <ele>25.4</ele>
        <time>2025-04-25T11:18:52Z</time>
      </trkpt>
      <trkpt lat="31.28925127386451" lon="121.21329648664984">
        <ele>25.3</ele>
        <time>2025-04-25T11:19:07Z</time>
      </trkpt>
      <trkpt lat="31.289276168864582" lon="121.21321238477742">
        <ele>28.1</ele>
        <time>2025-04-25T11:19:13Z</time>
      </trkpt>
      <trkpt lat="31.28926201486543" lon="121.21307121798114">
        <ele>26.5</ele>
        <time>2025-04-25T11:19:28Z</time>
      </trkpt>
      <trkpt lat="31.28924195144574" lon="121.21300814439985">
        <ele>26.0</ele>
        <time>2025-04-25T11:19:34Z</time>
      </trkpt>
      <trkpt lat="31.289224790948566" lon="121.21286096965288">
        <ele>21.1</ele>
        <time>2025-04-25T11:19:46Z</time>
      </trkpt>
      <trkpt lat="31.28924369756881" lon="121.21278587785555">
        <ele>24.3</ele>
        <time>2025-04-25T11:19:52Z</time>
      </trkpt>
      <trkpt lat="31.28923537145445" lon="121.21249853164113">
        <ele>17.7</ele>
        <time>2025-04-25T11:20:13Z</time>
      </trkpt>
      <trkpt lat="31.289219296091492" lon="121.21242744674555">
        <ele>13.0</ele>
        <time>2025-04-25T11:20:19Z</time>
      </trkpt>
      <trkpt lat="31.28916724791979" lon="121.21236737813823">
        <ele>18.0</ele>
        <time>2025-04-25T11:20:25Z</time>
      </trkpt>
      <trkpt lat="31.289155152121914" lon="121.21228027304878">
        <ele>20.0</ele>
        <time>2025-04-25T11:20:31Z</time>
      </trkpt>
      <trkpt lat="31.28920287819777" lon="121.21206100071554">
        <ele>22.5</ele>
        <time>2025-04-25T11:20:49Z</time>
      </trkpt>
      <trkpt lat="31.28923979787904" lon="121.21200492871218">
        <ele>22.4</ele>
        <time>2025-04-25T11:20:55Z</time>
      </trkpt>
      <trkpt lat="31.289224739759437" lon="121.21194986225423">
        <ele>19.1</ele>
        <time>2025-04-25T11:21:04Z</time>
      </trkpt>
      <trkpt lat="31.28926054485982" lon="121.21179566899204">
        <ele>16.3</ele>
        <time>2025-04-25T11:21:16Z</time>
      </trkpt>
      <trkpt lat="31.289252343573043" lon="121.21162145379603">
        <ele>14.7</ele>
        <time>2025-04-25T11:21:25Z</time>
      </trkpt>
      <trkpt lat="31.28922926329657" lon="121.21154536113751">
        <ele>14.2</ele>
        <time>2025-04-25T11:21:31Z</time>
      </trkpt>
      <trkpt lat="31.289014112816577" lon="121.21134412824225">
        <ele>15.9</ele>
        <time>2025-04-25T11:21:55Z</time>
      </trkpt>
      <trkpt lat="31.289002031017706" lon="121.211271037702">
        <ele>15.0</ele>
        <time>2025-04-25T11:22:01Z</time>
      </trkpt>
      <trkpt lat="31.288877958863697" lon="121.21116791874947">
        <ele>16.3</ele>
        <time>2025-04-25T11:22:13Z</time>
      </trkpt>
      <trkpt lat="31.288948946675482" lon="121.2111819303357">
        <ele>24.7</ele>
        <time>2025-04-25T11:22:16Z</time>
      </trkpt>
      <trkpt lat="31.288903910150808" lon="121.21113587623506">
        <ele>27.1</ele>
        <time>2025-04-25T11:22:22Z</time>
      </trkpt>
      <trkpt lat="31.288855904620476" lon="121.2111148538474">
        <ele>27.2</ele>
        <time>2025-04-25T11:22:25Z</time>
      </trkpt>
      <trkpt lat="31.28883784986317" lon="121.21106278977315">
        <ele>26.3</ele>
        <time>2025-04-25T11:22:31Z</time>
      </trkpt>
      <trkpt lat="31.288854683816304" lon="121.21092962011758">
        <ele>24.4</ele>
        <time>2025-04-25T11:22:40Z</time>
      </trkpt>
      <trkpt lat="31.28884540262152" lon="121.21069231966702">
        <ele>25.6</ele>
        <time>2025-04-25T11:22:58Z</time>
      </trkpt>
      <trkpt lat="31.288864320105972" lon="121.21063023894203">
        <ele>25.4</ele>
        <time>2025-04-25T11:23:04Z</time>
      </trkpt>
      <trkpt lat="31.289033988351022" lon="121.21041294659321">
        <ele>26.8</ele>
        <time>2025-04-25T11:23:22Z</time>
      </trkpt>
      <trkpt lat="31.28906388992617" lon="121.21034185277728">
        <ele>29.9</ele>
        <time>2025-04-25T11:23:28Z</time>
      </trkpt>
      <trkpt lat="31.289167718652635" lon="121.2102357073674">
        <ele>27.1</ele>
        <time>2025-04-25T11:23:37Z</time>
      </trkpt>
      <trkpt lat="31.28931440850861" lon="121.21003042969392">
        <ele>24.5</ele>
        <time>2025-04-25T11:23:55Z</time>
      </trkpt>
      <trkpt lat="31.289375209555633" lon="121.20988824000933">
        <ele>20.0</ele>
        <time>2025-04-25T11:24:07Z</time>
      </trkpt>
      <trkpt lat="31.289428097034754" lon="121.20981413909193">
        <ele>19.2</ele>
        <time>2025-04-25T11:24:13Z</time>
      </trkpt>
      <trkpt lat="31.289345230338313" lon="121.20989525167083">
        <ele>31.9</ele>
        <time>2025-04-25T11:24:16Z</time>
      </trkpt>
      <trkpt lat="31.28937115586063" lon="121.20984318174284">
        <ele>25.6</ele>
        <time>2025-04-25T11:24:19Z</time>
      </trkpt>
      <trkpt lat="31.289544849770966" lon="121.20965191745151">
        <ele>21.1</ele>
        <time>2025-04-25T11:24:28Z</time>
      </trkpt>
      <trkpt lat="31.2897034058571" lon="121.2093455017159">
        <ele>17.3</ele>
        <time>2025-04-25T11:24:49Z</time>
      </trkpt>
      <trkpt lat="31.289805231184534" lon="121.2092383516745">
        <ele>17.6</ele>
        <time>2025-04-25T11:24:58Z</time>
      </trkpt>
      <trkpt lat="31.289849115965332" lon="121.20916024464422">
        <ele>16.4</ele>
        <time>2025-04-25T11:25:04Z</time>
      </trkpt>
      <trkpt lat="31.289952932418416" lon="121.20904708581212">
        <ele>15.4</ele>
        <time>2025-04-25T11:25:16Z</time>
      </trkpt>
      <trkpt lat="31.290093576314966" lon="121.20880875655936">
        <ele>16.2</ele>
        <time>2025-04-25T11:25:40Z</time>
      </trkpt>
      <trkpt lat="31.2901184464089" lon="121.20871362728232">
        <ele>17.5</ele>
        <time>2025-04-25T11:25:46Z</time>
      </trkpt>
      <trkpt lat="31.29018234090311" lon="121.20865053735713">
        <ele>19.7</ele>
        <time>2025-04-25T11:25:52Z</time>
      </trkpt>
      <trkpt lat="31.290266875114305" lon="121.20831007198329">
        <ele>19.5</ele>
        <time>2025-04-25T11:26:16Z</time>
      </trkpt>
      <trkpt lat="31.290306800301636" lon="121.20826400631135">
        <ele>20.6</ele>
        <time>2025-04-25T11:26:22Z</time>
      </trkpt>
      <trkpt lat="31.29036076057903" lon="121.20824998275324">
        <ele>20.2</ele>
        <time>2025-04-25T11:26:25Z</time>
      </trkpt>
      <trkpt lat="31.290548827088323" lon="121.20836211830827">
        <ele>22.4</ele>
        <time>2025-04-25T11:26:40Z</time>
      </trkpt>
      <trkpt lat="31.290547066535265" lon="121.20855037195173">
        <ele>36.7</ele>
        <time>2025-04-25T11:26:46Z</time>
      </trkpt>
      <trkpt lat="31.290623066162933" lon="121.20857439776421">
        <ele>26.0</ele>
        <time>2025-04-25T11:26:52Z</time>
      </trkpt>
      <trkpt lat="31.290682009357333" lon="121.20854835777921">
        <ele>25.4</ele>
        <time>2025-04-25T11:26:55Z</time>
      </trkpt>
      <trkpt lat="31.290776001714047" lon="121.20857238206229">
        <ele>26.4</ele>
        <time>2025-04-25T11:27:01Z</time>
      </trkpt>
      <trkpt lat="31.29087608014651" lon="121.20866649980036">
        <ele>28.2</ele>
        <time>2025-04-25T11:27:10Z</time>
      </trkpt>
      <trkpt lat="31.291004105396368" lon="121.20872757068503">
        <ele>28.3</ele>
        <time>2025-04-25T11:27:19Z</time>
      </trkpt>
      <trkpt lat="31.291043141333585" lon="121.20876862226145">
        <ele>26.5</ele>
        <time>2025-04-25T11:27:25Z</time>
      </trkpt>
      <trkpt lat="31.291178114484747" lon="121.20879064021223">
        <ele>23.5</ele>
        <time>2025-04-25T11:27:37Z</time>
      </trkpt>
      <trkpt lat="31.29129004401837" lon="121.20877060393026">
        <ele>36.5</ele>
        <time>2025-04-25T11:27:46Z</time>
      </trkpt>
      <trkpt lat="31.29137095201764" lon="121.20872353411283">
        <ele>41.8</ele>
        <time>2025-04-25T11:27:52Z</time>
      </trkpt>
      <trkpt lat="31.291423786576257" lon="121.20860937667375">
        <ele>34.3</ele>
        <time>2025-04-25T11:27:58Z</time>
      </trkpt>
      <trkpt lat="31.291412641548384" lon="121.20849121887024">
        <ele>30.0</ele>
        <time>2025-04-25T11:28:04Z</time>
      </trkpt>
      <trkpt lat="31.291462527417053" lon="121.20841711484034">
        <ele>25.4</ele>
        <time>2025-04-25T11:28:10Z</time>
      </trkpt>
      <trkpt lat="31.291487415595178" lon="121.20833700464861">
        <ele>24.1</ele>
        <time>2025-04-25T11:28:16Z</time>
      </trkpt>
      <trkpt lat="31.2914701251656" lon="121.20810369018454">
        <ele>25.6</ele>
        <time>2025-04-25T11:28:34Z</time>
      </trkpt>
      <trkpt lat="31.291454067632817" lon="121.20805362352718">
        <ele>25.8</ele>
        <time>2025-04-25T11:28:37Z</time>
      </trkpt>
      <trkpt lat="31.291482916169965" lon="121.2079444725037">
        <ele>24.4</ele>
        <time>2025-04-25T11:28:43Z</time>
      </trkpt>
      <trkpt lat="31.291500571635865" lon="121.20768211234332">
        <ele>22.1</ele>
        <time>2025-04-25T11:29:01Z</time>
      </trkpt>
      <trkpt lat="31.291544192630216" lon="121.20740272430736">
        <ele>24.4</ele>
        <time>2025-04-25T11:29:28Z</time>
      </trkpt>
      <trkpt lat="31.29156805944754" lon="121.20730759085195">
        <ele>25.4</ele>
        <time>2025-04-25T11:29:31Z</time>
      </trkpt>
      <trkpt lat="31.29155895759246" lon="121.2072264793456">
        <ele>26.3</ele>
        <time>2025-04-25T11:29:34Z</time>
      </trkpt>
      <trkpt lat="31.29142081619105" lon="121.20707528123808">
        <ele>27.2</ele>
        <time>2025-04-25T11:29:46Z</time>
      </trkpt>
      <trkpt lat="31.291371826830847" lon="121.20706827566131">
        <ele>32.0</ele>
        <time>2025-04-25T11:29:52Z</time>
      </trkpt>
      <trkpt lat="31.291387887028378" lon="121.207119345267">
        <ele>30.8</ele>
        <time>2025-04-25T11:29:55Z</time>
      </trkpt>
      <trkpt lat="31.291296879360242" lon="121.20708530570653">
        <ele>32.5</ele>
        <time>2025-04-25T11:30:01Z</time>
      </trkpt>
      <trkpt lat="31.291257845421573" lon="121.20704725611442">
        <ele>34.9</ele>
        <time>2025-04-25T11:30:04Z</time>
      </trkpt>
      <trkpt lat="31.291027794307215" lon="121.20693712226624">
        <ele>41.9</ele>
        <time>2025-04-25T11:30:19Z</time>
      </trkpt>
      <trkpt lat="31.29084260631067" lon="121.20673685810016">
        <ele>30.4</ele>
        <time>2025-04-25T11:30:37Z</time>
      </trkpt>
      <trkpt lat="31.290786576272005" lon="121.20669680673385">
        <ele>28.5</ele>
        <time>2025-04-25T11:30:43Z</time>
      </trkpt>
      <trkpt lat="31.290658568735253" lon="121.20665175441734">
        <ele>28.8</ele>
        <time>2025-04-25T11:30:55Z</time>
      </trkpt>
      <trkpt lat="31.290533481999052" lon="121.20654761873439">
        <ele>28.6</ele>
        <time>2025-04-25T11:31:07Z</time>
      </trkpt>
      <trkpt lat="31.290484395996604" lon="121.20646751012286">
        <ele>28.6</ele>
        <time>2025-04-25T11:31:13Z</time>
      </trkpt>
      <trkpt lat="31.29043835368606" lon="121.20642144909803">
        <ele>30.6</ele>
        <time>2025-04-25T11:31:28Z</time>
      </trkpt>
      <trkpt lat="31.29042027211662" lon="121.206354355928">
        <ele>32.4</ele>
        <time>2025-04-25T11:31:31Z</time>
      </trkpt>
      <trkpt lat="31.290467213257312" lon="121.20632430948054">
        <ele>32.5</ele>
        <time>2025-04-25T11:31:37Z</time>
      </trkpt>
      <trkpt lat="31.290527078649976" lon="121.20624118678951">
        <ele>33.0</ele>
        <time>2025-04-25T11:31:43Z</time>
      </trkpt>
      <trkpt lat="31.290759708418506" lon="121.2060338727825">
        <ele>36.4</ele>
        <time>2025-04-25T11:32:01Z</time>
      </trkpt>
      <trkpt lat="31.290800592910333" lon="121.20595976380757">
        <ele>37.0</ele>
        <time>2025-04-25T11:32:07Z</time>
      </trkpt>
      <trkpt lat="31.29082048307316" lon="121.20588365359362">
        <ele>38.3</ele>
        <time>2025-04-25T11:32:13Z</time>
      </trkpt>
      <trkpt lat="31.29077445879702" lon="121.20585161176545">
        <ele>37.6</ele>
        <time>2025-04-25T11:32:16Z</time>
      </trkpt>
      <trkpt lat="31.290748355266608" lon="121.20576649232282">
        <ele>37.3</ele>
        <time>2025-04-25T11:32:22Z</time>
      </trkpt>
      <trkpt lat="31.290772258210854" lon="121.20570139710148">
        <ele>37.4</ele>
        <time>2025-04-25T11:32:28Z</time>
      </trkpt>
      <trkpt lat="31.2907820697001" lon="121.2055641994356">
        <ele>32.3</ele>
        <time>2025-04-25T11:32:43Z</time>
      </trkpt>
      <trkpt lat="31.290896804409677" lon="121.20540195618291">
        <ele>34.5</ele>
        <time>2025-04-25T11:32:55Z</time>
      </trkpt>
      <trkpt lat="31.290921687362257" lon="121.20532283991555">
        <ele>33.9</ele>
        <time>2025-04-25T11:33:01Z</time>
      </trkpt>
      <trkpt lat="31.29091453830529" lon="121.20521067836889">
        <ele>35.2</ele>
        <time>2025-04-25T11:33:07Z</time>
      </trkpt>
      <trkpt lat="31.29067345637284" lon="121.20507850729544">
        <ele>37.4</ele>
        <time>2025-04-25T11:33:28Z</time>
      </trkpt>
      <trkpt lat="31.290457266969288" lon="121.2048752300241">
        <ele>30.8</ele>
        <time>2025-04-25T11:33:49Z</time>
      </trkpt>
      <trkpt lat="31.29025703437934" lon="121.20464591204266">
        <ele>34.2</ele>
        <time>2025-04-25T11:34:22Z</time>
      </trkpt>
      <trkpt lat="31.2901730793931" lon="121.20465393092095">
        <ele>34.7</ele>
        <time>2025-04-25T11:34:28Z</time>
      </trkpt>
      <trkpt lat="31.29002634314068" lon="121.20480316154398">
        <ele>32.8</ele>
        <time>2025-04-25T11:34:43Z</time>
      </trkpt>
      <trkpt lat="31.289995451425533" lon="121.20487326642183">
        <ele>32.0</ele>
        <time>2025-04-25T11:34:49Z</time>
      </trkpt>
      <trkpt lat="31.28995681891566" lon="121.20513164529672">
        <ele>30.3</ele>
        <time>2025-04-25T11:35:07Z</time>
      </trkpt>
      <trkpt lat="31.289701244255564" lon="121.20536901029993">
        <ele>31.8</ele>
        <time>2025-04-25T11:35:31Z</time>
      </trkpt>
      <trkpt lat="31.289626308515647" lon="121.20539405278724">
        <ele>32.4</ele>
        <time>2025-04-25T11:35:37Z</time>
      </trkpt>
      <trkpt lat="31.289452828148463" lon="121.20572754670557">
        <ele>33.1</ele>
        <time>2025-04-25T11:36:01Z</time>
      </trkpt>
      <trkpt lat="31.289345737067016" lon="121.20562741228689">
        <ele>35.9</ele>
        <time>2025-04-25T11:36:16Z</time>
      </trkpt>
      <trkpt lat="31.28921868892777" lon="121.20555331669003">
        <ele>35.4</ele>
        <time>2025-04-25T11:36:28Z</time>
      </trkpt>
      <trkpt lat="31.289141564948963" lon="121.20543815755556">
        <ele>37.3</ele>
        <time>2025-04-25T11:36:37Z</time>
      </trkpt>
      <trkpt lat="31.289013501981202" lon="121.20535304572547">
        <ele>37.1</ele>
        <time>2025-04-25T11:36:49Z</time>
      </trkpt>
      <trkpt lat="31.288853312030085" lon="121.20516478713257">
        <ele>35.5</ele>
        <time>2025-04-25T11:37:07Z</time>
      </trkpt>
      <trkpt lat="31.288797274987473" lon="121.20512072803557">
        <ele>36.6</ele>
        <time>2025-04-25T11:37:13Z</time>
      </trkpt>
      <trkpt lat="31.288760155266463" lon="121.20502158728088">
        <ele>38.8</ele>
        <time>2025-04-25T11:37:19Z</time>
      </trkpt>
      <trkpt lat="31.288715090401922" lon="121.20496050229578">
        <ele>37.6</ele>
        <time>2025-04-25T11:37:25Z</time>
      </trkpt>
      <trkpt lat="31.28864608981631" lon="121.20493947756607">
        <ele>41.1</ele>
        <time>2025-04-25T11:37:28Z</time>
      </trkpt>
      <trkpt lat="31.288559877358328" lon="121.20475822058236">
        <ele>42.8</ele>
        <time>2025-04-25T11:37:40Z</time>
      </trkpt>
      <trkpt lat="31.28853876940306" lon="121.20467309791142">
        <ele>41.6</ele>
        <time>2025-04-25T11:37:46Z</time>
      </trkpt>
      <trkpt lat="31.28846470892982" lon="121.20460700742207">
        <ele>40.4</ele>
        <time>2025-04-25T11:37:52Z</time>
      </trkpt>
      <trkpt lat="31.288391738644485" lon="121.20460701363432">
        <ele>40.1</ele>
        <time>2025-04-25T11:37:58Z</time>
      </trkpt>
      <trkpt lat="31.28832479475792" lon="121.20462805014574">
        <ele>38.4</ele>
        <time>2025-04-25T11:38:04Z</time>
      </trkpt>
      <trkpt lat="31.288279781498012" lon="121.20460502023043">
        <ele>37.8</ele>
        <time>2025-04-25T11:38:10Z</time>
      </trkpt>
      <trkpt lat="31.288125552458627" lon="121.20439272155603">
        <ele>37.0</ele>
        <time>2025-04-25T11:38:28Z</time>
      </trkpt>
      <trkpt lat="31.287880515648048" lon="121.20429359635376">
        <ele>36.1</ele>
        <time>2025-04-25T11:38:47Z</time>
      </trkpt>
      <trkpt lat="31.287540597634045" lon="121.2042525647173">
        <ele>36.9</ele>
        <time>2025-04-25T11:39:11Z</time>
      </trkpt>
      <trkpt lat="31.28745164362553" lon="121.20425958263621">
        <ele>38.2</ele>
        <time>2025-04-25T11:39:17Z</time>
      </trkpt>
      <trkpt lat="31.287223002049252" lon="121.20445188530356">
        <ele>37.9</ele>
        <time>2025-04-25T11:39:41Z</time>
      </trkpt>
      <trkpt lat="31.287016443850444" lon="121.2047122846432">
        <ele>39.7</ele>
        <time>2025-04-25T11:40:02Z</time>
      </trkpt>
      <trkpt lat="31.286798941600097" lon="121.20501173967813">
        <ele>35.5</ele>
        <time>2025-04-25T11:40:32Z</time>
      </trkpt>
      <trkpt lat="31.28664323532586" lon="121.20518099847223">
        <ele>35.8</ele>
        <time>2025-04-25T11:40:50Z</time>
      </trkpt>
      <trkpt lat="31.28661536757046" lon="121.20527012980605">
        <ele>36.6</ele>
        <time>2025-04-25T11:40:56Z</time>
      </trkpt>
      <trkpt lat="31.286504613378067" lon="121.20541835315578">
        <ele>31.4</ele>
        <time>2025-04-25T11:41:08Z</time>
      </trkpt>
      <trkpt lat="31.286450619240785" lon="121.20540634043121">
        <ele>30.3</ele>
        <time>2025-04-25T11:41:14Z</time>
      </trkpt>
      <trkpt lat="31.28637569048938" lon="121.2054363901015">
        <ele>30.0</ele>
        <time>2025-04-25T11:41:20Z</time>
      </trkpt>
      <trkpt lat="31.286358771748052" lon="121.20549147084041">
        <ele>29.7</ele>
        <time>2025-04-25T11:41:23Z</time>
      </trkpt>
      <trkpt lat="31.2862578980946" lon="121.20555457014649">
        <ele>34.0</ele>
        <time>2025-04-25T11:41:35Z</time>
      </trkpt>
      <trkpt lat="31.28615314037239" lon="121.20570279170799">
        <ele>35.6</ele>
        <time>2025-04-25T11:41:47Z</time>
      </trkpt>
      <trkpt lat="31.28605940572154" lon="121.20587204168618">
        <ele>37.4</ele>
        <time>2025-04-25T11:41:59Z</time>
      </trkpt>
      <trkpt lat="31.28599448458623" lon="121.20591110293365">
        <ele>38.9</ele>
        <time>2025-04-25T11:42:05Z</time>
      </trkpt>
      <trkpt lat="31.285958593000803" lon="121.20598120588546">
        <ele>42.2</ele>
        <time>2025-04-25T11:42:11Z</time>
      </trkpt>
      <trkpt lat="31.285750004110216" lon="121.20622557067327">
        <ele>46.0</ele>
        <time>2025-04-25T11:42:35Z</time>
      </trkpt>
      <trkpt lat="31.2855794113202" lon="121.20647994449867">
        <ele>43.7</ele>
        <time>2025-04-25T11:42:56Z</time>
      </trkpt>
      <trkpt lat="31.285431759955177" lon="121.20669826385121">
        <ele>45.4</ele>
        <time>2025-04-25T11:43:14Z</time>
      </trkpt>
      <trkpt lat="31.285278052032062" lon="121.20687252073665">
        <ele>44.0</ele>
        <time>2025-04-25T11:43:32Z</time>
      </trkpt>
      <trkpt lat="31.28514238954033" lon="121.20708783222784">
        <ele>45.1</ele>
        <time>2025-04-25T11:43:50Z</time>
      </trkpt>
      <trkpt lat="31.284943777694963" lon="121.2073231753178">
        <ele>46.9</ele>
        <time>2025-04-25T11:44:14Z</time>
      </trkpt>
      <trkpt lat="31.284762165152713" lon="121.20756452348111">
        <ele>47.3</ele>
        <time>2025-04-25T11:44:35Z</time>
      </trkpt>
      <trkpt lat="31.284611484198567" lon="121.20776380964352">
        <ele>47.6</ele>
        <time>2025-04-25T11:44:53Z</time>
      </trkpt>
      <trkpt lat="31.284578794703986" lon="121.2079951281432">
        <ele>45.5</ele>
        <time>2025-04-25T11:45:08Z</time>
      </trkpt>
      <trkpt lat="31.284552866907653" lon="121.2080431957394">
        <ele>46.0</ele>
        <time>2025-04-25T11:45:11Z</time>
      </trkpt>
      <trkpt lat="31.284486947815218" lon="121.20808525850363">
        <ele>46.3</ele>
        <time>2025-04-25T11:45:17Z</time>
      </trkpt>
      <trkpt lat="31.284296393770536" lon="121.208373665121">
        <ele>44.1</ele>
        <time>2025-04-25T11:45:41Z</time>
      </trkpt>
      <trkpt lat="31.284246495669773" lon="121.20843775576122">
        <ele>43.4</ele>
        <time>2025-04-25T11:45:47Z</time>
      </trkpt>
      <trkpt lat="31.28417948004374" lon="121.20840371558096">
        <ele>42.8</ele>
        <time>2025-04-25T11:45:53Z</time>
      </trkpt>
      <trkpt lat="31.284134494748432" lon="121.20840071535767">
        <ele>42.9</ele>
        <time>2025-04-25T11:45:56Z</time>
      </trkpt>
      <trkpt lat="31.284011691344148" lon="121.20851588085154">
        <ele>44.8</ele>
        <time>2025-04-25T11:46:08Z</time>
      </trkpt>
      <trkpt lat="31.283898007659545" lon="121.20872917657012">
        <ele>44.0</ele>
        <time>2025-04-25T11:46:26Z</time>
      </trkpt>
      <trkpt lat="31.28378720457215" lon="121.20884934650309">
        <ele>43.7</ele>
        <time>2025-04-25T11:46:38Z</time>
      </trkpt>
      <trkpt lat="31.2836545192241" lon="121.20905663356726">
        <ele>40.3</ele>
        <time>2025-04-25T11:46:56Z</time>
      </trkpt>
      <trkpt lat="31.283553682196295" lon="121.20915377089395">
        <ele>38.8</ele>
        <time>2025-04-25T11:47:08Z</time>
      </trkpt>
      <trkpt lat="31.283396111018053" lon="121.20944617001895">
        <ele>39.8</ele>
        <time>2025-04-25T11:47:29Z</time>
      </trkpt>
      <trkpt lat="31.283320317102078" lon="121.20958736172247">
        <ele>39.9</ele>
        <time>2025-04-25T11:47:41Z</time>
      </trkpt>
      <trkpt lat="31.28318352187811" lon="121.20970753050806">
        <ele>40.8</ele>
        <time>2025-04-25T11:47:53Z</time>
      </trkpt>
      <trkpt lat="31.28313661894459" lon="121.2097706168117">
        <ele>40.8</ele>
        <time>2025-04-25T11:47:59Z</time>
      </trkpt>
      <trkpt lat="31.28307583719307" lon="121.20992782654486">
        <ele>41.7</ele>
        <time>2025-04-25T11:48:11Z</time>
      </trkpt>
      <trkpt lat="31.28288019721783" lon="121.21015613880537">
        <ele>42.2</ele>
        <time>2025-04-25T11:48:35Z</time>
      </trkpt>
      <trkpt lat="31.282695602212318" lon="121.21042650235157">
        <ele>42.0</ele>
        <time>2025-04-25T11:48:56Z</time>
      </trkpt>
      <trkpt lat="31.28249805386565" lon="121.21073291044027">
        <ele>40.9</ele>
        <time>2025-04-25T11:49:20Z</time>
      </trkpt>
      <trkpt lat="31.282373324209303" lon="121.21091515228761">
        <ele>40.1</ele>
        <time>2025-04-25T11:49:38Z</time>
      </trkpt>
      <trkpt lat="31.28233843688778" lon="121.2109972590762">
        <ele>40.0</ele>
        <time>2025-04-25T11:49:44Z</time>
      </trkpt>
      <trkpt lat="31.282173830656205" lon="121.21127061709169">
        <ele>40.0</ele>
        <time>2025-04-25T11:50:08Z</time>
      </trkpt>
      <trkpt lat="31.282059284126376" lon="121.21161405548823">
        <ele>39.3</ele>
        <time>2025-04-25T11:50:32Z</time>
      </trkpt>
      <trkpt lat="31.28197870720375" lon="121.21194647344117">
        <ele>38.2</ele>
        <time>2025-04-25T11:50:56Z</time>
      </trkpt>
      <trkpt lat="31.28197880524892" lon="121.21203057685051">
        <ele>36.2</ele>
        <time>2025-04-25T11:51:02Z</time>
      </trkpt>
      <trkpt lat="31.281966890593655" lon="121.2120996626331">
        <ele>31.6</ele>
        <time>2025-04-25T11:51:20Z</time>
      </trkpt>
      <trkpt lat="31.281977976734986" lon="121.21217775732082">
        <ele>30.6</ele>
        <time>2025-04-25T11:51:26Z</time>
      </trkpt>
      <trkpt lat="31.28190633981539" lon="121.21246611469769">
        <ele>29.0</ele>
        <time>2025-04-25T11:51:47Z</time>
      </trkpt>
      <trkpt lat="31.281906732357232" lon="121.21280852810546">
        <ele>29.1</ele>
        <time>2025-04-25T11:52:08Z</time>
      </trkpt>
      <trkpt lat="31.28192611463678" lon="121.21315193703984">
        <ele>28.2</ele>
        <time>2025-04-25T11:52:32Z</time>
      </trkpt>
      <trkpt lat="31.28190530409715" lon="121.21331212893442">
        <ele>26.3</ele>
        <time>2025-04-25T11:52:44Z</time>
      </trkpt>
      <trkpt lat="31.2819086877545" lon="121.21365553321573">
        <ele>25.7</ele>
        <time>2025-04-25T11:53:08Z</time>
      </trkpt>
      <trkpt lat="31.281918788471383" lon="121.21374964251083">
        <ele>25.7</ele>
        <time>2025-04-25T11:53:14Z</time>
      </trkpt>
      <trkpt lat="31.281905898435635" lon="121.2138437534497">
        <ele>25.3</ele>
        <time>2025-04-25T11:53:20Z</time>
      </trkpt>
      <trkpt lat="31.281912162850766" lon="121.21408503311594">
        <ele>27.4</ele>
        <time>2025-04-25T11:53:38Z</time>
      </trkpt>
      <trkpt lat="31.28202833937934" lon="121.21428925882093">
        <ele>29.8</ele>
        <time>2025-04-25T11:53:56Z</time>
      </trkpt>
      <trkpt lat="31.282091316610128" lon="121.21429225692187">
        <ele>30.9</ele>
        <time>2025-04-25T11:54:02Z</time>
      </trkpt>
      <trkpt lat="31.2820294135222" lon="121.21435733692883">
        <ele>32.0</ele>
        <time>2025-04-25T11:54:08Z</time>
      </trkpt>
      <trkpt lat="31.281990508444046" lon="121.21442942285586">
        <ele>30.0</ele>
        <time>2025-04-25T11:54:14Z</time>
      </trkpt>
      <trkpt lat="31.28200168492846" lon="121.21459561169121">
        <ele>27.6</ele>
        <time>2025-04-25T11:54:26Z</time>
      </trkpt>
      <trkpt lat="31.282029784159437" lon="121.21469772543234">
        <ele>28.4</ele>
        <time>2025-04-25T11:54:32Z</time>
      </trkpt>
      <trkpt lat="31.282027954923944" lon="121.21485490361155">
        <ele>28.7</ele>
        <time>2025-04-25T11:54:44Z</time>
      </trkpt>
      <trkpt lat="31.282044037834325" lon="121.21493799600393">
        <ele>28.3</ele>
        <time>2025-04-25T11:54:50Z</time>
      </trkpt>
      <trkpt lat="31.282155122055382" lon="121.21505912280774">
        <ele>27.5</ele>
        <time>2025-04-25T11:55:02Z</time>
      </trkpt>
      <trkpt lat="31.282191173670792" lon="121.21512118935209">
        <ele>26.1</ele>
        <time>2025-04-25T11:55:08Z</time>
      </trkpt>
      <trkpt lat="31.28234423771859" lon="121.21524030956138">
        <ele>28.8</ele>
        <time>2025-04-25T11:55:26Z</time>
      </trkpt>
      <trkpt lat="31.28235728890214" lon="121.21529336762073">
        <ele>28.7</ele>
        <time>2025-04-25T11:55:29Z</time>
      </trkpt>
      <trkpt lat="31.2824182967285" lon="121.21532439699749">
        <ele>29.5</ele>
        <time>2025-04-25T11:55:35Z</time>
      </trkpt>
      <trkpt lat="31.282639433732424" lon="121.21553961695379">
        <ele>19.4</ele>
        <time>2025-04-25T11:55:59Z</time>
      </trkpt>
      <trkpt lat="31.282704421701435" lon="121.21555362691993">
        <ele>16.2</ele>
        <time>2025-04-25T11:56:08Z</time>
      </trkpt>
      <trkpt lat="31.282779434085672" lon="121.21559466586473">
        <ele>16.0</ele>
        <time>2025-04-25T11:56:14Z</time>
      </trkpt>
      <trkpt lat="31.28288348824315" lon="121.21568675849383">
        <ele>13.5</ele>
        <time>2025-04-25T11:56:23Z</time>
      </trkpt>
      <trkpt lat="31.282911528290484" lon="121.21573581003095">
        <ele>12.6</ele>
        <time>2025-04-25T11:56:26Z</time>
      </trkpt>
      <trkpt lat="31.282977456818756" lon="121.21569375821673">
        <ele>10.5</ele>
        <time>2025-04-25T11:56:32Z</time>
      </trkpt>
      <trkpt lat="31.283166111229374" lon="121.21544046246765">
        <ele>12.6</ele>
        <time>2025-04-25T11:56:53Z</time>
      </trkpt>
      <trkpt lat="31.283205966035307" lon="121.21531932448814">
        <ele>12.9</ele>
        <time>2025-04-25T11:57:02Z</time>
      </trkpt>
      <trkpt lat="31.28336073123409" lon="121.21515913255448">
        <ele>13.3</ele>
        <time>2025-04-25T11:57:20Z</time>
      </trkpt>
      <trkpt lat="31.283445639409948" lon="121.2151060659148">
        <ele>13.9</ele>
        <time>2025-04-25T11:57:26Z</time>
      </trkpt>
      <trkpt lat="31.283546483956425" lon="121.21499993819513">
        <ele>15.1</ele>
        <time>2025-04-25T11:57:35Z</time>
      </trkpt>
      <trkpt lat="31.283615422167298" lon="121.2149688974147">
        <ele>14.6</ele>
        <time>2025-04-25T11:57:41Z</time>
      </trkpt>
      <trkpt lat="31.283725502572253" lon="121.21508601968006">
        <ele>15.3</ele>
        <time>2025-04-25T11:57:50Z</time>
      </trkpt>
      <trkpt lat="31.283773503176285" lon="121.21510503692873">
        <ele>16.4</ele>
        <time>2025-04-25T11:57:53Z</time>
      </trkpt>
      <trkpt lat="31.283858367246147" lon="121.21501092407219">
        <ele>20.7</ele>
        <time>2025-04-25T11:58:02Z</time>
      </trkpt>
      <trkpt lat="31.28396239209184" lon="121.21507398607044">
        <ele>23.7</ele>
        <time>2025-04-25T11:58:11Z</time>
      </trkpt>
      <trkpt lat="31.28393540642774" lon="121.21507699173362">
        <ele>21.1</ele>
        <time>2025-04-25T11:58:17Z</time>
      </trkpt>
      <trkpt lat="31.283840381109126" lon="121.21501693235349">
        <ele>30.5</ele>
        <time>2025-04-25T11:58:26Z</time>
      </trkpt>
      <trkpt lat="31.283790404926975" lon="121.21501993997671">
        <ele>29.1</ele>
        <time>2025-04-25T11:58:32Z</time>
      </trkpt>
      <trkpt lat="31.28375946925152" lon="121.21506799657585">
        <ele>28.1</ele>
        <time>2025-04-25T11:58:38Z</time>
      </trkpt>
      <trkpt lat="31.28371745971037" lon="121.21504297204704">
        <ele>26.9</ele>
        <time>2025-04-25T11:58:41Z</time>
      </trkpt>
      <trkpt lat="31.283667492123215" lon="121.21505398865999">
        <ele>27.1</ele>
        <time>2025-04-25T11:58:47Z</time>
      </trkpt>
      <trkpt lat="31.28363354584017" lon="121.21509103310906">
        <ele>21.1</ele>
        <time>2025-04-25T11:58:50Z</time>
      </trkpt>
      <trkpt lat="31.283884605122505" lon="121.21524318200787">
        <ele>25.7</ele>
        <time>2025-04-25T11:59:02Z</time>
      </trkpt>
      <trkpt lat="31.28394057779199" lon="121.21523917278172">
        <ele>25.7</ele>
        <time>2025-04-25T11:59:05Z</time>
      </trkpt>
      <trkpt lat="31.283967495050632" lon="121.2151720955485">
        <ele>25.2</ele>
        <time>2025-04-25T11:59:08Z</time>
      </trkpt>
      <trkpt lat="31.28402242529471" lon="121.21512804157456">
        <ele>24.9</ele>
        <time>2025-04-25T11:59:14Z</time>
      </trkpt>
      <trkpt lat="31.2841780501384" lon="121.2148387027779">
        <ele>17.2</ele>
        <time>2025-04-25T11:59:32Z</time>
      </trkpt>
      <trkpt lat="31.284221818580857" lon="121.21464147542045">
        <ele>17.5</ele>
        <time>2025-04-25T11:59:50Z</time>
      </trkpt>
      <trkpt lat="31.284310658985433" lon="121.21452833896667">
        <ele>12.4</ele>
        <time>2025-04-25T12:00:02Z</time>
      </trkpt>
      <trkpt lat="31.284477371669695" lon="121.21432809553838">
        <ele>15.3</ele>
        <time>2025-04-25T12:00:17Z</time>
      </trkpt>
      <trkpt lat="31.284549323426564" lon="121.21431106987026">
        <ele>14.8</ele>
        <time>2025-04-25T12:00:23Z</time>
      </trkpt>
      <trkpt lat="31.284697277946456" lon="121.21432507339716">
        <ele>14.0</ele>
        <time>2025-04-25T12:00:35Z</time>
      </trkpt>
      <trkpt lat="31.284801272471363" lon="121.21435910363559">
        <ele>14.1</ele>
        <time>2025-04-25T12:00:47Z</time>
      </trkpt>
      <trkpt lat="31.284921201265302" lon="121.21433907045986">
        <ele>14.2</ele>
        <time>2025-04-25T12:00:56Z</time>
      </trkpt>
      <trkpt lat="31.285206927909726" lon="121.21419688259357">
        <ele>21.8</ele>
        <time>2025-04-25T12:01:14Z</time>
      </trkpt>
      <trkpt lat="31.285250853696535" lon="121.21414581993524">
        <ele>22.6</ele>
        <time>2025-04-25T12:01:17Z</time>
      </trkpt>
      <trkpt lat="31.285400754670032" lon="121.2141117678592">
        <ele>23.8</ele>
        <time>2025-04-25T12:01:35Z</time>
      </trkpt>
      <trkpt lat="31.2854577345977" lon="121.21411476648805">
        <ele>22.6</ele>
        <time>2025-04-25T12:01:38Z</time>
      </trkpt>
      <trkpt lat="31.285502690768197" lon="121.2140917360375">
        <ele>21.0</ele>
        <time>2025-04-25T12:01:41Z</time>
      </trkpt>
      <trkpt lat="31.28567030167748" lon="121.21380238559901">
        <ele>20.2</ele>
        <time>2025-04-25T12:02:05Z</time>
      </trkpt>
      <trkpt lat="31.28582598219383" lon="121.2135731038856">
        <ele>24.9</ele>
        <time>2025-04-25T12:02:23Z</time>
      </trkpt>
      <trkpt lat="31.285861871059414" lon="121.21348699953346">
        <ele>21.7</ele>
        <time>2025-04-25T12:02:29Z</time>
      </trkpt>
      <trkpt lat="31.285885721857905" lon="121.21336285098815">
        <ele>18.3</ele>
        <time>2025-04-25T12:02:38Z</time>
      </trkpt>
      <trkpt lat="31.285963542159017" lon="121.21323168900015">
        <ele>16.5</ele>
        <time>2025-04-25T12:02:47Z</time>
      </trkpt>
      <trkpt lat="31.286113318852042" lon="121.21308850597906">
        <ele>23.3</ele>
        <time>2025-04-25T12:03:02Z</time>
      </trkpt>
      <trkpt lat="31.286272933456647" lon="121.21280715571662">
        <ele>17.3</ele>
        <time>2025-04-25T12:03:26Z</time>
      </trkpt>
      <trkpt lat="31.286391562479473" lon="121.21252580620342">
        <ele>19.4</ele>
        <time>2025-04-25T12:03:53Z</time>
      </trkpt>
      <trkpt lat="31.286487379077183" lon="121.21240064619013">
        <ele>19.3</ele>
        <time>2025-04-25T12:04:05Z</time>
      </trkpt>
      <trkpt lat="31.28650228045492" lon="121.21232054744628">
        <ele>19.7</ele>
        <time>2025-04-25T12:04:11Z</time>
      </trkpt>
      <trkpt lat="31.28643814548727" lon="121.21218138301056">
        <ele>19.8</ele>
        <time>2025-04-25T12:04:23Z</time>
      </trkpt>
      <trkpt lat="31.286445057758797" lon="121.21210829293513">
        <ele>22.7</ele>
        <time>2025-04-25T12:04:29Z</time>
      </trkpt>
      <trkpt lat="31.28650996945361" lon="121.21205522233079">
        <ele>23.8</ele>
        <time>2025-04-25T12:04:35Z</time>
      </trkpt>
      <trkpt lat="31.286698503669992" lon="121.21172279641291">
        <ele>19.0</ele>
        <time>2025-04-25T12:05:05Z</time>
      </trkpt>
      <trkpt lat="31.28675042832493" lon="121.21167673490952">
        <ele>15.8</ele>
        <time>2025-04-25T12:05:11Z</time>
      </trkpt>
      <trkpt lat="31.2869030979709" lon="121.21144943915678">
        <ele>17.7</ele>
        <time>2025-04-25T12:05:26Z</time>
      </trkpt>
      <trkpt lat="31.28699279185532" lon="121.21122214701208">
        <ele>16.2</ele>
        <time>2025-04-25T12:05:47Z</time>
      </trkpt>
      <trkpt lat="31.28715538017302" lon="121.21093276844088">
        <ele>21.1</ele>
        <time>2025-04-25T12:06:11Z</time>
      </trkpt>
      <trkpt lat="31.287224217596147" lon="121.21082062047678">
        <ele>21.4</ele>
        <time>2025-04-25T12:06:20Z</time>
      </trkpt>
      <trkpt lat="31.28726717359614" lon="121.21079858885959">
        <ele>21.5</ele>
        <time>2025-04-25T12:06:29Z</time>
      </trkpt>
      <trkpt lat="31.287387902487232" lon="121.21061434407672">
        <ele>27.3</ele>
        <time>2025-04-25T12:06:41Z</time>
      </trkpt>
      <trkpt lat="31.2874188003885" lon="121.21054024681361">
        <ele>26.1</ele>
        <time>2025-04-25T12:06:44Z</time>
      </trkpt>
      <trkpt lat="31.28740273548869" lon="121.21048117259653">
        <ele>24.0</ele>
        <time>2025-04-25T12:06:47Z</time>
      </trkpt>
      <trkpt lat="31.28735471993359" lon="121.2104521394866">
        <ele>22.8</ele>
        <time>2025-04-25T12:06:50Z</time>
      </trkpt>
      <trkpt lat="31.287323673146393" lon="121.21040307921893">
        <ele>21.1</ele>
        <time>2025-04-25T12:06:53Z</time>
      </trkpt>
      <trkpt lat="31.287370572571515" lon="121.21033598908315">
        <ele>19.5</ele>
        <time>2025-04-25T12:07:02Z</time>
      </trkpt>
      <trkpt lat="31.287233367666357" lon="121.21012172459794">
        <ele>17.7</ele>
        <time>2025-04-25T12:07:14Z</time>
      </trkpt>
      <trkpt lat="31.28701122809988" lon="121.20993349963632">
        <ele>17.3</ele>
        <time>2025-04-25T12:07:29Z</time>
      </trkpt>
      <trkpt lat="31.286929132570332" lon="121.20982836991465">
        <ele>19.8</ele>
        <time>2025-04-25T12:07:38Z</time>
      </trkpt>
      <trkpt lat="31.286828087648253" lon="121.20975828717107">
        <ele>22.7</ele>
        <time>2025-04-25T12:07:50Z</time>
      </trkpt>
      <trkpt lat="31.286756098590054" lon="121.20974327370088">
        <ele>23.6</ele>
        <time>2025-04-25T12:07:59Z</time>
      </trkpt>
      <trkpt lat="31.286518973128885" lon="121.2095630581717">
        <ele>18.8</ele>
        <time>2025-04-25T12:08:20Z</time>
      </trkpt>
      <trkpt lat="31.28640400036477" lon="121.20954704694883">
        <ele>18.0</ele>
        <time>2025-04-25T12:08:26Z</time>
      </trkpt>
      <trkpt lat="31.286234885922873" lon="121.20939886666285">
        <ele>18.3</ele>
        <time>2025-04-25T12:08:41Z</time>
      </trkpt>
      <trkpt lat="31.28610184709222" lon="121.20932377905481">
        <ele>17.7</ele>
        <time>2025-04-25T12:08:53Z</time>
      </trkpt>
      <trkpt lat="31.286055812375047" lon="121.20928072617099">
        <ele>17.7</ele>
        <time>2025-04-25T12:08:59Z</time>
      </trkpt>
      <trkpt lat="31.286094605422647" lon="121.20912752028046">
        <ele>17.4</ele>
        <time>2025-04-25T12:09:08Z</time>
      </trkpt>
      <trkpt lat="31.286129495977036" lon="121.20905141639555">
        <ele>17.2</ele>
        <time>2025-04-25T12:09:14Z</time>
      </trkpt>
      <trkpt lat="31.28620743522593" lon="121.20902837918784">
        <ele>17.4</ele>
        <time>2025-04-25T12:09:20Z</time>
      </trkpt>
      <trkpt lat="31.286287461350007" lon="121.20907543484691">
        <ele>19.1</ele>
        <time>2025-04-25T12:09:26Z</time>
      </trkpt>
      <trkpt lat="31.286425603570425" lon="121.20923463388581">
        <ele>21.0</ele>
        <time>2025-04-25T12:09:38Z</time>
      </trkpt>
      <trkpt lat="31.28655865135217" lon="121.20931673095528">
        <ele>21.3</ele>
        <time>2025-04-25T12:09:50Z</time>
      </trkpt>
      <trkpt lat="31.2866765707157" lon="121.20929068658168">
        <ele>23.7</ele>
        <time>2025-04-25T12:09:59Z</time>
      </trkpt>
      <trkpt lat="31.28681055329488" lon="121.20932071480902">
        <ele>27.0</ele>
        <time>2025-04-25T12:10:11Z</time>
      </trkpt>
      <trkpt lat="31.287011605443208" lon="121.2094288401114">
        <ele>28.3</ele>
        <time>2025-04-25T12:10:23Z</time>
      </trkpt>
      <trkpt lat="31.287092592220844" lon="121.20944485428691">
        <ele>28.4</ele>
        <time>2025-04-25T12:10:29Z</time>
      </trkpt>
      <trkpt lat="31.287030715527106" lon="121.20952396343358">
        <ele>28.4</ele>
        <time>2025-04-25T12:10:32Z</time>
      </trkpt>
      <trkpt lat="31.287048771332064" lon="121.20957502885281">
        <ele>27.7</ele>
        <time>2025-04-25T12:10:35Z</time>
      </trkpt>
      <trkpt lat="31.287148838055586" lon="121.20966213436141">
        <ele>25.8</ele>
        <time>2025-04-25T12:10:47Z</time>
      </trkpt>
      <trkpt lat="31.287224834187295" lon="121.20968415669043">
        <ele>19.8</ele>
        <time>2025-04-25T12:11:05Z</time>
      </trkpt>
      <trkpt lat="31.287313964252107" lon="121.20981932544674">
        <ele>20.5</ele>
        <time>2025-04-25T12:11:11Z</time>
      </trkpt>
      <trkpt lat="31.287547070604795" lon="121.2099835190283">
        <ele>20.0</ele>
        <time>2025-04-25T12:11:26Z</time>
      </trkpt>
      <trkpt lat="31.28766914451075" lon="121.21008463963167">
        <ele>17.2</ele>
        <time>2025-04-25T12:11:38Z</time>
      </trkpt>
      <trkpt lat="31.287728060486614" lon="121.2100355711145">
        <ele>14.8</ele>
        <time>2025-04-25T12:11:44Z</time>
      </trkpt>
      <trkpt lat="31.28779507600422" lon="121.21007061078379">
        <ele>14.0</ele>
        <time>2025-04-25T12:11:50Z</time>
      </trkpt>
      <trkpt lat="31.287848116753207" lon="121.21012167230948">
        <ele>14.9</ele>
        <time>2025-04-25T12:11:56Z</time>
      </trkpt>
      <trkpt lat="31.287883388843316" lon="121.21035697248348">
        <ele>15.0</ele>
        <time>2025-04-25T12:12:14Z</time>
      </trkpt>
      <trkpt lat="31.2879165234225" lon="121.21047912633342">
        <ele>17.8</ele>
        <time>2025-04-25T12:12:26Z</time>
      </trkpt>
      <trkpt lat="31.288055744671787" lon="121.21070940849964">
        <ele>21.2</ele>
        <time>2025-04-25T12:12:44Z</time>
      </trkpt>
      <trkpt lat="31.28810883861263" lon="121.21080552617661">
        <ele>34.4</ele>
        <time>2025-04-25T12:13:02Z</time>
      </trkpt>
      <trkpt lat="31.288200942778037" lon="121.21092366811494">
        <ele>33.5</ele>
        <time>2025-04-25T12:13:08Z</time>
      </trkpt>
      <trkpt lat="31.288226024802977" lon="121.21100076346198">
        <ele>31.6</ele>
        <time>2025-04-25T12:13:11Z</time>
      </trkpt>
      <trkpt lat="31.28826708102924" lon="121.21106183705328">
        <ele>31.5</ele>
        <time>2025-04-25T12:13:14Z</time>
      </trkpt>
      <trkpt lat="31.28838309110286" lon="121.21110988775439">
        <ele>30.2</ele>
        <time>2025-04-25T12:13:20Z</time>
      </trkpt>
      <trkpt lat="31.288676033868256" lon="121.21116192836769">
        <ele>31.4</ele>
        <time>2025-04-25T12:13:38Z</time>
      </trkpt>
      <trkpt lat="31.28878608079435" lon="121.21123901587181">
        <ele>34.1</ele>
        <time>2025-04-25T12:13:50Z</time>
      </trkpt>
      <trkpt lat="31.28887205176909" lon="121.21124401484317">
        <ele>34.1</ele>
        <time>2025-04-25T12:13:56Z</time>
      </trkpt>
      <trkpt lat="31.28894206134938" lon="121.21127604907974">
        <ele>33.5</ele>
        <time>2025-04-25T12:14:02Z</time>
      </trkpt>
      <trkpt lat="31.289059168019236" lon="121.21140620203879">
        <ele>32.2</ele>
        <time>2025-04-25T12:14:14Z</time>
      </trkpt>
      <trkpt lat="31.289094243727718" lon="121.21148229403543">
        <ele>36.7</ele>
        <time>2025-04-25T12:14:20Z</time>
      </trkpt>
      <trkpt lat="31.289153246936248" lon="121.2115053177228">
        <ele>36.4</ele>
        <time>2025-04-25T12:14:26Z</time>
      </trkpt>
      <trkpt lat="31.289199329747785" lon="121.21159142097741">
        <ele>38.8</ele>
        <time>2025-04-25T12:14:32Z</time>
      </trkpt>
      <trkpt lat="31.28926531354627" lon="121.21160042656724">
        <ele>37.5</ele>
        <time>2025-04-25T12:14:35Z</time>
      </trkpt>
      <trkpt lat="31.289365146641718" lon="121.21149328472737">
        <ele>39.1</ele>
        <time>2025-04-25T12:14:47Z</time>
      </trkpt>
      <trkpt lat="31.289396063088148" lon="121.21143320715255">
        <ele>38.9</ele>
        <time>2025-04-25T12:14:50Z</time>
      </trkpt>
    </trkseg>
  </trk>
</gpx>