<?xml version="1.0" encoding="UTF-8"?>
<gpx xmlns="http://www.topografix.com/GPX/1/1" xmlns:gpxtpx="http://www.garmin.com/xmlschemas/TrackPointExtension/v1" xmlns:xsi="http://www.w3.org/2001/XMLSchema-instance" xsi:schemaLocation="http://www.topografix.com/GPX/1/1 http://www.topografix.com/GPX/1/1/gpx.xsd" version="1.1" creator="gpx.py -- https://github.com/tkrajina/gpxpy">
  <trk>
    <name>gpx from keep</name>
    <type>Walk</type>
    <trkseg>
      <trkpt lat="30.68134584307244" lon="104.05117387322721">
        <ele>526.15</ele>
        <time>2020-03-29T04:20:23.255000Z</time>
      </trkpt>
      <trkpt lat="30.681421711139006" lon="104.05107869733165">
        <ele>506.83</ele>
        <time>2020-03-29T04:20:26.255000Z</time>
      </trkpt>
      <trkpt lat="30.68139813013231" lon="104.05123583680685">
        <ele>501.1</ele>
        <time>2020-03-29T04:21:02.255000Z</time>
      </trkpt>
      <trkpt lat="30.681289816940936" lon="104.05142819961598">
        <ele>490.54</ele>
        <time>2020-03-29T04:21:17.255000Z</time>
      </trkpt>
      <trkpt lat="30.681229383356808" lon="104.05144127047218">
        <ele>489.13</ele>
        <time>2020-03-29T04:21:20.255000Z</time>
      </trkpt>
      <trkpt lat="30.681200664636297" lon="104.0513832862989">
        <ele>487.86</ele>
        <time>2020-03-29T04:21:29.255000Z</time>
      </trkpt>
      <trkpt lat="30.681191704989484" lon="104.0512978728718">
        <ele>486.19</ele>
        <time>2020-03-29T04:21:38.255000Z</time>
      </trkpt>
      <trkpt lat="30.681131305159187" lon="104.05115402485416">
        <ele>481.78</ele>
        <time>2020-03-29T04:21:47.255000Z</time>
      </trkpt>
      <trkpt lat="30.68106407541512" lon="104.05108832078731">
        <ele>480.71</ele>
        <time>2020-03-29T04:21:53.255000Z</time>
      </trkpt>
      <trkpt lat="30.681006588986083" lon="104.05108777646542">
        <ele>481.99</ele>
        <time>2020-03-29T04:21:59.255000Z</time>
      </trkpt>
      <trkpt lat="30.68091498238133" lon="104.05117974997776">
        <ele>484.34</ele>
        <time>2020-03-29T04:22:08.255000Z</time>
      </trkpt>
      <trkpt lat="30.6808496163234" lon="104.05121984563415">
        <ele>482.87</ele>
        <time>2020-03-29T04:22:14.255000Z</time>
      </trkpt>
      <trkpt lat="30.680719296967112" lon="104.05123392273141">
        <ele>480.85</ele>
        <time>2020-03-29T04:22:23.255000Z</time>
      </trkpt>
      <trkpt lat="30.680647492746047" lon="104.05127444282093">
        <ele>476.57</ele>
        <time>2020-03-29T04:22:29.255000Z</time>
      </trkpt>
      <trkpt lat="30.680624096516663" lon="104.05134164874747">
        <ele>472.03</ele>
        <time>2020-03-29T04:22:35.255000Z</time>
      </trkpt>
      <trkpt lat="30.68056796118815" lon="104.05140212403163">
        <ele>467.01</ele>
        <time>2020-03-29T04:22:47.255000Z</time>
      </trkpt>
      <trkpt lat="30.680429486094493" lon="104.05146335111996">
        <ele>465.55</ele>
        <time>2020-03-29T04:22:59.255000Z</time>
      </trkpt>
      <trkpt lat="30.68036729640845" lon="104.05153875003047">
        <ele>463.91</ele>
        <time>2020-03-29T04:23:05.255000Z</time>
      </trkpt>
      <trkpt lat="30.680357935952117" lon="104.05165628615326">
        <ele>461.7</ele>
        <time>2020-03-29T04:23:11.255000Z</time>
      </trkpt>
      <trkpt lat="30.680495735216137" lon="104.05178978089792">
        <ele>459.56</ele>
        <time>2020-03-29T04:23:23.355000Z</time>
      </trkpt>
      <trkpt lat="30.680634509114615" lon="104.05200987872117">
        <ele>454.71</ele>
        <time>2020-03-29T04:23:47.255000Z</time>
      </trkpt>
      <trkpt lat="30.680681447266544" lon="104.05216112151886">
        <ele>450.76</ele>
        <time>2020-03-29T04:23:59.255000Z</time>
      </trkpt>
      <trkpt lat="30.680770174917917" lon="104.05228611580893">
        <ele>449.7</ele>
        <time>2020-03-29T04:24:11.255000Z</time>
      </trkpt>
      <trkpt lat="30.68078189842507" lon="104.05234995468074">
        <ele>451.13</ele>
        <time>2020-03-29T04:24:14.255000Z</time>
      </trkpt>
      <trkpt lat="30.68098349582863" lon="104.05263697455051">
        <ele>448.79</ele>
        <time>2020-03-29T04:24:44.255000Z</time>
      </trkpt>
      <trkpt lat="30.681028473191876" lon="104.05270811844788">
        <ele>447.8</ele>
        <time>2020-03-29T04:24:50.255000Z</time>
      </trkpt>
      <trkpt lat="30.681181999981252" lon="104.05289245363572">
        <ele>448.3</ele>
        <time>2020-03-29T04:25:08.355000Z</time>
      </trkpt>
      <trkpt lat="30.68119075137981" lon="104.05295814690685">
        <ele>448.66</ele>
        <time>2020-03-29T04:25:14.255000Z</time>
      </trkpt>
      <trkpt lat="30.681180091668573" lon="104.0529745542781">
        <ele>449.36</ele>
        <time>2020-03-29T04:25:20.255000Z</time>
      </trkpt>
      <trkpt lat="30.681172215036213" lon="104.05300917910259">
        <ele>449.63</ele>
        <time>2020-03-29T04:25:44.255000Z</time>
      </trkpt>
      <trkpt lat="30.681143527309864" lon="104.05307680165433">
        <ele>449.12</ele>
        <time>2020-03-29T04:25:50.255000Z</time>
      </trkpt>
      <trkpt lat="30.681094892842488" lon="104.05313179737443">
        <ele>449.65</ele>
        <time>2020-03-29T04:25:56.255000Z</time>
      </trkpt>
      <trkpt lat="30.681074981520272" lon="104.05320423663383">
        <ele>449.91</ele>
        <time>2020-03-29T04:26:02.255000Z</time>
      </trkpt>
      <trkpt lat="30.681081491116977" lon="104.05336246798385">
        <ele>456.19</ele>
        <time>2020-03-29T04:26:14.255000Z</time>
      </trkpt>
      <trkpt lat="30.681068991922523" lon="104.05344650670824">
        <ele>457.67</ele>
        <time>2020-03-29T04:26:20.255000Z</time>
      </trkpt>
      <trkpt lat="30.68108510511702" lon="104.05355550022469">
        <ele>457.08</ele>
        <time>2020-03-29T04:26:26.255000Z</time>
      </trkpt>
      <trkpt lat="30.681036886132" lon="104.053639802549">
        <ele>455.27</ele>
        <time>2020-03-29T04:26:32.255000Z</time>
      </trkpt>
      <trkpt lat="30.681051705528276" lon="104.05369126572901">
        <ele>454.56</ele>
        <time>2020-03-29T04:26:35.255000Z</time>
      </trkpt>
      <trkpt lat="30.68101923983255" lon="104.05376557867298">
        <ele>453.7</ele>
        <time>2020-03-29T04:26:41.255000Z</time>
      </trkpt>
      <trkpt lat="30.681009023406872" lon="104.05384134170156">
        <ele>453.26</ele>
        <time>2020-03-29T04:26:47.255000Z</time>
      </trkpt>
      <trkpt lat="30.680906119001886" lon="104.05404926859842">
        <ele>450.93</ele>
        <time>2020-03-29T04:27:02.255000Z</time>
      </trkpt>
      <trkpt lat="30.68077046431998" lon="104.05423288783467">
        <ele>449.51</ele>
        <time>2020-03-29T04:27:20.255000Z</time>
      </trkpt>
      <trkpt lat="30.680506285750802" lon="104.05441787413595">
        <ele>447.5</ele>
        <time>2020-03-29T04:27:47.255000Z</time>
      </trkpt>
      <trkpt lat="30.68033504078763" lon="104.05460386638188">
        <ele>449.92</ele>
        <time>2020-03-29T04:28:02.255000Z</time>
      </trkpt>
      <trkpt lat="30.680222053206435" lon="104.0546396966312">
        <ele>451.81</ele>
        <time>2020-03-29T04:28:17.255000Z</time>
      </trkpt>
      <trkpt lat="30.680154179581802" lon="104.05469344887676">
        <ele>450.0</ele>
        <time>2020-03-29T04:28:23.255000Z</time>
      </trkpt>
      <trkpt lat="30.680085143932235" lon="104.05481067832066">
        <ele>450.6</ele>
        <time>2020-03-29T04:28:32.255000Z</time>
      </trkpt>
      <trkpt lat="30.68003295857188" lon="104.05481869315562">
        <ele>450.96</ele>
        <time>2020-03-29T04:28:38.255000Z</time>
      </trkpt>
      <trkpt lat="30.67980118389364" lon="104.05470581663016">
        <ele>452.73</ele>
        <time>2020-03-29T04:29:02.255000Z</time>
      </trkpt>
      <trkpt lat="30.679662646266806" lon="104.05453792690066">
        <ele>451.11</ele>
        <time>2020-03-29T04:29:20.255000Z</time>
      </trkpt>
      <trkpt lat="30.679574728860096" lon="104.0544703341552">
        <ele>451.58</ele>
        <time>2020-03-29T04:29:32.255000Z</time>
      </trkpt>
      <trkpt lat="30.6795604910107" lon="104.05440181738258">
        <ele>452.43</ele>
        <time>2020-03-29T04:29:38.255000Z</time>
      </trkpt>
      <trkpt lat="30.67951484925677" lon="104.0543159070145">
        <ele>453.28</ele>
        <time>2020-03-29T04:29:44.255000Z</time>
      </trkpt>
      <trkpt lat="30.679284659072653" lon="104.05405708430557">
        <ele>450.06</ele>
        <time>2020-03-29T04:30:14.255000Z</time>
      </trkpt>
      <trkpt lat="30.679137822235504" lon="104.05387987764031">
        <ele>450.21</ele>
        <time>2020-03-29T04:30:32.255000Z</time>
      </trkpt>
      <trkpt lat="30.678972920976687" lon="104.05378508209759">
        <ele>454.15</ele>
        <time>2020-03-29T04:30:53.255000Z</time>
      </trkpt>
      <trkpt lat="30.678948612901664" lon="104.05373271652255">
        <ele>456.36</ele>
        <time>2020-03-29T04:31:08.255000Z</time>
      </trkpt>
      <trkpt lat="30.67894232467032" lon="104.05366108429087">
        <ele>456.54</ele>
        <time>2020-03-29T04:31:14.255000Z</time>
      </trkpt>
      <trkpt lat="30.67894232467032" lon="104.05366108429087">
        <ele>456.54</ele>
        <time>2020-03-29T04:31:22.955000Z</time>
      </trkpt>
      <trkpt lat="30.678931288737967" lon="104.0536432827268">
        <ele>456.49</ele>
        <time>2020-03-29T04:31:26.255000Z</time>
      </trkpt>
      <trkpt lat="30.678919309242644" lon="104.05363820581347">
        <ele>456.6</ele>
        <time>2020-03-29T04:31:32.255000Z</time>
      </trkpt>
      <trkpt lat="30.678915709194932" lon="104.05361568008024">
        <ele>457.02</ele>
        <time>2020-03-29T04:31:47.255000Z</time>
      </trkpt>
      <trkpt lat="30.678929968044272" lon="104.05362762383574">
        <ele>453.78</ele>
        <time>2020-03-29T04:31:59.255000Z</time>
      </trkpt>
      <trkpt lat="30.678902623317683" lon="104.05362558656097">
        <ele>458.37</ele>
        <time>2020-03-29T04:32:23.255000Z</time>
      </trkpt>
      <trkpt lat="30.678910385832044" lon="104.05362098493197">
        <ele>459.22</ele>
        <time>2020-03-29T04:32:29.255000Z</time>
      </trkpt>
      <trkpt lat="30.67891521989777" lon="104.05362684594994">
        <ele>459.04</ele>
        <time>2020-03-29T04:32:38.255000Z</time>
      </trkpt>
      <trkpt lat="30.67889758296824" lon="104.05358387042031">
        <ele>458.95</ele>
        <time>2020-03-29T04:32:50.255000Z</time>
      </trkpt>
      <trkpt lat="30.67886337122162" lon="104.05359566225505">
        <ele>459.07</ele>
        <time>2020-03-29T04:33:11.255000Z</time>
      </trkpt>
      <trkpt lat="30.67886524935365" lon="104.0535972734047">
        <ele>459.06</ele>
        <time>2020-03-29T04:33:17.255000Z</time>
      </trkpt>
      <trkpt lat="30.678854952197465" lon="104.0535741278091">
        <ele>454.58</ele>
        <time>2020-03-29T04:33:38.255000Z</time>
      </trkpt>
      <trkpt lat="30.678860756059297" lon="104.0535714593002">
        <ele>454.3</ele>
        <time>2020-03-29T04:33:44.255000Z</time>
      </trkpt>
      <trkpt lat="30.678881284089428" lon="104.05355729030128">
        <ele>450.12</ele>
        <time>2020-03-29T04:34:08.255000Z</time>
      </trkpt>
      <trkpt lat="30.678870179754963" lon="104.05356822340761">
        <ele>451.6</ele>
        <time>2020-03-29T04:34:23.255000Z</time>
      </trkpt>
      <trkpt lat="30.678837912838954" lon="104.05359566611607">
        <ele>452.15</ele>
        <time>2020-03-29T04:34:32.255000Z</time>
      </trkpt>
      <trkpt lat="30.67870944902969" lon="104.0536210525363">
        <ele>453.82</ele>
        <time>2020-03-29T04:34:47.255000Z</time>
      </trkpt>
      <trkpt lat="30.678664361220807" lon="104.0536044992707">
        <ele>452.14</ele>
        <time>2020-03-29T04:35:29.255000Z</time>
      </trkpt>
      <trkpt lat="30.67864709952688" lon="104.05354822956569">
        <ele>453.33</ele>
        <time>2020-03-29T04:35:41.255000Z</time>
      </trkpt>
      <trkpt lat="30.678631531965785" lon="104.05354051843814">
        <ele>455.24</ele>
        <time>2020-03-29T04:35:47.255000Z</time>
      </trkpt>
      <trkpt lat="30.67861054062271" lon="104.05350085349727">
        <ele>457.98</ele>
        <time>2020-03-29T04:36:14.255000Z</time>
      </trkpt>
      <trkpt lat="30.678522110614765" lon="104.05339960820096">
        <ele>463.69</ele>
        <time>2020-03-29T04:36:29.255000Z</time>
      </trkpt>
      <trkpt lat="30.67849553913231" lon="104.0534017699494">
        <ele>464.27</ele>
        <time>2020-03-29T04:36:38.255000Z</time>
      </trkpt>
      <trkpt lat="30.67850062882999" lon="104.05338223690659">
        <ele>461.71</ele>
        <time>2020-03-29T04:36:59.255000Z</time>
      </trkpt>
      <trkpt lat="30.678374486057947" lon="104.05314969241347">
        <ele>462.71</ele>
        <time>2020-03-29T04:37:41.255000Z</time>
      </trkpt>
      <trkpt lat="30.67818222017546" lon="104.05292336024165">
        <ele>468.51</ele>
        <time>2020-03-29T04:38:05.255000Z</time>
      </trkpt>
      <trkpt lat="30.678182509068833" lon="104.05287185725014">
        <ele>465.03</ele>
        <time>2020-03-29T04:38:17.255000Z</time>
      </trkpt>
      <trkpt lat="30.678175477408583" lon="104.05285918859042">
        <ele>465.36</ele>
        <time>2020-03-29T04:38:26.255000Z</time>
      </trkpt>
      <trkpt lat="30.67814088823838" lon="104.05284736488713">
        <ele>464.49</ele>
        <time>2020-03-29T04:38:44.255000Z</time>
      </trkpt>
      <trkpt lat="30.678120257683" lon="104.05281518462894">
        <ele>466.94</ele>
        <time>2020-03-29T04:38:53.255000Z</time>
      </trkpt>
      <trkpt lat="30.67808114885232" lon="104.05271513113573">
        <ele>469.66</ele>
        <time>2020-03-29T04:39:14.255000Z</time>
      </trkpt>
      <trkpt lat="30.678088281683532" lon="104.05265488095067">
        <ele>468.21</ele>
        <time>2020-03-29T04:39:23.255000Z</time>
      </trkpt>
      <trkpt lat="30.678043923987115" lon="104.05250996273324">
        <ele>467.01</ele>
        <time>2020-03-29T04:39:38.255000Z</time>
      </trkpt>
      <trkpt lat="30.677973997036542" lon="104.0524081096225">
        <ele>466.6</ele>
        <time>2020-03-29T04:39:53.255000Z</time>
      </trkpt>
      <trkpt lat="30.677945903012404" lon="104.05239136882987">
        <ele>468.33</ele>
        <time>2020-03-29T04:40:11.455000Z</time>
      </trkpt>
      <trkpt lat="30.677957133220822" lon="104.05237054271599">
        <ele>468.72</ele>
        <time>2020-03-29T04:40:41.255000Z</time>
      </trkpt>
      <trkpt lat="30.67791718944669" lon="104.05233550927653">
        <ele>469.93</ele>
        <time>2020-03-29T04:40:47.255000Z</time>
      </trkpt>
      <trkpt lat="30.677771718115817" lon="104.0523996951112">
        <ele>466.61</ele>
        <time>2020-03-29T04:40:59.255000Z</time>
      </trkpt>
      <trkpt lat="30.67775151452195" lon="104.05238797986961">
        <ele>465.08</ele>
        <time>2020-03-29T04:41:05.255000Z</time>
      </trkpt>
      <trkpt lat="30.677746497460063" lon="104.05236936846816">
        <ele>463.81</ele>
        <time>2020-03-29T04:41:11.255000Z</time>
      </trkpt>
      <trkpt lat="30.677784585655495" lon="104.05231885895323">
        <ele>464.2</ele>
        <time>2020-03-29T04:41:26.255000Z</time>
      </trkpt>
      <trkpt lat="30.677738621463245" lon="104.05228542998617">
        <ele>461.69</ele>
        <time>2020-03-29T04:41:41.355000Z</time>
      </trkpt>
      <trkpt lat="30.677759400681147" lon="104.05221796903636">
        <ele>462.79</ele>
        <time>2020-03-29T04:41:50.255000Z</time>
      </trkpt>
      <trkpt lat="30.6777464374965" lon="104.05215504286213">
        <ele>463.49</ele>
        <time>2020-03-29T04:41:56.255000Z</time>
      </trkpt>
      <trkpt lat="30.6776434368915" lon="104.0520003844726">
        <ele>460.01</ele>
        <time>2020-03-29T04:42:20.255000Z</time>
      </trkpt>
      <trkpt lat="30.677643683544186" lon="104.05193903509885">
        <ele>458.52</ele>
        <time>2020-03-29T04:42:26.255000Z</time>
      </trkpt>
      <trkpt lat="30.677609479605657" lon="104.05187518881897">
        <ele>457.06</ele>
        <time>2020-03-29T04:42:32.255000Z</time>
      </trkpt>
      <trkpt lat="30.67736965447352" lon="104.05173758369104">
        <ele>462.66</ele>
        <time>2020-03-29T04:42:56.255000Z</time>
      </trkpt>
      <trkpt lat="30.67730096455736" lon="104.05173448218027">
        <ele>463.15</ele>
        <time>2020-03-29T04:43:02.255000Z</time>
      </trkpt>
      <trkpt lat="30.677291365285896" lon="104.05176671514884">
        <ele>462.35</ele>
        <time>2020-03-29T04:43:14.255000Z</time>
      </trkpt>
      <trkpt lat="30.67728378638783" lon="104.05177447902588">
        <ele>461.69</ele>
        <time>2020-03-29T04:43:23.255000Z</time>
      </trkpt>
      <trkpt lat="30.67728378638783" lon="104.05177447902588">
        <ele>461.69</ele>
        <time>2020-03-29T04:43:34.855000Z</time>
      </trkpt>
      <trkpt lat="30.677279682574028" lon="104.05180281516336">
        <ele>463.68</ele>
        <time>2020-03-29T04:44:05.255000Z</time>
      </trkpt>
      <trkpt lat="30.677212145416632" lon="104.05183043497108">
        <ele>465.12</ele>
        <time>2020-03-29T04:44:11.255000Z</time>
      </trkpt>
      <trkpt lat="30.67718938216458" lon="104.05181686458418">
        <ele>465.28</ele>
        <time>2020-03-29T04:44:23.255000Z</time>
      </trkpt>
      <trkpt lat="30.67720093265198" lon="104.05184065529875">
        <ele>463.36</ele>
        <time>2020-03-29T04:44:44.255000Z</time>
      </trkpt>
      <trkpt lat="30.677184688213107" lon="104.05184954591758">
        <ele>463.21</ele>
        <time>2020-03-29T04:44:50.255000Z</time>
      </trkpt>
      <trkpt lat="30.677162851027514" lon="104.0518578409619">
        <ele>462.57</ele>
        <time>2020-03-29T04:44:53.255000Z</time>
      </trkpt>
      <trkpt lat="30.67711172073817" lon="104.05188423405941">
        <ele>464.26</ele>
        <time>2020-03-29T04:45:02.255000Z</time>
      </trkpt>
      <trkpt lat="30.677070324747444" lon="104.05194283253847">
        <ele>463.46</ele>
        <time>2020-03-29T04:45:08.255000Z</time>
      </trkpt>
      <trkpt lat="30.677073440878342" lon="104.05200122066023">
        <ele>462.23</ele>
        <time>2020-03-29T04:45:17.255000Z</time>
      </trkpt>
      <trkpt lat="30.67708226312586" lon="104.05203724857572">
        <ele>462.2</ele>
        <time>2020-03-29T04:45:44.255000Z</time>
      </trkpt>
      <trkpt lat="30.677043474784988" lon="104.052086087281">
        <ele>463.26</ele>
        <time>2020-03-29T04:45:50.255000Z</time>
      </trkpt>
      <trkpt lat="30.677113569363353" lon="104.05199315358595">
        <ele>462.61</ele>
        <time>2020-03-29T04:46:08.255000Z</time>
      </trkpt>
      <trkpt lat="30.677171331541537" lon="104.05186584929109">
        <ele>459.56</ele>
        <time>2020-03-29T04:46:20.255000Z</time>
      </trkpt>
      <trkpt lat="30.677174261084094" lon="104.05177244880987">
        <ele>457.21</ele>
        <time>2020-03-29T04:46:26.255000Z</time>
      </trkpt>
      <trkpt lat="30.677224120805295" lon="104.05166475464426">
        <ele>456.61</ele>
        <time>2020-03-29T04:46:38.255000Z</time>
      </trkpt>
      <trkpt lat="30.67723372746236" lon="104.0515978892739">
        <ele>456.93</ele>
        <time>2020-03-29T04:46:47.255000Z</time>
      </trkpt>
      <trkpt lat="30.677293109466625" lon="104.0515013005188">
        <ele>451.86</ele>
        <time>2020-03-29T04:46:59.255000Z</time>
      </trkpt>
      <trkpt lat="30.677308627950396" lon="104.05142796566058">
        <ele>450.42</ele>
        <time>2020-03-29T04:47:05.255000Z</time>
      </trkpt>
      <trkpt lat="30.677298370476606" lon="104.05135142813351">
        <ele>450.63</ele>
        <time>2020-03-29T04:47:11.255000Z</time>
      </trkpt>
      <trkpt lat="30.67730891192698" lon="104.05129217767998">
        <ele>454.29</ele>
        <time>2020-03-29T04:47:17.255000Z</time>
      </trkpt>
      <trkpt lat="30.677478856047248" lon="104.05105550384484">
        <ele>460.34</ele>
        <time>2020-03-29T04:47:41.255000Z</time>
      </trkpt>
      <trkpt lat="30.67753613709874" lon="104.0510441589443">
        <ele>461.52</ele>
        <time>2020-03-29T04:47:47.255000Z</time>
      </trkpt>
      <trkpt lat="30.677642835118867" lon="104.05091265388785">
        <ele>461.31</ele>
        <time>2020-03-29T04:48:05.255000Z</time>
      </trkpt>
      <trkpt lat="30.677702013500426" lon="104.05071063258042">
        <ele>461.74</ele>
        <time>2020-03-29T04:48:17.255000Z</time>
      </trkpt>
      <trkpt lat="30.677770201334937" lon="104.05063175405192">
        <ele>463.48</ele>
        <time>2020-03-29T04:48:29.255000Z</time>
      </trkpt>
      <trkpt lat="30.6777658119024" lon="104.05056796907488">
        <ele>464.9</ele>
        <time>2020-03-29T04:48:35.255000Z</time>
      </trkpt>
      <trkpt lat="30.677852232729244" lon="104.05034069624746">
        <ele>462.24</ele>
        <time>2020-03-29T04:48:59.255000Z</time>
      </trkpt>
      <trkpt lat="30.677896775578308" lon="104.05029283623458">
        <ele>463.62</ele>
        <time>2020-03-29T04:49:05.255000Z</time>
      </trkpt>
      <trkpt lat="30.67795456084071" lon="104.05027196106484">
        <ele>461.9</ele>
        <time>2020-03-29T04:49:17.255000Z</time>
      </trkpt>
      <trkpt lat="30.678083571972575" lon="104.05010415128105">
        <ele>461.32</ele>
        <time>2020-03-29T04:49:35.255000Z</time>
      </trkpt>
      <trkpt lat="30.67811286110028" lon="104.05001574865686">
        <ele>461.71</ele>
        <time>2020-03-29T04:49:41.255000Z</time>
      </trkpt>
      <trkpt lat="30.678200215754842" lon="104.04989446800766">
        <ele>460.52</ele>
        <time>2020-03-29T04:49:53.255000Z</time>
      </trkpt>
      <trkpt lat="30.678196133554252" lon="104.04983054699674">
        <ele>459.8</ele>
        <time>2020-03-29T04:49:56.255000Z</time>
      </trkpt>
      <trkpt lat="30.67829171460007" lon="104.04965384803637">
        <ele>458.91</ele>
        <time>2020-03-29T04:50:11.255000Z</time>
      </trkpt>
      <trkpt lat="30.678386197089424" lon="104.04955457433174">
        <ele>458.01</ele>
        <time>2020-03-29T04:50:23.255000Z</time>
      </trkpt>
      <trkpt lat="30.67844105358074" lon="104.0494350849308">
        <ele>455.65</ele>
        <time>2020-03-29T04:50:35.255000Z</time>
      </trkpt>
      <trkpt lat="30.678516351334462" lon="104.04934499942308">
        <ele>455.13</ele>
        <time>2020-03-29T04:50:47.255000Z</time>
      </trkpt>
      <trkpt lat="30.678573862616076" lon="104.04934701188209">
        <ele>453.73</ele>
        <time>2020-03-29T04:50:59.255000Z</time>
      </trkpt>
      <trkpt lat="30.67858830649288" lon="104.04934950392716">
        <ele>453.2</ele>
        <time>2020-03-29T04:51:32.255000Z</time>
      </trkpt>
      <trkpt lat="30.678611735250087" lon="104.04942250761276">
        <ele>454.55</ele>
        <time>2020-03-29T04:51:38.255000Z</time>
      </trkpt>
      <trkpt lat="30.678612818884822" lon="104.04950906180086">
        <ele>458.3</ele>
        <time>2020-03-29T04:51:47.255000Z</time>
      </trkpt>
      <trkpt lat="30.678636656168045" lon="104.04956758484553">
        <ele>457.82</ele>
        <time>2020-03-29T04:51:53.255000Z</time>
      </trkpt>
      <trkpt lat="30.678680936686973" lon="104.04959899914837">
        <ele>458.9</ele>
        <time>2020-03-29T04:52:05.255000Z</time>
      </trkpt>
      <trkpt lat="30.678731887154324" lon="104.04958019880598">
        <ele>460.01</ele>
        <time>2020-03-29T04:52:11.255000Z</time>
      </trkpt>
      <trkpt lat="30.678691619319203" lon="104.04955578596476">
        <ele>462.22</ele>
        <time>2020-03-29T04:52:23.255000Z</time>
      </trkpt>
      <trkpt lat="30.67863765601267" lon="104.04947638196266">
        <ele>463.38</ele>
        <time>2020-03-29T04:52:29.255000Z</time>
      </trkpt>
      <trkpt lat="30.678638216499316" lon="104.04933378006056">
        <ele>462.45</ele>
        <time>2020-03-29T04:52:41.255000Z</time>
      </trkpt>
      <trkpt lat="30.678652755083974" lon="104.049267614013">
        <ele>461.69</ele>
        <time>2020-03-29T04:52:47.255000Z</time>
      </trkpt>
      <trkpt lat="30.678738730799378" lon="104.04916964324457">
        <ele>461.79</ele>
        <time>2020-03-29T04:52:59.255000Z</time>
      </trkpt>
      <trkpt lat="30.67892620436574" lon="104.04908258561949">
        <ele>457.98</ele>
        <time>2020-03-29T04:53:17.255000Z</time>
      </trkpt>
      <trkpt lat="30.678972720687938" lon="104.04910400504994">
        <ele>458.38</ele>
        <time>2020-03-29T04:53:23.255000Z</time>
      </trkpt>
      <trkpt lat="30.67893646012323" lon="104.04918449921148">
        <ele>457.27</ele>
        <time>2020-03-29T04:53:44.255000Z</time>
      </trkpt>
      <trkpt lat="30.678835710134834" lon="104.04918064277035">
        <ele>462.57</ele>
        <time>2020-03-29T04:59:03.255000Z</time>
      </trkpt>
      <trkpt lat="30.678855327307197" lon="104.04924560844947">
        <ele>462.57</ele>
        <time>2020-03-29T04:59:09.255000Z</time>
      </trkpt>
      <trkpt lat="30.67902568781765" lon="104.04936318396231">
        <ele>462.98</ele>
        <time>2020-03-29T04:59:27.255000Z</time>
      </trkpt>
      <trkpt lat="30.67923327361939" lon="104.04958459245766">
        <ele>455.87</ele>
        <time>2020-03-29T04:59:54.255000Z</time>
      </trkpt>
      <trkpt lat="30.679269518850152" lon="104.04964423386656">
        <ele>455.81</ele>
        <time>2020-03-29T05:00:00.255000Z</time>
      </trkpt>
      <trkpt lat="30.679306410968948" lon="104.04959899864872">
        <ele>455.82</ele>
        <time>2020-03-29T05:00:09.255000Z</time>
      </trkpt>
      <trkpt lat="30.679351565883263" lon="104.04957440695678">
        <ele>455.63</ele>
        <time>2020-03-29T05:00:18.255000Z</time>
      </trkpt>
      <trkpt lat="30.679351565883263" lon="104.04957440695678">
        <ele>455.63</ele>
        <time>2020-03-29T05:00:36.255000Z</time>
      </trkpt>
      <trkpt lat="30.679351565883263" lon="104.04957440695678">
        <ele>455.63</ele>
        <time>2020-03-29T05:00:39.255000Z</time>
      </trkpt>
      <trkpt lat="30.679351565883263" lon="104.04957440695678">
        <ele>455.63</ele>
        <time>2020-03-29T05:00:42.255000Z</time>
      </trkpt>
      <trkpt lat="30.679351565883263" lon="104.04957440695678">
        <ele>455.63</ele>
        <time>2020-03-29T05:00:45.255000Z</time>
      </trkpt>
      <trkpt lat="30.679314858547897" lon="104.0495539432389">
        <ele>455.95</ele>
        <time>2020-03-29T05:00:57.255000Z</time>
      </trkpt>
      <trkpt lat="30.67924604271347" lon="104.04963617844125">
        <ele>457.6</ele>
        <time>2020-03-29T05:01:00.255000Z</time>
      </trkpt>
      <trkpt lat="30.679244666517594" lon="104.04975372232168">
        <ele>458.23</ele>
        <time>2020-03-29T05:01:09.255000Z</time>
      </trkpt>
      <trkpt lat="30.679336392071292" lon="104.04993084794488">
        <ele>453.38</ele>
        <time>2020-03-29T05:01:27.255000Z</time>
      </trkpt>
      <trkpt lat="30.679540128077058" lon="104.05014499581803">
        <ele>453.15</ele>
        <time>2020-03-29T05:01:51.255000Z</time>
      </trkpt>
      <trkpt lat="30.679693003430437" lon="104.0502772585864">
        <ele>452.89</ele>
        <time>2020-03-29T05:02:09.255000Z</time>
      </trkpt>
      <trkpt lat="30.679783896181906" lon="104.05048375640378">
        <ele>448.43</ele>
        <time>2020-03-29T05:02:30.255000Z</time>
      </trkpt>
      <trkpt lat="30.6799290800347" lon="104.05072215083332">
        <ele>448.73</ele>
        <time>2020-03-29T05:02:54.255000Z</time>
      </trkpt>
      <trkpt lat="30.679993526362242" lon="104.05093110187306">
        <ele>449.13</ele>
        <time>2020-03-29T05:03:12.255000Z</time>
      </trkpt>
      <trkpt lat="30.680177643061615" lon="104.05124985151532">
        <ele>448.81</ele>
        <time>2020-03-29T05:03:45.255000Z</time>
      </trkpt>
      <trkpt lat="30.680255999195776" lon="104.05143388918714">
        <ele>446.42</ele>
        <time>2020-03-29T05:04:03.255000Z</time>
      </trkpt>
      <trkpt lat="30.680338214770796" lon="104.05153560414672">
        <ele>445.34</ele>
        <time>2020-03-29T05:04:15.255000Z</time>
      </trkpt>
      <trkpt lat="30.68040313620613" lon="104.05157657852386">
        <ele>449.72</ele>
        <time>2020-03-29T05:04:21.255000Z</time>
      </trkpt>
      <trkpt lat="30.680491073415105" lon="104.05151955916004">
        <ele>452.73</ele>
        <time>2020-03-29T05:04:33.255000Z</time>
      </trkpt>
      <trkpt lat="30.680600626602022" lon="104.0514843146819">
        <ele>455.99</ele>
        <time>2020-03-29T05:04:45.255000Z</time>
      </trkpt>
      <trkpt lat="30.68065127475999" lon="104.05148633145814">
        <ele>461.96</ele>
        <time>2020-03-29T05:05:03.255000Z</time>
      </trkpt>
      <trkpt lat="30.68070823783345" lon="104.05140709535188">
        <ele>457.57</ele>
        <time>2020-03-29T05:05:09.255000Z</time>
      </trkpt>
      <trkpt lat="30.68070823783345" lon="104.05140709535188">
        <ele>457.57</ele>
        <time>2020-03-29T05:05:18.155000Z</time>
      </trkpt>
      <trkpt lat="30.68074983727943" lon="104.0513915350828">
        <ele>453.38</ele>
        <time>2020-03-29T05:05:21.255000Z</time>
      </trkpt>
      <trkpt lat="30.68081685867691" lon="104.05129045652623">
        <ele>453.95</ele>
        <time>2020-03-29T05:05:33.255000Z</time>
      </trkpt>
      <trkpt lat="30.680910573910975" lon="104.05122534813317">
        <ele>453.75</ele>
        <time>2020-03-29T05:05:45.255000Z</time>
      </trkpt>
      <trkpt lat="30.680934882187447" lon="104.05116926811318">
        <ele>454.49</ele>
        <time>2020-03-29T05:05:51.255000Z</time>
      </trkpt>
      <trkpt lat="30.680993289811898" lon="104.05114719196106">
        <ele>454.36</ele>
        <time>2020-03-29T05:05:57.255000Z</time>
      </trkpt>
      <trkpt lat="30.681075917763525" lon="104.05115893992601">
        <ele>455.84</ele>
        <time>2020-03-29T05:06:03.255000Z</time>
      </trkpt>
      <trkpt lat="30.681133553815602" lon="104.05121957982348">
        <ele>456.23</ele>
        <time>2020-03-29T05:06:09.255000Z</time>
      </trkpt>
      <trkpt lat="30.681179486857822" lon="104.05132517852803">
        <ele>456.38</ele>
        <time>2020-03-29T05:06:21.255000Z</time>
      </trkpt>
      <trkpt lat="30.681230033055087" lon="104.05137629164847">
        <ele>457.12</ele>
        <time>2020-03-29T05:06:27.255000Z</time>
      </trkpt>
      <trkpt lat="30.681286834529214" lon="104.05138347846705">
        <ele>458.02</ele>
        <time>2020-03-29T05:06:33.255000Z</time>
      </trkpt>
      <trkpt lat="30.681384698677828" lon="104.05128262880176">
        <ele>458.19</ele>
        <time>2020-03-29T05:06:45.255000Z</time>
      </trkpt>
      <trkpt lat="30.681370351715373" lon="104.05120869682585">
        <ele>456.24</ele>
        <time>2020-03-29T05:06:54.255000Z</time>
      </trkpt>
      <trkpt lat="30.681309061552984" lon="104.05121195280945">
        <ele>455.95</ele>
        <time>2020-03-29T05:07:03.255000Z</time>
      </trkpt>
      <trkpt lat="30.681285402548017" lon="104.05128748566486">
        <ele>455.64</ele>
        <time>2020-03-29T05:07:18.255000Z</time>
      </trkpt>
      <trkpt lat="30.68144482145997" lon="104.05113725124887">
        <ele>469.11</ele>
        <time>2020-03-29T05:08:21.255000Z</time>
      </trkpt>
      <trkpt lat="30.681465793377217" lon="104.05105202020928">
        <ele>460.13</ele>
        <time>2020-03-29T05:08:27.255000Z</time>
      </trkpt>
      <trkpt lat="30.681459574976767" lon="104.05099245672741">
        <ele>468.83</ele>
        <time>2020-03-29T05:08:42.255000Z</time>
      </trkpt>
      <trkpt lat="30.681555238109873" lon="104.05091215428953">
        <ele>469.38</ele>
        <time>2020-03-29T05:08:48.255000Z</time>
      </trkpt>
      <trkpt lat="30.681605968383526" lon="104.05088853808601">
        <ele>470.4</ele>
        <time>2020-03-29T05:08:57.255000Z</time>
      </trkpt>
      <trkpt lat="30.681565079927648" lon="104.05081208655999">
        <ele>469.66</ele>
        <time>2020-03-29T05:09:06.255000Z</time>
      </trkpt>
      <trkpt lat="30.681528923161252" lon="104.05081749940307">
        <ele>470.41</ele>
        <time>2020-03-29T05:09:21.255000Z</time>
      </trkpt>
    </trkseg>
  </trk>
</gpx>