<?xml version="1.0" encoding="UTF-8"?>
<gpx xmlns="http://www.topografix.com/GPX/1/1" xmlns:gpxtpx="http://www.garmin.com/xmlschemas/TrackPointExtension/v1" xmlns:xsi="http://www.w3.org/2001/XMLSchema-instance" xsi:schemaLocation="http://www.topografix.com/GPX/1/1 http://www.topografix.com/GPX/1/1/gpx.xsd" version="1.1" creator="gpx.py -- https://github.com/tkrajina/gpxpy">
  <trk>
    <name>gpx from keep</name>
    <type>Run</type>
    <trkseg>
      <trkpt lat="31.29017012203637" lon="121.21090647908416">
        <ele>15.8</ele>
        <time>2025-07-27T12:50:15Z</time>
      </trkpt>
      <trkpt lat="31.290000127348573" lon="121.21085342629901">
        <ele>15.9</ele>
        <time>2025-07-27T12:50:21Z</time>
      </trkpt>
      <trkpt lat="31.289928148136294" lon="121.21084642353287">
        <ele>17.3</ele>
        <time>2025-07-27T12:50:24Z</time>
      </trkpt>
      <trkpt lat="31.289770280620566" lon="121.21090350928864">
        <ele>18.1</ele>
        <time>2025-07-27T12:50:30Z</time>
      </trkpt>
      <trkpt lat="31.289708314167452" lon="121.21091052343402">
        <ele>19.0</ele>
        <time>2025-07-27T12:50:33Z</time>
      </trkpt>
      <trkpt lat="31.289654404373927" lon="121.21096760022499">
        <ele>19.4</ele>
        <time>2025-07-27T12:50:36Z</time>
      </trkpt>
      <trkpt lat="31.28947587054618" lon="121.2112980312918">
        <ele>17.7</ele>
        <time>2025-07-27T12:50:51Z</time>
      </trkpt>
      <trkpt lat="31.289540121662586" lon="121.21153231849573">
        <ele>16.6</ele>
        <time>2025-07-27T12:50:57Z</time>
      </trkpt>
      <trkpt lat="31.28958812224818" lon="121.21154933560341">
        <ele>9.9</ele>
        <time>2025-07-27T12:51:00Z</time>
      </trkpt>
      <trkpt lat="31.289702232693386" lon="121.21168249134007">
        <ele>6.3</ele>
        <time>2025-07-27T12:51:06Z</time>
      </trkpt>
      <trkpt lat="31.289884297459604" lon="121.21180062213537">
        <ele>2.5</ele>
        <time>2025-07-27T12:51:15Z</time>
      </trkpt>
      <trkpt lat="31.289927386620402" lon="121.21189173095514">
        <ele>-0.1</ele>
        <time>2025-07-27T12:51:18Z</time>
      </trkpt>
      <trkpt lat="31.290030444206483" lon="121.21197682700331">
        <ele>-1.7</ele>
        <time>2025-07-27T12:51:24Z</time>
      </trkpt>
      <trkpt lat="31.290143459074592" lon="121.21202888139122">
        <ele>-0.6</ele>
        <time>2025-07-27T12:51:30Z</time>
      </trkpt>
      <trkpt lat="31.29037561391304" lon="121.21224312405435">
        <ele>-1.5</ele>
        <time>2025-07-27T12:51:42Z</time>
      </trkpt>
      <trkpt lat="31.290427648477944" lon="121.21229117827113">
        <ele>-1.3</ele>
        <time>2025-07-27T12:51:45Z</time>
      </trkpt>
      <trkpt lat="31.290547656600925" lon="121.21234022784763">
        <ele>0.2</ele>
        <time>2025-07-27T12:51:51Z</time>
      </trkpt>
      <trkpt lat="31.290607636938084" lon="121.21234422762349">
        <ele>2.0</ele>
        <time>2025-07-27T12:51:54Z</time>
      </trkpt>
      <trkpt lat="31.290667590672694" lon="121.21232519935674">
        <ele>8.1</ele>
        <time>2025-07-27T12:51:57Z</time>
      </trkpt>
      <trkpt lat="31.290725582240313" lon="121.21233821027855">
        <ele>12.5</ele>
        <time>2025-07-27T12:52:00Z</time>
      </trkpt>
      <trkpt lat="31.290926101616076" lon="121.21222698266311">
        <ele>15.5</ele>
        <time>2025-07-27T12:52:09Z</time>
      </trkpt>
      <trkpt lat="31.29098418734863" lon="121.21208788239628">
        <ele>13.9</ele>
        <time>2025-07-27T12:52:15Z</time>
      </trkpt>
      <trkpt lat="31.291033936031702" lon="121.21188963438077">
        <ele>14.4</ele>
        <time>2025-07-27T12:52:24Z</time>
      </trkpt>
      <trkpt lat="31.291016749431876" lon="121.21172443166598">
        <ele>12.5</ele>
        <time>2025-07-27T12:52:30Z</time>
      </trkpt>
      <trkpt lat="31.2909425106819" lon="121.21149615432043">
        <ele>10.6</ele>
        <time>2025-07-27T12:52:39Z</time>
      </trkpt>
      <trkpt lat="31.29085543228495" lon="121.21140004176308">
        <ele>9.3</ele>
        <time>2025-07-27T12:52:45Z</time>
      </trkpt>
      <trkpt lat="31.290664357696254" lon="121.21127189757779">
        <ele>16.7</ele>
        <time>2025-07-27T12:52:57Z</time>
      </trkpt>
      <trkpt lat="31.290411332799245" lon="121.21116478455856">
        <ele>9.7</ele>
        <time>2025-07-27T12:53:09Z</time>
      </trkpt>
      <trkpt lat="31.290370300526774" lon="121.2111237363936">
        <ele>7.3</ele>
        <time>2025-07-27T12:53:12Z</time>
      </trkpt>
      <trkpt lat="31.29030330141889" lon="121.21110171435147">
        <ele>5.9</ele>
        <time>2025-07-27T12:53:15Z</time>
      </trkpt>
      <trkpt lat="31.290128171423163" lon="121.2109335168724">
        <ele>6.0</ele>
        <time>2025-07-27T12:53:24Z</time>
      </trkpt>
      <trkpt lat="31.289879137975852" lon="121.21082139594398">
        <ele>7.7</ele>
        <time>2025-07-27T12:53:36Z</time>
      </trkpt>
      <trkpt lat="31.28968438142367" lon="121.21095858628172">
        <ele>6.8</ele>
        <time>2025-07-27T12:53:48Z</time>
      </trkpt>
      <trkpt lat="31.289649451880344" lon="121.2110056487227">
        <ele>7.1</ele>
        <time>2025-07-27T12:53:51Z</time>
      </trkpt>
      <trkpt lat="31.28958373041273" lon="121.21121692037848">
        <ele>8.6</ele>
        <time>2025-07-27T12:54:00Z</time>
      </trkpt>
      <trkpt lat="31.28958106013284" lon="121.21149426761296">
        <ele>9.4</ele>
        <time>2025-07-27T12:54:12Z</time>
      </trkpt>
      <trkpt lat="31.28965517406584" lon="121.21161641331865">
        <ele>8.8</ele>
        <time>2025-07-27T12:54:18Z</time>
      </trkpt>
      <trkpt lat="31.289879314730758" lon="121.21181363864557">
        <ele>9.4</ele>
        <time>2025-07-27T12:54:33Z</time>
      </trkpt>
      <trkpt lat="31.290090478223654" lon="121.21202688343698">
        <ele>9.1</ele>
        <time>2025-07-27T12:54:48Z</time>
      </trkpt>
      <trkpt lat="31.29033661231309" lon="121.21222810902927">
        <ele>10.0</ele>
        <time>2025-07-27T12:55:03Z</time>
      </trkpt>
      <trkpt lat="31.290465679391126" lon="121.21233122384471">
        <ele>9.6</ele>
        <time>2025-07-27T12:55:12Z</time>
      </trkpt>
      <trkpt lat="31.290513683088093" lon="121.21235124414578">
        <ele>9.8</ele>
        <time>2025-07-27T12:55:15Z</time>
      </trkpt>
      <trkpt lat="31.290784501651043" lon="121.2122891454827">
        <ele>11.1</ele>
        <time>2025-07-27T12:55:30Z</time>
      </trkpt>
      <trkpt lat="31.2908823982586" lon="121.21223406995317">
        <ele>10.4</ele>
        <time>2025-07-27T12:55:36Z</time>
      </trkpt>
      <trkpt lat="31.290999213869018" lon="121.21211591548472">
        <ele>8.7</ele>
        <time>2025-07-27T12:55:45Z</time>
      </trkpt>
      <trkpt lat="31.291056011307482" lon="121.21196172130745">
        <ele>7.1</ele>
        <time>2025-07-27T12:55:51Z</time>
      </trkpt>
      <trkpt lat="31.291055699574578" lon="121.21169539237195">
        <ele>7.2</ele>
        <time>2025-07-27T12:56:00Z</time>
      </trkpt>
      <trkpt lat="31.290939511895218" lon="121.21149615457547">
        <ele>7.2</ele>
        <time>2025-07-27T12:56:09Z</time>
      </trkpt>
      <trkpt lat="31.290737462253993" lon="121.21138503302406">
        <ele>7.4</ele>
        <time>2025-07-27T12:56:21Z</time>
      </trkpt>
      <trkpt lat="31.290536356002495" lon="121.21122685192961">
        <ele>10.2</ele>
        <time>2025-07-27T12:56:33Z</time>
      </trkpt>
      <trkpt lat="31.29046524773797" lon="121.21111171318883">
        <ele>11.1</ele>
        <time>2025-07-27T12:56:39Z</time>
      </trkpt>
      <trkpt lat="31.290191159071888" lon="121.21094452544955">
        <ele>10.5</ele>
        <time>2025-07-27T12:56:54Z</time>
      </trkpt>
      <trkpt lat="31.290078136534746" lon="121.21088746281247">
        <ele>10.6</ele>
        <time>2025-07-27T12:57:00Z</time>
      </trkpt>
      <trkpt lat="31.289947166844257" lon="121.21086844984444">
        <ele>11.5</ele>
        <time>2025-07-27T12:57:06Z</time>
      </trkpt>
      <trkpt lat="31.28977026862701" lon="121.21089349660836">
        <ele>13.9</ele>
        <time>2025-07-27T12:57:15Z</time>
      </trkpt>
      <trkpt lat="31.289719320494356" lon="121.21091953390608">
        <ele>14.1</ele>
        <time>2025-07-27T12:57:18Z</time>
      </trkpt>
      <trkpt lat="31.2895856116453" lon="121.2111177955687">
        <ele>17.8</ele>
        <time>2025-07-27T12:57:30Z</time>
      </trkpt>
      <trkpt lat="31.2895239281942" lon="121.21136310868737">
        <ele>17.1</ele>
        <time>2025-07-27T12:57:42Z</time>
      </trkpt>
      <trkpt lat="31.289603044112546" lon="121.21148825825445">
        <ele>16.7</ele>
        <time>2025-07-27T12:57:51Z</time>
      </trkpt>
      <trkpt lat="31.289658272890545" lon="121.21170151866392">
        <ele>16.3</ele>
        <time>2025-07-27T12:58:00Z</time>
      </trkpt>
      <trkpt lat="31.28993039359357" lon="121.21189873934034">
        <ele>11.7</ele>
        <time>2025-07-27T12:58:18Z</time>
      </trkpt>
      <trkpt lat="31.29016651965818" lon="121.21208895316002">
        <ele>11.8</ele>
        <time>2025-07-27T12:58:33Z</time>
      </trkpt>
      <trkpt lat="31.29040963144019" lon="121.21227015415724">
        <ele>12.6</ele>
        <time>2025-07-27T12:58:48Z</time>
      </trkpt>
      <trkpt lat="31.290546636180846" lon="121.21232220598331">
        <ele>13.2</ele>
        <time>2025-07-27T12:58:57Z</time>
      </trkpt>
      <trkpt lat="31.290759532609215" lon="121.21230716957763">
        <ele>13.2</ele>
        <time>2025-07-27T12:59:09Z</time>
      </trkpt>
      <trkpt lat="31.29080646146771" lon="121.212262110637">
        <ele>13.2</ele>
        <time>2025-07-27T12:59:12Z</time>
      </trkpt>
      <trkpt lat="31.290920345757904" lon="121.21220202757755">
        <ele>12.5</ele>
        <time>2025-07-27T12:59:18Z</time>
      </trkpt>
      <trkpt lat="31.291005185841296" lon="121.21209388797698">
        <ele>13.7</ele>
        <time>2025-07-27T12:59:24Z</time>
      </trkpt>
      <trkpt lat="31.291035960958336" lon="121.21191166136191">
        <ele>12.3</ele>
        <time>2025-07-27T12:59:33Z</time>
      </trkpt>
      <trkpt lat="31.29103282865958" lon="121.21179752074556">
        <ele>11.3</ele>
        <time>2025-07-27T12:59:39Z</time>
      </trkpt>
      <trkpt lat="31.290982620786036" lon="121.21160328424995">
        <ele>12.0</ele>
        <time>2025-07-27T12:59:48Z</time>
      </trkpt>
      <trkpt lat="31.290909495657704" lon="121.21147212716679">
        <ele>12.7</ele>
        <time>2025-07-27T12:59:54Z</time>
      </trkpt>
      <trkpt lat="31.29081342676302" lon="121.21138102155594">
        <ele>13.5</ele>
        <time>2025-07-27T13:00:00Z</time>
      </trkpt>
      <trkpt lat="31.29065538272515" lon="121.21128992093595">
        <ele>15.1</ele>
        <time>2025-07-27T13:00:09Z</time>
      </trkpt>
      <trkpt lat="31.290421248849853" lon="121.21109769927418">
        <ele>16.4</ele>
        <time>2025-07-27T13:00:24Z</time>
      </trkpt>
      <trkpt lat="31.290171149203154" lon="121.21092950814884">
        <ele>15.4</ele>
        <time>2025-07-27T13:00:39Z</time>
      </trkpt>
      <trkpt lat="31.28999112499369" lon="121.21084842071606">
        <ele>15.3</ele>
        <time>2025-07-27T13:00:48Z</time>
      </trkpt>
      <trkpt lat="31.28972630326737" lon="121.21090751810065">
        <ele>15.4</ele>
        <time>2025-07-27T13:01:00Z</time>
      </trkpt>
      <trkpt lat="31.289678369484932" lon="121.21094657159728">
        <ele>15.5</ele>
        <time>2025-07-27T13:01:03Z</time>
      </trkpt>
      <trkpt lat="31.28960153232842" lon="121.21105671724567">
        <ele>14.6</ele>
        <time>2025-07-27T13:01:09Z</time>
      </trkpt>
      <trkpt lat="31.289578627606755" lon="121.211128810029">
        <ele>15.4</ele>
        <time>2025-07-27T13:01:15Z</time>
      </trkpt>
      <trkpt lat="31.289584759748035" lon="121.21124195171583">
        <ele>16.8</ele>
        <time>2025-07-27T13:01:18Z</time>
      </trkpt>
      <trkpt lat="31.28955196067984" lon="121.21140015262193">
        <ele>20.8</ele>
        <time>2025-07-27T13:01:24Z</time>
      </trkpt>
      <trkpt lat="31.289540918775085" lon="121.21151440148643">
        <ele>20.7</ele>
        <time>2025-07-27T13:01:30Z</time>
      </trkpt>
      <trkpt lat="31.2895842262788" lon="121.21153838792749">
        <ele>14.7</ele>
        <time>2025-07-27T13:01:33Z</time>
      </trkpt>
      <trkpt lat="31.28965282812684" lon="121.21157057329648">
        <ele>26.8</ele>
        <time>2025-07-27T13:01:36Z</time>
      </trkpt>
      <trkpt lat="31.289695544433165" lon="121.21167298649532">
        <ele>24.7</ele>
        <time>2025-07-27T13:01:42Z</time>
      </trkpt>
      <trkpt lat="31.289739914665684" lon="121.21169975363705">
        <ele>23.0</ele>
        <time>2025-07-27T13:01:45Z</time>
      </trkpt>
      <trkpt lat="31.289816297471614" lon="121.21176655246477">
        <ele>17.1</ele>
        <time>2025-07-27T13:01:51Z</time>
      </trkpt>
      <trkpt lat="31.28986230990003" lon="121.21180362771804">
        <ele>15.3</ele>
        <time>2025-07-27T13:01:54Z</time>
      </trkpt>
      <trkpt lat="31.28987937097059" lon="121.21186169798702">
        <ele>13.8</ele>
        <time>2025-07-27T13:01:57Z</time>
      </trkpt>
      <trkpt lat="31.28995541853847" lon="121.21192877422578">
        <ele>11.9</ele>
        <time>2025-07-27T13:02:03Z</time>
      </trkpt>
      <trkpt lat="31.29006934503163" lon="121.21201202466571">
        <ele>7.0</ele>
        <time>2025-07-27T13:02:09Z</time>
      </trkpt>
      <trkpt lat="31.290133003994303" lon="121.21208988013045">
        <ele>8.4</ele>
        <time>2025-07-27T13:02:15Z</time>
      </trkpt>
      <trkpt lat="31.290232548760173" lon="121.21213700644006">
        <ele>7.4</ele>
        <time>2025-07-27T13:02:21Z</time>
      </trkpt>
      <trkpt lat="31.290409658083945" lon="121.21229318224269">
        <ele>5.0</ele>
        <time>2025-07-27T13:02:33Z</time>
      </trkpt>
      <trkpt lat="31.290550686605552" lon="121.21236726049575">
        <ele>5.4</ele>
        <time>2025-07-27T13:02:42Z</time>
      </trkpt>
      <trkpt lat="31.290675632539806" lon="121.21236424621556">
        <ele>6.0</ele>
        <time>2025-07-27T13:02:51Z</time>
      </trkpt>
      <trkpt lat="31.29074152831464" lon="121.21229715890365">
        <ele>6.9</ele>
        <time>2025-07-27T13:02:54Z</time>
      </trkpt>
      <trkpt lat="31.2909003306253" lon="121.212182004794">
        <ele>6.4</ele>
        <time>2025-07-27T13:03:03Z</time>
      </trkpt>
      <trkpt lat="31.291056934922185" lon="121.2118966410663">
        <ele>5.3</ele>
        <time>2025-07-27T13:03:18Z</time>
      </trkpt>
      <trkpt lat="31.291067780483033" lon="121.21176848186371">
        <ele>5.7</ele>
        <time>2025-07-27T13:03:24Z</time>
      </trkpt>
      <trkpt lat="31.291054661158665" lon="121.2116623514811">
        <ele>6.0</ele>
        <time>2025-07-27T13:03:30Z</time>
      </trkpt>
      <trkpt lat="31.290894491081307" lon="121.21146311720231">
        <ele>13.9</ele>
        <time>2025-07-27T13:03:42Z</time>
      </trkpt>
      <trkpt lat="31.290734366193874" lon="121.21130293052998">
        <ele>15.9</ele>
        <time>2025-07-27T13:03:54Z</time>
      </trkpt>
      <trkpt lat="31.290648333263853" lon="121.21124586628437">
        <ele>15.9</ele>
        <time>2025-07-27T13:04:00Z</time>
      </trkpt>
      <trkpt lat="31.290437168315854" lon="121.21103561964595">
        <ele>17.0</ele>
        <time>2025-07-27T13:04:15Z</time>
      </trkpt>
      <trkpt lat="31.29018010479187" lon="121.21089546428651">
        <ele>18.0</ele>
        <time>2025-07-27T13:04:30Z</time>
      </trkpt>
      <trkpt lat="31.28991913376935" lon="121.21083140524763">
        <ele>16.4</ele>
        <time>2025-07-27T13:04:42Z</time>
      </trkpt>
      <trkpt lat="31.289719320494356" lon="121.21091953390608">
        <ele>17.3</ele>
        <time>2025-07-27T13:04:54Z</time>
      </trkpt>
      <trkpt lat="31.289564615396582" lon="121.21111379231114">
        <ele>17.6</ele>
        <time>2025-07-27T13:05:12Z</time>
      </trkpt>
      <trkpt lat="31.28956888146322" lon="121.21133907479489">
        <ele>21.3</ele>
        <time>2025-07-27T13:05:36Z</time>
      </trkpt>
    </trkseg>
  </trk>
</gpx>