<?xml version="1.0" encoding="UTF-8"?>
<gpx xmlns="http://www.topografix.com/GPX/1/1" xmlns:gpxtpx="http://www.garmin.com/xmlschemas/TrackPointExtension/v1" xmlns:xsi="http://www.w3.org/2001/XMLSchema-instance" xsi:schemaLocation="http://www.topografix.com/GPX/1/1 http://www.topografix.com/GPX/1/1/gpx.xsd" version="1.1" creator="gpx.py -- https://github.com/tkrajina/gpxpy">
  <trk>
    <name>gpx from keep</name>
    <type>Run</type>
    <trkseg>
      <trkpt lat="31.291372309071786" lon="121.21232814308627">
        <time>2026-04-25T10:30:59Z</time>
      </trkpt>
      <trkpt lat="31.291391315278403" lon="121.21234015610291">
        <time>2026-04-25T10:31:00Z</time>
      </trkpt>
      <trkpt lat="31.291400345173553" lon="121.21236919067752">
        <time>2026-04-25T10:31:01Z</time>
      </trkpt>
      <trkpt lat="31.29140940159902" lon="121.21242125320772">
        <time>2026-04-25T10:31:03Z</time>
      </trkpt>
      <trkpt lat="31.29141648871076" lon="121.21249934738103">
        <time>2026-04-25T10:31:06Z</time>
      </trkpt>
      <trkpt lat="31.29143057051301" lon="121.21257543832769">
        <time>2026-04-25T10:31:08Z</time>
      </trkpt>
      <trkpt lat="31.29145263514035" lon="121.21263951389184">
        <time>2026-04-25T10:31:10Z</time>
      </trkpt>
      <trkpt lat="31.29145263514035" lon="121.21263951389184">
        <time>2026-04-25T10:31:11Z</time>
      </trkpt>
      <trkpt lat="31.291474690477813" lon="121.2126955796607">
        <time>2026-04-25T10:31:12Z</time>
      </trkpt>
      <trkpt lat="31.291505735220163" lon="121.21274563732594">
        <time>2026-04-25T10:31:14Z</time>
      </trkpt>
      <trkpt lat="31.291539764958717" lon="121.21278368020626">
        <time>2026-04-25T10:31:16Z</time>
      </trkpt>
      <trkpt lat="31.291577775903466" lon="121.21280670465507">
        <time>2026-04-25T10:31:18Z</time>
      </trkpt>
      <trkpt lat="31.291619778366563" lon="121.2128237215315">
        <time>2026-04-25T10:31:20Z</time>
      </trkpt>
      <trkpt lat="31.29166277927746" lon="121.21283973711107">
        <time>2026-04-25T10:31:22Z</time>
      </trkpt>
      <trkpt lat="31.291708780112806" lon="121.21285675362809">
        <time>2026-04-25T10:31:24Z</time>
      </trkpt>
      <trkpt lat="31.291756777853152" lon="121.21287176756363">
        <time>2026-04-25T10:31:26Z</time>
      </trkpt>
      <trkpt lat="31.291829765501067" lon="121.21288677936631">
        <time>2026-04-25T10:31:28Z</time>
      </trkpt>
      <trkpt lat="31.291905753077245" lon="121.21290279210594">
        <time>2026-04-25T10:31:32Z</time>
      </trkpt>
      <trkpt lat="31.291984737163112" lon="121.21291680218329">
        <time>2026-04-25T10:31:34Z</time>
      </trkpt>
      <trkpt lat="31.292038721080193" lon="121.21292180358887">
        <time>2026-04-25T10:31:36Z</time>
      </trkpt>
      <trkpt lat="31.29208370407239" lon="121.2129228009628">
        <time>2026-04-25T10:31:38Z</time>
      </trkpt>
      <trkpt lat="31.292119687278007" lon="121.21292079550462">
        <time>2026-04-25T10:31:40Z</time>
      </trkpt>
      <trkpt lat="31.29215467430569" lon="121.21292179372858">
        <time>2026-04-25T10:31:42Z</time>
      </trkpt>
      <trkpt lat="31.292195660054983" lon="121.21292379264152">
        <time>2026-04-25T10:31:44Z</time>
      </trkpt>
      <trkpt lat="31.292250639023823" lon="121.21292478916534">
        <time>2026-04-25T10:31:46Z</time>
      </trkpt>
      <trkpt lat="31.29231960324042" lon="121.21291777490663">
        <time>2026-04-25T10:31:48Z</time>
      </trkpt>
      <trkpt lat="31.29239256584886" lon="121.21291076030619">
        <time>2026-04-25T10:31:50Z</time>
      </trkpt>
      <trkpt lat="31.292458531281333" lon="121.21290374629905">
        <time>2026-04-25T10:31:52Z</time>
      </trkpt>
      <trkpt lat="31.292513509126284" lon="121.21290374162385">
        <time>2026-04-25T10:31:54Z</time>
      </trkpt>
      <trkpt lat="31.29256549388082" lon="121.21290874320161">
        <time>2026-04-25T10:31:56Z</time>
      </trkpt>
      <trkpt lat="31.292617482055547" lon="121.21291674837636">
        <time>2026-04-25T10:31:58Z</time>
      </trkpt>
      <trkpt lat="31.292667464201408" lon="121.21291874652454">
        <time>2026-04-25T10:32:00Z</time>
      </trkpt>
      <trkpt lat="31.292716438777198" lon="121.21291373636309">
        <time>2026-04-25T10:32:02Z</time>
      </trkpt>
      <trkpt lat="31.29276540423728" lon="121.21290071660356">
        <time>2026-04-25T10:32:04Z</time>
      </trkpt>
      <trkpt lat="31.292814362853036" lon="121.21288168963609">
        <time>2026-04-25T10:32:06Z</time>
      </trkpt>
      <trkpt lat="31.29286131085419" lon="121.2128526508133">
        <time>2026-04-25T10:32:08Z</time>
      </trkpt>
      <trkpt lat="31.292899257884898" lon="121.21281960791626">
        <time>2026-04-25T10:32:10Z</time>
      </trkpt>
      <trkpt lat="31.292926205880203" lon="121.21278356230516">
        <time>2026-04-25T10:32:12Z</time>
      </trkpt>
      <trkpt lat="31.29294414601235" lon="121.21273750536163">
        <time>2026-04-25T10:32:14Z</time>
      </trkpt>
      <trkpt lat="31.292958077374028" lon="121.21268243782028">
        <time>2026-04-25T10:32:16Z</time>
      </trkpt>
      <trkpt lat="31.292970995268348" lon="121.21261535574602">
        <time>2026-04-25T10:32:18Z</time>
      </trkpt>
      <trkpt lat="31.292980924587155" lon="121.21255728467804">
        <time>2026-04-25T10:32:20Z</time>
      </trkpt>
      <trkpt lat="31.29299285645585" lon="121.21250221696481">
        <time>2026-04-25T10:32:22Z</time>
      </trkpt>
      <trkpt lat="31.29299579762118" lon="121.21245215598918">
        <time>2026-04-25T10:32:24Z</time>
      </trkpt>
      <trkpt lat="31.292994728770978" lon="121.21239208309584">
        <time>2026-04-25T10:32:26Z</time>
      </trkpt>
      <trkpt lat="31.292984664590243" lon="121.21233301206311">
        <time>2026-04-25T10:32:28Z</time>
      </trkpt>
      <trkpt lat="31.292969601158127" lon="121.21227294011439">
        <time>2026-04-25T10:32:30Z</time>
      </trkpt>
      <trkpt lat="31.29294555052221" lon="121.21222087859398">
        <time>2026-04-25T10:32:32Z</time>
      </trkpt>
      <trkpt lat="31.2929105088789" lon="121.21217282281567">
        <time>2026-04-25T10:32:34Z</time>
      </trkpt>
      <trkpt lat="31.292868478125854" lon="121.2121317761382">
        <time>2026-04-25T10:32:36Z</time>
      </trkpt>
      <trkpt lat="31.292812441316265" lon="121.21208071831495">
        <time>2026-04-25T10:32:38Z</time>
      </trkpt>
      <trkpt lat="31.29275640909583" lon="121.21203366532144">
        <time>2026-04-25T10:32:42Z</time>
      </trkpt>
      <trkpt lat="31.292699388886103" lon="121.21199662464801">
        <time>2026-04-25T10:32:44Z</time>
      </trkpt>
      <trkpt lat="31.2926513813646" lon="121.21197360040937">
        <time>2026-04-25T10:32:46Z</time>
      </trkpt>
      <trkpt lat="31.29260438510853" lon="121.21196058839048">
        <time>2026-04-25T10:32:48Z</time>
      </trkpt>
      <trkpt lat="31.292557406372165" lon="121.21196259485036">
        <time>2026-04-25T10:32:50Z</time>
      </trkpt>
      <trkpt lat="31.292513434604064" lon="121.21197160967803">
        <time>2026-04-25T10:32:52Z</time>
      </trkpt>
      <trkpt lat="31.29246946050072" lon="121.21197862204001">
        <time>2026-04-25T10:32:54Z</time>
      </trkpt>
      <trkpt lat="31.292426475488583" lon="121.21197662323256">
        <time>2026-04-25T10:32:56Z</time>
      </trkpt>
      <trkpt lat="31.292378494828014" lon="121.21197662731325">
        <time>2026-04-25T10:32:58Z</time>
      </trkpt>
      <trkpt lat="31.29233250986121" lon="121.21197362752908">
        <time>2026-04-25T10:33:00Z</time>
      </trkpt>
      <trkpt lat="31.29228752332562" lon="121.21196962642777">
        <time>2026-04-25T10:33:02Z</time>
      </trkpt>
      <trkpt lat="31.29224753711197" lon="121.21196762736467">
        <time>2026-04-25T10:33:04Z</time>
      </trkpt>
      <trkpt lat="31.29220555637726" lon="121.21196963339892">
        <time>2026-04-25T10:33:06Z</time>
      </trkpt>
      <trkpt lat="31.29216057685376" lon="121.21197163968807">
        <time>2026-04-25T10:33:08Z</time>
      </trkpt>
      <trkpt lat="31.292111598945098" lon="121.21197364631715">
        <time>2026-04-25T10:33:10Z</time>
      </trkpt>
      <trkpt lat="31.292063622970627" lon="121.21197765532416">
        <time>2026-04-25T10:33:12Z</time>
      </trkpt>
      <trkpt lat="31.292019647719545" lon="121.21198366645329">
        <time>2026-04-25T10:33:14Z</time>
      </trkpt>
      <trkpt lat="31.291976667397297" lon="121.21198567257143">
        <time>2026-04-25T10:33:16Z</time>
      </trkpt>
      <trkpt lat="31.29193068361806" lon="121.21198367401945">
        <time>2026-04-25T10:33:18Z</time>
      </trkpt>
      <trkpt lat="31.291876703068546" lon="121.21198167614743">
        <time>2026-04-25T10:33:20Z</time>
      </trkpt>
      <trkpt lat="31.2918207279985" lon="121.21198368337085">
        <time>2026-04-25T10:33:22Z</time>
      </trkpt>
      <trkpt lat="31.291767754055353" lon="121.2119876928015">
        <time>2026-04-25T10:33:24Z</time>
      </trkpt>
      <trkpt lat="31.291719778096557" lon="121.21199170180654">
        <time>2026-04-25T10:33:26Z</time>
      </trkpt>
      <trkpt lat="31.291673803666207" lon="121.21199771310273">
        <time>2026-04-25T10:33:28Z</time>
      </trkpt>
      <trkpt lat="31.291630836192144" lon="121.21201073275623">
        <time>2026-04-25T10:33:30Z</time>
      </trkpt>
      <trkpt lat="31.29158687844675" lon="121.21203176232743">
        <time>2026-04-25T10:33:32Z</time>
      </trkpt>
      <trkpt lat="31.291543929607517" lon="121.21206080162904">
        <time>2026-04-25T10:33:34Z</time>
      </trkpt>
      <trkpt lat="31.29150198732563" lon="121.21209584818232">
        <time>2026-04-25T10:33:36Z</time>
      </trkpt>
      <trkpt lat="31.29146804759214" lon="121.21213590014453">
        <time>2026-04-25T10:33:38Z</time>
      </trkpt>
      <trkpt lat="31.29144111543762" lon="121.21218496247806">
        <time>2026-04-25T10:33:40Z</time>
      </trkpt>
      <trkpt lat="31.291421186183335" lon="121.21223903024749">
        <time>2026-04-25T10:33:42Z</time>
      </trkpt>
      <trkpt lat="31.291405262174294" lon="121.21229910490047">
        <time>2026-04-25T10:33:44Z</time>
      </trkpt>
      <trkpt lat="31.29139333528567" lon="121.21235817787127">
        <time>2026-04-25T10:33:46Z</time>
      </trkpt>
      <trkpt lat="31.291384408235224" lon="121.21241825168376">
        <time>2026-04-25T10:33:48Z</time>
      </trkpt>
      <trkpt lat="31.29138347092924" lon="121.21247231740549">
        <time>2026-04-25T10:33:50Z</time>
      </trkpt>
      <trkpt lat="31.291390531454937" lon="121.21252738355943">
        <time>2026-04-25T10:33:52Z</time>
      </trkpt>
      <trkpt lat="31.29140458446418" lon="121.21257844417067">
        <time>2026-04-25T10:33:54Z</time>
      </trkpt>
      <trkpt lat="31.291421637331506" lon="121.2126305056463">
        <time>2026-04-25T10:33:56Z</time>
      </trkpt>
      <trkpt lat="31.291441687759548" lon="121.21268156556623">
        <time>2026-04-25T10:33:58Z</time>
      </trkpt>
      <trkpt lat="31.291466736090154" lon="121.21273262497127">
        <time>2026-04-25T10:34:00Z</time>
      </trkpt>
      <trkpt lat="31.29149777963305" lon="121.21278168136863">
        <time>2026-04-25T10:34:02Z</time>
      </trkpt>
      <trkpt lat="31.29153481725564" lon="121.21282773356614">
        <time>2026-04-25T10:34:04Z</time>
      </trkpt>
      <trkpt lat="31.29157484676013" lon="121.21286777823052">
        <time>2026-04-25T10:34:06Z</time>
      </trkpt>
      <trkpt lat="31.29161887232375" lon="121.21290582010032">
        <time>2026-04-25T10:34:08Z</time>
      </trkpt>
      <trkpt lat="31.291663889471753" lon="121.21293685344625">
        <time>2026-04-25T10:34:10Z</time>
      </trkpt>
      <trkpt lat="31.291713890919095" lon="121.21295587196195">
        <time>2026-04-25T10:34:12Z</time>
      </trkpt>
      <trkpt lat="31.29176787595288" lon="121.21296187455849">
        <time>2026-04-25T10:34:14Z</time>
      </trkpt>
      <trkpt lat="31.291824850674878" lon="121.21295986731805">
        <time>2026-04-25T10:34:16Z</time>
      </trkpt>
      <trkpt lat="31.291883822317033" lon="121.21295585751177">
        <time>2026-04-25T10:34:18Z</time>
      </trkpt>
      <trkpt lat="31.29194279054743" lon="121.21294884411076">
        <time>2026-04-25T10:34:20Z</time>
      </trkpt>
      <trkpt lat="31.29199876112855" lon="121.21294283216136">
        <time>2026-04-25T10:34:22Z</time>
      </trkpt>
      <trkpt lat="31.29205173519907" lon="121.21293882286268">
        <time>2026-04-25T10:34:24Z</time>
      </trkpt>
      <trkpt lat="31.2921027100785" lon="121.21293481373345">
        <time>2026-04-25T10:34:26Z</time>
      </trkpt>
      <trkpt lat="31.292152679668472" lon="121.21292579869453">
        <time>2026-04-25T10:34:28Z</time>
      </trkpt>
      <trkpt lat="31.292200644367863" lon="121.2129117778262">
        <time>2026-04-25T10:34:30Z</time>
      </trkpt>
      <trkpt lat="31.29224061684768" lon="121.21290176243035">
        <time>2026-04-25T10:34:32Z</time>
      </trkpt>
      <trkpt lat="31.29227859811204" lon="121.21289875560085">
        <time>2026-04-25T10:34:34Z</time>
      </trkpt>
      <trkpt lat="31.292319586147627" lon="121.21290275691484">
        <time>2026-04-25T10:34:36Z</time>
      </trkpt>
      <trkpt lat="31.292364577130957" lon="121.21291076268629">
        <time>2026-04-25T10:34:38Z</time>
      </trkpt>
      <trkpt lat="31.292408573074194" lon="121.21292277333689">
        <time>2026-04-25T10:34:40Z</time>
      </trkpt>
      <trkpt lat="31.292451566001485" lon="121.21293178047152">
        <time>2026-04-25T10:34:42Z</time>
      </trkpt>
      <trkpt lat="31.292497555442594" lon="121.21293878495148">
        <time>2026-04-25T10:34:44Z</time>
      </trkpt>
      <trkpt lat="31.292548542870662" lon="121.2129457890047">
        <time>2026-04-25T10:34:46Z</time>
      </trkpt>
      <trkpt lat="31.29259552166546" lon="121.21294378261302">
        <time>2026-04-25T10:34:48Z</time>
      </trkpt>
      <trkpt lat="31.292646490881154" lon="121.21293476749177">
        <time>2026-04-25T10:34:52Z</time>
      </trkpt>
      <trkpt lat="31.292699445621153" lon="121.21291373780817">
        <time>2026-04-25T10:34:54Z</time>
      </trkpt>
      <trkpt lat="31.292760392570067" lon="121.21288870262863">
        <time>2026-04-25T10:34:56Z</time>
      </trkpt>
      <trkpt lat="31.292812335139022" lon="121.2128566597841">
        <time>2026-04-25T10:34:58Z</time>
      </trkpt>
      <trkpt lat="31.29285727250139" lon="121.21281760908126">
        <time>2026-04-25T10:35:00Z</time>
      </trkpt>
      <trkpt lat="31.292894207321197" lon="121.21277355298523">
        <time>2026-04-25T10:35:02Z</time>
      </trkpt>
      <trkpt lat="31.292925138772908" lon="121.21272449130319">
        <time>2026-04-25T10:35:04Z</time>
      </trkpt>
      <trkpt lat="31.292952075202187" lon="121.2126784335007">
        <time>2026-04-25T10:35:06Z</time>
      </trkpt>
      <trkpt lat="31.292971014786897" lon="121.21263237630511">
        <time>2026-04-25T10:35:08Z</time>
      </trkpt>
      <trkpt lat="31.29298595476812" lon="121.21258531816578">
        <time>2026-04-25T10:35:10Z</time>
      </trkpt>
      <trkpt lat="31.292995892091373" lon="121.21253425552574">
        <time>2026-04-25T10:35:12Z</time>
      </trkpt>
      <trkpt lat="31.29299983290252" lon="121.21248419452024">
        <time>2026-04-25T10:35:14Z</time>
      </trkpt>
      <trkpt lat="31.29299778297477" lon="121.2124401412334">
        <time>2026-04-25T10:35:16Z</time>
      </trkpt>
      <trkpt lat="31.292989737712514" lon="121.2123980908243">
        <time>2026-04-25T10:35:18Z</time>
      </trkpt>
      <trkpt lat="31.292975690186193" lon="121.21235203599">
        <time>2026-04-25T10:35:20Z</time>
      </trkpt>
      <trkpt lat="31.29295663766156" lon="121.21229997418561">
        <time>2026-04-25T10:35:22Z</time>
      </trkpt>
      <trkpt lat="31.292932587068012" lon="121.21224791271341">
        <time>2026-04-25T10:35:24Z</time>
      </trkpt>
      <trkpt lat="31.2929045426473" lon="121.21219985638447">
        <time>2026-04-25T10:35:26Z</time>
      </trkpt>
      <trkpt lat="31.292873508663117" lon="121.2121598100351">
        <time>2026-04-25T10:35:28Z</time>
      </trkpt>
      <trkpt lat="31.292839482818426" lon="121.2121257712454">
        <time>2026-04-25T10:35:30Z</time>
      </trkpt>
      <trkpt lat="31.292800465936818" lon="121.21209774020636">
        <time>2026-04-25T10:35:32Z</time>
      </trkpt>
      <trkpt lat="31.29275545494268" lon="121.21207271333559">
        <time>2026-04-25T10:35:34Z</time>
      </trkpt>
      <trkpt lat="31.292710448593382" lon="121.21205169135973">
        <time>2026-04-25T10:35:36Z</time>
      </trkpt>
      <trkpt lat="31.292671451474913" lon="121.2120406811542">
        <time>2026-04-25T10:35:38Z</time>
      </trkpt>
      <trkpt lat="31.292636462070355" lon="121.21203768044141">
        <time>2026-04-25T10:35:40Z</time>
      </trkpt>
      <trkpt lat="31.292597484768525" lon="121.21204369113323">
        <time>2026-04-25T10:35:42Z</time>
      </trkpt>
      <trkpt lat="31.29255251104901" lon="121.21205070356295">
        <time>2026-04-25T10:35:44Z</time>
      </trkpt>
      <trkpt lat="31.292502541674295" lon="121.21205971887359">
        <time>2026-04-25T10:35:46Z</time>
      </trkpt>
      <trkpt lat="31.292453564907746" lon="121.21206272672528">
        <time>2026-04-25T10:35:48Z</time>
      </trkpt>
      <trkpt lat="31.29240558541076" lon="121.21206373203454">
        <time>2026-04-25T10:35:50Z</time>
      </trkpt>
      <trkpt lat="31.29235960045044" lon="121.21206073225923">
        <time>2026-04-25T10:35:52Z</time>
      </trkpt>
      <trkpt lat="31.292310615535957" lon="121.21205673150983">
        <time>2026-04-25T10:35:54Z</time>
      </trkpt>
      <trkpt lat="31.292263627486847" lon="121.21205072813189">
        <time>2026-04-25T10:35:56Z</time>
      </trkpt>
      <trkpt lat="31.29221663477677" lon="121.21204071983549">
        <time>2026-04-25T10:35:58Z</time>
      </trkpt>
      <trkpt lat="31.292170640496956" lon="121.21202971022092">
        <time>2026-04-25T10:36:00Z</time>
      </trkpt>
      <trkpt lat="31.292121652090184" lon="121.21202270577746">
        <time>2026-04-25T10:36:02Z</time>
      </trkpt>
      <trkpt lat="31.292070670322403" lon="121.21202070765308">
        <time>2026-04-25T10:36:04Z</time>
      </trkpt>
      <trkpt lat="31.292019690889713" lon="121.21202071198874">
        <time>2026-04-25T10:36:06Z</time>
      </trkpt>
      <trkpt lat="31.291970705987957" lon="121.21201671123386">
        <time>2026-04-25T10:36:08Z</time>
      </trkpt>
      <trkpt lat="31.291922716018806" lon="121.21200870547185">
        <time>2026-04-25T10:36:10Z</time>
      </trkpt>
      <trkpt lat="31.29187372295307" lon="121.21199769610028">
        <time>2026-04-25T10:36:12Z</time>
      </trkpt>
      <trkpt lat="31.29182772984292" lon="121.21198768770076">
        <time>2026-04-25T10:36:14Z</time>
      </trkpt>
      <trkpt lat="31.291782737495936" lon="121.2119786804443">
        <time>2026-04-25T10:36:16Z</time>
      </trkpt>
      <trkpt lat="31.29173675372565" lon="121.21197668189183">
        <time>2026-04-25T10:36:18Z</time>
      </trkpt>
      <trkpt lat="31.29168777467104" lon="121.21197768728896">
        <time>2026-04-25T10:36:20Z</time>
      </trkpt>
      <trkpt lat="31.291644810705275" lon="121.21199371064445">
        <time>2026-04-25T10:36:22Z</time>
      </trkpt>
      <trkpt lat="31.291603858756446" lon="121.21202074735375">
        <time>2026-04-25T10:36:24Z</time>
      </trkpt>
      <trkpt lat="31.291566916825044" lon="121.21205779598759">
        <time>2026-04-25T10:36:26Z</time>
      </trkpt>
      <trkpt lat="31.29152897525804" lon="121.21209484465955">
        <time>2026-04-25T10:36:28Z</time>
      </trkpt>
      <trkpt lat="31.291497038205346" lon="121.2121379001314">
        <time>2026-04-25T10:36:30Z</time>
      </trkpt>
      <trkpt lat="31.291469108773406" lon="121.21218896499526">
        <time>2026-04-25T10:36:32Z</time>
      </trkpt>
      <trkpt lat="31.291445181127706" lon="121.21224303309732">
        <time>2026-04-25T10:36:34Z</time>
      </trkpt>
      <trkpt lat="31.291428245935712" lon="121.21229309562158">
        <time>2026-04-25T10:36:36Z</time>
      </trkpt>
      <trkpt lat="31.29141830437165" lon="121.21234015380772">
        <time>2026-04-25T10:36:38Z</time>
      </trkpt>
      <trkpt lat="31.2914143556965" lon="121.21238320653761">
        <time>2026-04-25T10:36:40Z</time>
      </trkpt>
      <trkpt lat="31.29141340806217" lon="121.2124282613811">
        <time>2026-04-25T10:36:42Z</time>
      </trkpt>
      <trkpt lat="31.29141747217731" lon="121.21248533030176">
        <time>2026-04-25T10:36:44Z</time>
      </trkpt>
      <trkpt lat="31.291427537222912" lon="121.21254540223673">
        <time>2026-04-25T10:36:48Z</time>
      </trkpt>
      <trkpt lat="31.29144559892902" lon="121.21260547336753">
        <time>2026-04-25T10:36:50Z</time>
      </trkpt>
      <trkpt lat="31.29146764973535" lon="121.2126575343697">
        <time>2026-04-25T10:36:52Z</time>
      </trkpt>
      <trkpt lat="31.291495700328632" lon="121.21271159718115">
        <time>2026-04-25T10:36:54Z</time>
      </trkpt>
      <trkpt lat="31.291532744912548" lon="121.21276365671781">
        <time>2026-04-25T10:36:56Z</time>
      </trkpt>
      <trkpt lat="31.29157877778493" lon="121.21280870697605">
        <time>2026-04-25T10:36:58Z</time>
      </trkpt>
      <trkpt lat="31.291631795216993" lon="121.21284274335164">
        <time>2026-04-25T10:37:00Z</time>
      </trkpt>
      <trkpt lat="31.291683806176994" lon="121.21287077256795">
        <time>2026-04-25T10:37:02Z</time>
      </trkpt>
      <trkpt lat="31.29173280692677" lon="121.21288879001193">
        <time>2026-04-25T10:37:04Z</time>
      </trkpt>
      <trkpt lat="31.29177980391765" lon="121.21290280281616">
        <time>2026-04-25T10:37:06Z</time>
      </trkpt>
      <trkpt lat="31.291826791789358" lon="121.2129088060187">
        <time>2026-04-25T10:37:08Z</time>
      </trkpt>
      <trkpt lat="31.29187577201853" lon="121.21290880185362">
        <time>2026-04-25T10:37:10Z</time>
      </trkpt>
      <trkpt lat="31.291923749234794" lon="121.21290579417486">
        <time>2026-04-25T10:37:12Z</time>
      </trkpt>
      <trkpt lat="31.291968726523535" lon="121.21290178555107">
        <time>2026-04-25T10:37:14Z</time>
      </trkpt>
      <trkpt lat="31.29200870697039" lon="121.21289877855159">
        <time>2026-04-25T10:37:16Z</time>
      </trkpt>
      <trkpt lat="31.292047688961876" lon="121.21289677283674">
        <time>2026-04-25T10:37:18Z</time>
      </trkpt>
      <trkpt lat="31.292085675917793" lon="121.2128987720064">
        <time>2026-04-25T10:37:20Z</time>
      </trkpt>
      <trkpt lat="31.29212766354187" lon="121.21290277323541">
        <time>2026-04-25T10:37:22Z</time>
      </trkpt>
      <trkpt lat="31.292172646538848" lon="121.21290377060998">
        <time>2026-04-25T10:37:24Z</time>
      </trkpt>
      <trkpt lat="31.29221962531253" lon="121.21290176421542">
        <time>2026-04-25T10:37:26Z</time>
      </trkpt>
      <trkpt lat="31.292266602948565" lon="121.21289875662089">
        <time>2026-04-25T10:37:28Z</time>
      </trkpt>
      <trkpt lat="31.292311588231854" lon="121.21290175639513">
        <time>2026-04-25T10:37:30Z</time>
      </trkpt>
      <trkpt lat="31.29235758223056" lon="121.21291276568012">
        <time>2026-04-25T10:37:32Z</time>
      </trkpt>
      <trkpt lat="31.292402577769835" lon="121.21292477624488">
        <time>2026-04-25T10:37:34Z</time>
      </trkpt>
      <trkpt lat="31.29244756989059" lon="121.21293378320888">
        <time>2026-04-25T10:37:36Z</time>
      </trkpt>
      <trkpt lat="31.292493552498957" lon="121.21293478049733">
        <time>2026-04-25T10:37:38Z</time>
      </trkpt>
      <trkpt lat="31.292537534776283" lon="121.21293477675718">
        <time>2026-04-25T10:37:40Z</time>
      </trkpt>
      <trkpt lat="31.292581518194403" lon="121.21293577421561">
        <time>2026-04-25T10:37:42Z</time>
      </trkpt>
      <trkpt lat="31.292622506238576" lon="121.21293977552448">
        <time>2026-04-25T10:37:44Z</time>
      </trkpt>
      <trkpt lat="31.292658494020127" lon="121.21294177486114">
        <time>2026-04-25T10:37:46Z</time>
      </trkpt>
      <trkpt lat="31.292692475776548" lon="121.21293776717727">
        <time>2026-04-25T10:37:48Z</time>
      </trkpt>
      <trkpt lat="31.292729448353608" lon="121.21292675084648">
        <time>2026-04-25T10:37:50Z</time>
      </trkpt>
      <trkpt lat="31.29276841328674" lon="121.21290972714523">
        <time>2026-04-25T10:37:52Z</time>
      </trkpt>
      <trkpt lat="31.292807365670377" lon="121.21288169023113">
        <time>2026-04-25T10:37:54Z</time>
      </trkpt>
      <trkpt lat="31.292840318164057" lon="121.21285165139695">
        <time>2026-04-25T10:37:56Z</time>
      </trkpt>
      <trkpt lat="31.292874265660263" lon="121.21281760763615">
        <time>2026-04-25T10:37:58Z</time>
      </trkpt>
      <trkpt lat="31.2929082142661" lon="121.21278456503912">
        <time>2026-04-25T10:38:00Z</time>
      </trkpt>
      <trkpt lat="31.29294515247785" lon="121.21274351250861">
        <time>2026-04-25T10:38:02Z</time>
      </trkpt>
      <trkpt lat="31.29297808881204" lon="121.21269945663987">
        <time>2026-04-25T10:38:04Z</time>
      </trkpt>
      <trkpt lat="31.293001024522674" lon="121.21265139672086">
        <time>2026-04-25T10:38:06Z</time>
      </trkpt>
      <trkpt lat="31.293009970390923" lon="121.21260734275235">
        <time>2026-04-25T10:38:08Z</time>
      </trkpt>
      <trkpt lat="31.29300692102814" lon="121.2125632897371">
        <time>2026-04-25T10:38:10Z</time>
      </trkpt>
      <trkpt lat="31.293001871260365" lon="121.21251823561211">
        <time>2026-04-25T10:38:12Z</time>
      </trkpt>
      <trkpt lat="31.2929958195286" lon="121.21247117907315">
        <time>2026-04-25T10:38:14Z</time>
      </trkpt>
      <trkpt lat="31.292986759703233" lon="121.21241611298213">
        <time>2026-04-25T10:38:16Z</time>
      </trkpt>
      <trkpt lat="31.29297069913503" lon="121.21235804372671">
        <time>2026-04-25T10:38:18Z</time>
      </trkpt>
      <trkpt lat="31.292951630409288" lon="121.21229196484556">
        <time>2026-04-25T10:38:20Z</time>
      </trkpt>
      <trkpt lat="31.292928568962868" lon="121.21223089226962">
        <time>2026-04-25T10:38:22Z</time>
      </trkpt>
      <trkpt lat="31.292898514869076" lon="121.21217382506067">
        <time>2026-04-25T10:38:24Z</time>
      </trkpt>
      <trkpt lat="31.292863477812094" lon="121.21212977411066">
        <time>2026-04-25T10:38:26Z</time>
      </trkpt>
      <trkpt lat="31.292824451621566" lon="121.21209373325603">
        <time>2026-04-25T10:38:28Z</time>
      </trkpt>
      <trkpt lat="31.292783432024088" lon="121.21206269867064">
        <time>2026-04-25T10:38:30Z</time>
      </trkpt>
      <trkpt lat="31.292742419394436" lon="121.21203767142987">
        <time>2026-04-25T10:38:32Z</time>
      </trkpt>
      <trkpt lat="31.292699414551226" lon="121.21201865171918">
        <time>2026-04-25T10:38:34Z</time>
      </trkpt>
      <trkpt lat="31.292654419838197" lon="121.21200764201133">
        <time>2026-04-25T10:38:36Z</time>
      </trkpt>
      <trkpt lat="31.292607432930076" lon="121.21200263985406">
        <time>2026-04-25T10:38:38Z</time>
      </trkpt>
      <trkpt lat="31.29256045302436" lon="121.21200364508042">
        <time>2026-04-25T10:38:40Z</time>
      </trkpt>
      <trkpt lat="31.29251947653729" lon="121.21200965594925">
        <time>2026-04-25T10:38:42Z</time>
      </trkpt>
      <trkpt lat="31.292482503104818" lon="121.21201967139744">
        <time>2026-04-25T10:38:44Z</time>
      </trkpt>
      <trkpt lat="31.292444527741722" lon="121.21202768446763">
        <time>2026-04-25T10:38:46Z</time>
      </trkpt>
      <trkpt lat="31.292398549772294" lon="121.21203069206759">
        <time>2026-04-25T10:38:48Z</time>
      </trkpt>
      <trkpt lat="31.29234656256288" lon="121.21202368787944">
        <time>2026-04-25T10:38:50Z</time>
      </trkpt>
      <trkpt lat="31.292294570689293" lon="121.21201267876857">
        <time>2026-04-25T10:38:52Z</time>
      </trkpt>
      <trkpt lat="31.292243578411867" lon="121.21200166956855">
        <time>2026-04-25T10:38:54Z</time>
      </trkpt>
      <trkpt lat="31.292191593538774" lon="121.21199666783528">
        <time>2026-04-25T10:38:56Z</time>
      </trkpt>
      <trkpt lat="31.29213861257205" lon="121.21199466987916">
        <time>2026-04-25T10:38:58Z</time>
      </trkpt>
      <trkpt lat="31.29208863039845" lon="121.21199267166789">
        <time>2026-04-25T10:39:00Z</time>
      </trkpt>
      <trkpt lat="31.2920446481418" lon="121.21199267540845">
        <time>2026-04-25T10:39:02Z</time>
      </trkpt>
      <trkpt lat="31.29200765722832" lon="121.21198767239845">
        <time>2026-04-25T10:39:04Z</time>
      </trkpt>
      <trkpt lat="31.29197166707951" lon="121.21198367053393">
        <time>2026-04-25T10:39:06Z</time>
      </trkpt>
      <trkpt lat="31.291919678716074" lon="121.21197566510294">
        <time>2026-04-25T10:39:08Z</time>
      </trkpt>
      <trkpt lat="31.291863694302965" lon="121.21196966247349">
        <time>2026-04-25T10:39:12Z</time>
      </trkpt>
      <trkpt lat="31.291803712674096" lon="121.21196466141485">
        <time>2026-04-25T10:39:14Z</time>
      </trkpt>
      <trkpt lat="31.29175473011271" lon="121.21196266311647">
        <time>2026-04-25T10:39:16Z</time>
      </trkpt>
      <trkpt lat="31.29170975411445" lon="121.21196767310178">
        <time>2026-04-25T10:39:18Z</time>
      </trkpt>
      <trkpt lat="31.291669781937017" lon="121.21197768881918">
        <time>2026-04-25T10:39:20Z</time>
      </trkpt>
      <trkpt lat="31.29163281905068" lon="121.21199671535736">
        <time>2026-04-25T10:39:22Z</time>
      </trkpt>
      <trkpt lat="31.29159786117893" lon="121.21202074786382">
        <time>2026-04-25T10:39:24Z</time>
      </trkpt>
      <trkpt lat="31.291562906787632" lon="121.21204778403809">
        <time>2026-04-25T10:39:26Z</time>
      </trkpt>
      <trkpt lat="31.291528955465704" lon="121.21207782378681">
        <time>2026-04-25T10:39:28Z</time>
      </trkpt>
      <trkpt lat="31.29149701145496" lon="121.21211487192335">
        <time>2026-04-25T10:39:30Z</time>
      </trkpt>
      <trkpt lat="31.29147106614336" lon="121.21215292072844">
        <time>2026-04-25T10:39:32Z</time>
      </trkpt>
      <trkpt lat="31.29144912033478" lon="121.21219197036815">
        <time>2026-04-25T10:39:34Z</time>
      </trkpt>
      <trkpt lat="31.291432177101075" lon="121.2122350244218">
        <time>2026-04-25T10:39:36Z</time>
      </trkpt>
      <trkpt lat="31.29141724111341" lon="121.21228508678978">
        <time>2026-04-25T10:39:38Z</time>
      </trkpt>
      <trkpt lat="31.291409311477025" lon="121.21234315822994">
        <time>2026-04-25T10:39:40Z</time>
      </trkpt>
      <trkpt lat="31.291404380527975" lon="121.21240122929943">
        <time>2026-04-25T10:39:42Z</time>
      </trkpt>
      <trkpt lat="31.291407446246357" lon="121.2124592995731">
        <time>2026-04-25T10:39:44Z</time>
      </trkpt>
      <trkpt lat="31.291415512146628" lon="121.21251937173186">
        <time>2026-04-25T10:39:46Z</time>
      </trkpt>
      <trkpt lat="31.291428572470465" lon="121.21257643970868">
        <time>2026-04-25T10:39:48Z</time>
      </trkpt>
      <trkpt lat="31.291444631484968" lon="121.21263350731842">
        <time>2026-04-25T10:39:50Z</time>
      </trkpt>
      <trkpt lat="31.291462687301742" lon="121.21268857223181">
        <time>2026-04-25T10:39:52Z</time>
      </trkpt>
      <trkpt lat="31.29148374181605" lon="121.21274363678563">
        <time>2026-04-25T10:39:54Z</time>
      </trkpt>
      <trkpt lat="31.291505782118865" lon="121.21278668670766">
        <time>2026-04-25T10:39:56Z</time>
      </trkpt>
      <trkpt lat="31.29153081087609" lon="121.21282072548918">
        <time>2026-04-25T10:39:58Z</time>
      </trkpt>
      <trkpt lat="31.29155982885332" lon="121.21284675427863">
        <time>2026-04-25T10:40:00Z</time>
      </trkpt>
      <trkpt lat="31.29159384479221" lon="121.21287278261964">
        <time>2026-04-25T10:40:02Z</time>
      </trkpt>
      <trkpt lat="31.291632857553406" lon="121.2128978093124">
        <time>2026-04-25T10:40:04Z</time>
      </trkpt>
      <trkpt lat="31.291675864125796" lon="121.21291883084714">
        <time>2026-04-25T10:40:06Z</time>
      </trkpt>
      <trkpt lat="31.291719865728403" lon="121.21293584748764">
        <time>2026-04-25T10:40:08Z</time>
      </trkpt>
      <trkpt lat="31.291761860163078" lon="121.2129458559015">
        <time>2026-04-25T10:40:10Z</time>
      </trkpt>
      <trkpt lat="31.291802852723766" lon="121.21295386200107">
        <time>2026-04-25T10:40:12Z</time>
      </trkpt>
      <trkpt lat="31.2918458399252" lon="121.21295786313748">
        <time>2026-04-25T10:40:14Z</time>
      </trkpt>
      <trkpt lat="31.29188982558668" lon="121.21296086299068">
        <time>2026-04-25T10:40:16Z</time>
      </trkpt>
      <trkpt lat="31.29193578995599" lon="121.21294584111126">
        <time>2026-04-25T10:40:18Z</time>
      </trkpt>
      <trkpt lat="31.291986754581725" lon="121.21293282119643">
        <time>2026-04-25T10:40:22Z</time>
      </trkpt>
      <trkpt lat="31.292040719134427" lon="121.2129208022198">
        <time>2026-04-25T10:40:24Z</time>
      </trkpt>
      <trkpt lat="31.29209469849763" lon="121.21292179882873">
        <time>2026-04-25T10:40:26Z</time>
      </trkpt>
      <trkpt lat="31.292149676321536" lon="121.2129217941536">
        <time>2026-04-25T10:40:28Z</time>
      </trkpt>
      <trkpt lat="31.292207655217567" lon="121.21292379162148">
        <time>2026-04-25T10:40:30Z</time>
      </trkpt>
      <trkpt lat="31.29226763558895" lon="121.21292779131697">
        <time>2026-04-25T10:40:32Z</time>
      </trkpt>
      <trkpt lat="31.292329616296517" lon="121.21293279204059">
        <time>2026-04-25T10:40:34Z</time>
      </trkpt>
      <trkpt lat="31.292388595938693" lon="121.21293579062127">
        <time>2026-04-25T10:40:36Z</time>
      </trkpt>
      <trkpt lat="31.292444574515464" lon="121.21293678705966">
        <time>2026-04-25T10:40:38Z</time>
      </trkpt>
      <trkpt lat="31.292438568960897" lon="121.21292977917906">
        <time>2026-04-25T10:40:40Z</time>
      </trkpt>
      <trkpt lat="31.292430563071477" lon="121.21292177026777">
        <time>2026-04-25T10:40:42Z</time>
      </trkpt>
      <trkpt lat="31.292422564016125" lon="121.21291976854963">
        <time>2026-04-25T10:40:44Z</time>
      </trkpt>
      <trkpt lat="31.292470551513667" lon="121.21292577166358">
        <time>2026-04-25T10:40:46Z</time>
      </trkpt>
      <trkpt lat="31.292520534790224" lon="121.21292877100998">
        <time>2026-04-25T10:40:48Z</time>
      </trkpt>
      <trkpt lat="31.292569515055128" lon="121.21292876684481">
        <time>2026-04-25T10:40:52Z</time>
      </trkpt>
      <trkpt lat="31.292613488223324" lon="121.21292075351302">
        <time>2026-04-25T10:40:54Z</time>
      </trkpt>
      <trkpt lat="31.292654463738973" lon="121.21291374163336">
        <time>2026-04-25T10:40:56Z</time>
      </trkpt>
      <trkpt lat="31.292695433556403" lon="121.21290172375365">
        <time>2026-04-25T10:40:58Z</time>
      </trkpt>
      <trkpt lat="31.29273840826646" lon="121.21289471169933">
        <time>2026-04-25T10:41:00Z</time>
      </trkpt>
      <trkpt lat="31.292783378751228" lon="121.21288469587242">
        <time>2026-04-25T10:41:02Z</time>
      </trkpt>
      <trkpt lat="31.29282134863043" lon="121.21287167703485">
        <time>2026-04-25T10:41:04Z</time>
      </trkpt>
      <trkpt lat="31.292855315551208" lon="121.21285465372617">
        <time>2026-04-25T10:41:06Z</time>
      </trkpt>
      <trkpt lat="31.292888276016065" lon="121.21283162327998">
        <time>2026-04-25T10:41:08Z</time>
      </trkpt>
      <trkpt lat="31.2929192235576" lon="121.21279657854726">
        <time>2026-04-25T10:41:10Z</time>
      </trkpt>
      <trkpt lat="31.29294615779788" lon="121.21274851844932">
        <time>2026-04-25T10:41:12Z</time>
      </trkpt>
      <trkpt lat="31.292964088714598" lon="121.2126944517958">
        <time>2026-04-25T10:41:14Z</time>
      </trkpt>
      <trkpt lat="31.29297401817131" lon="121.21263638088607">
        <time>2026-04-25T10:41:16Z</time>
      </trkpt>
      <trkpt lat="31.292977949940596" lon="121.21257831037019">
        <time>2026-04-25T10:41:18Z</time>
      </trkpt>
      <trkpt lat="31.29297888396681" lon="121.21252124120618">
        <time>2026-04-25T10:41:20Z</time>
      </trkpt>
      <trkpt lat="31.292977824464305" lon="121.21246917817403">
        <time>2026-04-25T10:41:22Z</time>
      </trkpt>
      <trkpt lat="31.292975769900064" lon="121.21242111999939">
        <time>2026-04-25T10:41:24Z</time>
      </trkpt>
      <trkpt lat="31.292970716473583" lon="121.21237306200047">
        <time>2026-04-25T10:41:26Z</time>
      </trkpt>
      <trkpt lat="31.29296366262551" lon="121.21232400287266">
        <time>2026-04-25T10:41:28Z</time>
      </trkpt>
      <trkpt lat="31.292951609558514" lon="121.21227394286602">
        <time>2026-04-25T10:41:30Z</time>
      </trkpt>
      <trkpt lat="31.292931560795676" lon="121.21222488467673">
        <time>2026-04-25T10:41:32Z</time>
      </trkpt>
      <trkpt lat="31.29290451826262" lon="121.21217883067429">
        <time>2026-04-25T10:41:34Z</time>
      </trkpt>
      <trkpt lat="31.292875482285805" lon="121.21213778290007">
        <time>2026-04-25T10:41:36Z</time>
      </trkpt>
      <trkpt lat="31.292844452883838" lon="121.21210174137516">
        <time>2026-04-25T10:41:38Z</time>
      </trkpt>
      <trkpt lat="31.292808432445202" lon="121.21207170760152">
        <time>2026-04-25T10:41:40Z</time>
      </trkpt>
      <trkpt lat="31.292767417490257" lon="121.21204467791003">
        <time>2026-04-25T10:41:42Z</time>
      </trkpt>
      <trkpt lat="31.29272240762435" lon="121.21202065222403">
        <time>2026-04-25T10:41:44Z</time>
      </trkpt>
      <trkpt lat="31.29267640514702" lon="121.21200263398804">
        <time>2026-04-25T10:41:46Z</time>
      </trkpt>
      <trkpt lat="31.292630409665403" lon="121.21199062312813">
        <time>2026-04-25T10:41:48Z</time>
      </trkpt>
      <trkpt lat="31.292585417281256" lon="121.21198161587262">
        <time>2026-04-25T10:41:50Z</time>
      </trkpt>
      <trkpt lat="31.29254342602377" lon="121.21197461082264">
        <time>2026-04-25T10:41:52Z</time>
      </trkpt>
      <trkpt lat="31.292503435128854" lon="121.21196860683283">
        <time>2026-04-25T10:41:54Z</time>
      </trkpt>
      <trkpt lat="31.292462446973204" lon="121.21196460539079">
        <time>2026-04-25T10:41:56Z</time>
      </trkpt>
      <trkpt lat="31.292418464699253" lon="121.21196460913144">
        <time>2026-04-25T10:41:58Z</time>
      </trkpt>
      <trkpt lat="31.29237348633378" lon="121.21196761665287">
        <time>2026-04-25T10:42:00Z</time>
      </trkpt>
      <trkpt lat="31.292327507205435" lon="121.2119696230272">
        <time>2026-04-25T10:42:02Z</time>
      </trkpt>
      <trkpt lat="31.292282524173018" lon="121.21196862562103">
        <time>2026-04-25T10:42:04Z</time>
      </trkpt>
      <trkpt lat="31.292236540377974" lon="121.21196662706794">
        <time>2026-04-25T10:42:06Z</time>
      </trkpt>
      <trkpt lat="31.292191560853183" lon="121.2119686333573">
        <time>2026-04-25T10:42:08Z</time>
      </trkpt>
      <trkpt lat="31.292144582136757" lon="121.21197063981654">
        <time>2026-04-25T10:42:10Z</time>
      </trkpt>
      <trkpt lat="31.292100605715643" lon="121.21197564971555">
        <time>2026-04-25T10:42:12Z</time>
      </trkpt>
      <trkpt lat="31.292057628892554" lon="121.21198065952868">
        <time>2026-04-25T10:42:14Z</time>
      </trkpt>
      <trkpt lat="31.292020653152434" lon="121.21198867252444">
        <time>2026-04-25T10:42:16Z</time>
      </trkpt>
      <trkpt lat="31.291987673464558" lon="121.21199468271615">
        <time>2026-04-25T10:42:18Z</time>
      </trkpt>
      <trkpt lat="31.29195469144308" lon="121.21199869044509">
        <time>2026-04-25T10:42:20Z</time>
      </trkpt>
      <trkpt lat="31.291916706772113" lon="121.21199869367557">
        <time>2026-04-25T10:42:22Z</time>
      </trkpt>
      <trkpt lat="31.291872721022678" lon="121.21199569372355">
        <time>2026-04-25T10:42:24Z</time>
      </trkpt>
      <trkpt lat="31.29183073096673" lon="121.21198968990802">
        <time>2026-04-25T10:42:26Z</time>
      </trkpt>
      <trkpt lat="31.291790744773476" lon="121.21198769084621">
        <time>2026-04-25T10:42:28Z</time>
      </trkpt>
      <trkpt lat="31.291749770656416" lon="121.21199570418007">
        <time>2026-04-25T10:42:30Z</time>
      </trkpt>
      <trkpt lat="31.291703804390608" lon="121.21200872408951">
        <time>2026-04-25T10:42:32Z</time>
      </trkpt>
      <trkpt lat="31.29165984081302" lon="121.21202474751304">
        <time>2026-04-25T10:42:34Z</time>
      </trkpt>
      <trkpt lat="31.29162087404555" lon="121.21203976927333">
        <time>2026-04-25T10:42:36Z</time>
      </trkpt>
      <trkpt lat="31.2915889056118" lon="121.21205579165971">
        <time>2026-04-25T10:42:38Z</time>
      </trkpt>
      <trkpt lat="31.29155694299455" lon="121.21207682017841">
        <time>2026-04-25T10:42:40Z</time>
      </trkpt>
      <trkpt lat="31.29152798380914" lon="121.21210185333632">
        <time>2026-04-25T10:42:42Z</time>
      </trkpt>
      <trkpt lat="31.29149703355424" lon="121.21213389522694">
        <time>2026-04-25T10:42:44Z</time>
      </trkpt>
      <trkpt lat="31.29146709099829" lon="121.21217294557218">
        <time>2026-04-25T10:42:46Z</time>
      </trkpt>
      <trkpt lat="31.291438158437195" lon="121.21222100679037">
        <time>2026-04-25T10:42:48Z</time>
      </trkpt>
      <trkpt lat="31.291414230740557" lon="121.21227507483309">
        <time>2026-04-25T10:42:50Z</time>
      </trkpt>
      <trkpt lat="31.291402303894262" lon="121.21233414785256">
        <time>2026-04-25T10:42:52Z</time>
      </trkpt>
      <trkpt lat="31.29139537607899" lon="121.21239422154457">
        <time>2026-04-25T10:42:54Z</time>
      </trkpt>
      <trkpt lat="31.291396446077247" lon="121.21245529564783">
        <time>2026-04-25T10:42:56Z</time>
      </trkpt>
      <trkpt lat="31.291399510550043" lon="121.21251236460046">
        <time>2026-04-25T10:42:58Z</time>
      </trkpt>
      <trkpt lat="31.291408569051946" lon="121.21256642929724">
        <time>2026-04-25T10:43:00Z</time>
      </trkpt>
      <trkpt lat="31.291423620449304" lon="121.2126164885453">
        <time>2026-04-25T10:43:02Z</time>
      </trkpt>
      <trkpt lat="31.29144466820124" lon="121.21266554598914">
        <time>2026-04-25T10:43:04Z</time>
      </trkpt>
      <trkpt lat="31.291465711299352" lon="121.21271059852491">
        <time>2026-04-25T10:43:06Z</time>
      </trkpt>
      <trkpt lat="31.291486746326814" lon="121.21274864255625">
        <time>2026-04-25T10:43:08Z</time>
      </trkpt>
      <trkpt lat="31.291508775190685" lon="121.21278168043361">
        <time>2026-04-25T10:43:10Z</time>
      </trkpt>
      <trkpt lat="31.291535797433223" lon="121.21281071303699">
        <time>2026-04-25T10:43:12Z</time>
      </trkpt>
      <trkpt lat="31.29156781649053" lon="121.21283874398434">
        <time>2026-04-25T10:43:14Z</time>
      </trkpt>
      <trkpt lat="31.291601827872167" lon="121.2128607675282">
        <time>2026-04-25T10:43:16Z</time>
      </trkpt>
      <trkpt lat="31.29163583353825" lon="121.21287778505288">
        <time>2026-04-25T10:43:18Z</time>
      </trkpt>
      <trkpt lat="31.29166883618039" lon="121.21289179905246">
        <time>2026-04-25T10:43:20Z</time>
      </trkpt>
      <trkpt lat="31.29170283499499" lon="121.21290280936127">
        <time>2026-04-25T10:43:22Z</time>
      </trkpt>
      <trkpt lat="31.291741827231228" lon="121.21290981444331">
        <time>2026-04-25T10:43:24Z</time>
      </trkpt>
      <trkpt lat="31.29178081604947" lon="121.21291381592583">
        <time>2026-04-25T10:43:26Z</time>
      </trkpt>
      <trkpt lat="31.291815799646614" lon="121.21291181055204">
        <time>2026-04-25T10:43:28Z</time>
      </trkpt>
      <trkpt lat="31.291849783648406" lon="121.21290980526314">
        <time>2026-04-25T10:43:30Z</time>
      </trkpt>
      <trkpt lat="31.29189475979446" lon="121.2129047954403">
        <time>2026-04-25T10:43:32Z</time>
      </trkpt>
      <trkpt lat="31.291944745321796" lon="121.21290979718796">
        <time>2026-04-25T10:43:34Z</time>
      </trkpt>
      <trkpt lat="31.29200172916704" lon="121.21291579953902">
        <time>2026-04-25T10:43:36Z</time>
      </trkpt>
      <trkpt lat="31.292056712681962" lon="121.21292080085976">
        <time>2026-04-25T10:43:38Z</time>
      </trkpt>
      <trkpt lat="31.292111690503674" lon="121.21292079618463">
        <time>2026-04-25T10:43:40Z</time>
      </trkpt>
      <trkpt lat="31.29216266766273" lon="121.21291878945125">
        <time>2026-04-25T10:43:42Z</time>
      </trkpt>
      <trkpt lat="31.292203653412553" lon="121.2129207883644">
        <time>2026-04-25T10:43:44Z</time>
      </trkpt>
      <trkpt lat="31.29223764654188" lon="121.2129267926682">
        <time>2026-04-25T10:43:46Z</time>
      </trkpt>
      <trkpt lat="31.29227264154591" lon="121.21293479928303">
        <time>2026-04-25T10:43:48Z</time>
      </trkpt>
      <trkpt lat="31.292310636478796" lon="121.21294380683895">
        <time>2026-04-25T10:43:50Z</time>
      </trkpt>
      <trkpt lat="31.29234762953718" lon="121.21295081208102">
        <time>2026-04-25T10:43:52Z</time>
      </trkpt>
      <trkpt lat="31.292381627218415" lon="121.21296082116969">
        <time>2026-04-25T10:43:54Z</time>
      </trkpt>
      <trkpt lat="31.292417622954353" lon="121.2129698288875">
        <time>2026-04-25T10:43:56Z</time>
      </trkpt>
      <trkpt lat="31.29245861439999" lon="121.21297683378326">
        <time>2026-04-25T10:43:58Z</time>
      </trkpt>
      <trkpt lat="31.29249459193485" lon="121.21296982234227">
        <time>2026-04-25T10:44:00Z</time>
      </trkpt>
      <trkpt lat="31.292530559226986" lon="121.21295380011946">
        <time>2026-04-25T10:44:02Z</time>
      </trkpt>
      <trkpt lat="31.29256652537404" lon="121.21293677668923">
        <time>2026-04-25T10:44:04Z</time>
      </trkpt>
      <trkpt lat="31.29260849934941" lon="121.21292876352966">
        <time>2026-04-25T10:44:06Z</time>
      </trkpt>
      <trkpt lat="31.292647479089208" lon="121.21292475541898">
        <time>2026-04-25T10:44:08Z</time>
      </trkpt>
      <trkpt lat="31.29268944394971" lon="121.21290873266109">
        <time>2026-04-25T10:44:10Z</time>
      </trkpt>
      <trkpt lat="31.292732406121605" lon="121.2128907074091">
        <time>2026-04-25T10:44:12Z</time>
      </trkpt>
      <trkpt lat="31.292777361776984" lon="121.21286767597162">
        <time>2026-04-25T10:44:14Z</time>
      </trkpt>
      <trkpt lat="31.292818323594126" lon="121.21284864966245">
        <time>2026-04-25T10:44:16Z</time>
      </trkpt>
      <trkpt lat="31.29285327753792" lon="121.21282061302911">
        <time>2026-04-25T10:44:18Z</time>
      </trkpt>
      <trkpt lat="31.292885230380314" lon="121.2127905742165">
        <time>2026-04-25T10:44:20Z</time>
      </trkpt>
      <trkpt lat="31.292912184064402" lon="121.21275953459306">
        <time>2026-04-25T10:44:22Z</time>
      </trkpt>
      <trkpt lat="31.29292514678802" lon="121.21273149974354">
        <time>2026-04-25T10:44:24Z</time>
      </trkpt>
      <trkpt lat="31.292932111902243" lon="121.21270346537693">
        <time>2026-04-25T10:44:26Z</time>
      </trkpt>
      <trkpt lat="31.292936072466542" lon="121.2126704251999">
        <time>2026-04-25T10:44:28Z</time>
      </trkpt>
      <trkpt lat="31.292948003373287" lon="121.21261435649154">
        <time>2026-04-25T10:44:30Z</time>
      </trkpt>
      <trkpt lat="31.292956927341145" lon="121.21255127944772">
        <time>2026-04-25T10:44:34Z</time>
      </trkpt>
      <trkpt lat="31.292962847787503" lon="121.21248419766562">
        <time>2026-04-25T10:44:36Z</time>
      </trkpt>
      <trkpt lat="31.29296279013265" lon="121.21243413691404">
        <time>2026-04-25T10:44:38Z</time>
      </trkpt>
      <trkpt lat="31.292956737127284" lon="121.21238607902161">
        <time>2026-04-25T10:44:40Z</time>
      </trkpt>
      <trkpt lat="31.292943688025865" lon="121.21233902286419">
        <time>2026-04-25T10:44:42Z</time>
      </trkpt>
      <trkpt lat="31.29292564202826" lon="121.21229296827663">
        <time>2026-04-25T10:44:44Z</time>
      </trkpt>
      <trkpt lat="31.292903597577094" lon="121.21224691395648">
        <time>2026-04-25T10:44:46Z</time>
      </trkpt>
      <trkpt lat="31.292876556235928" lon="121.21220186121263">
        <time>2026-04-25T10:44:48Z</time>
      </trkpt>
      <trkpt lat="31.292847514477653" lon="121.21215580734396">
        <time>2026-04-25T10:44:50Z</time>
      </trkpt>
      <trkpt lat="31.292813481650125" lon="121.21211576118935">
        <time>2026-04-25T10:44:52Z</time>
      </trkpt>
      <trkpt lat="31.2927804588534" lon="121.21208472594718">
        <time>2026-04-25T10:44:54Z</time>
      </trkpt>
      <trkpt lat="31.292749448039693" lon="121.2120647040183">
        <time>2026-04-25T10:44:56Z</time>
      </trkpt>
      <trkpt lat="31.292714441156278" lon="121.21204668487424">
        <time>2026-04-25T10:44:58Z</time>
      </trkpt>
      <trkpt lat="31.292677443230765" lon="121.21203567449679">
        <time>2026-04-25T10:45:00Z</time>
      </trkpt>
      <trkpt lat="31.292635454312375" lon="121.21203067191922">
        <time>2026-04-25T10:45:02Z</time>
      </trkpt>
      <trkpt lat="31.29259547041961" lon="121.21203067531981">
        <time>2026-04-25T10:45:04Z</time>
      </trkpt>
      <trkpt lat="31.29255648962338" lon="121.21203368232436">
        <time>2026-04-25T10:45:06Z</time>
      </trkpt>
      <trkpt lat="31.29251750533116" lon="121.21203368563991">
        <time>2026-04-25T10:45:08Z</time>
      </trkpt>
      <trkpt lat="31.292476521846183" lon="121.21203368912549">
        <time>2026-04-25T10:45:10Z</time>
      </trkpt>
      <trkpt lat="31.292434534102323" lon="121.21202968777735">
        <time>2026-04-25T10:45:12Z</time>
      </trkpt>
      <trkpt lat="31.29239254402766" lon="121.21202368396881">
        <time>2026-04-25T10:45:14Z</time>
      </trkpt>
      <trkpt lat="31.292349550857708" lon="121.21201467655341">
        <time>2026-04-25T10:45:16Z</time>
      </trkpt>
      <trkpt lat="31.292306557687283" lon="121.21200566913522">
        <time>2026-04-25T10:45:18Z</time>
      </trkpt>
      <trkpt lat="31.292263565683292" lon="121.21199766294517">
        <time>2026-04-25T10:45:20Z</time>
      </trkpt>
      <trkpt lat="31.29222357130291" lon="121.21198865526672">
        <time>2026-04-25T10:45:22Z</time>
      </trkpt>
      <trkpt lat="31.29218757647667" lon="121.21198064847691">
        <time>2026-04-25T10:45:24Z</time>
      </trkpt>
      <trkpt lat="31.29215258708455" lon="121.21197764775796">
        <time>2026-04-25T10:45:26Z</time>
      </trkpt>
      <trkpt lat="31.292115600834965" lon="121.21197664967193">
        <time>2026-04-25T10:45:28Z</time>
      </trkpt>
      <trkpt lat="31.29207661422571" lon="121.21197465052427">
        <time>2026-04-25T10:45:30Z</time>
      </trkpt>
      <trkpt lat="31.2920376252826" lon="121.211970648913">
        <time>2026-04-25T10:45:32Z</time>
      </trkpt>
      <trkpt lat="31.292000635533945" lon="121.21196664713116">
        <time>2026-04-25T10:45:34Z</time>
      </trkpt>
      <trkpt lat="31.291965644979523" lon="121.21196264517874">
        <time>2026-04-25T10:45:36Z</time>
      </trkpt>
      <trkpt lat="31.291930656761973" lon="121.21196064569006">
        <time>2026-04-25T10:45:38Z</time>
      </trkpt>
      <trkpt lat="31.29189266858783" lon="121.21195764522409">
        <time>2026-04-25T10:45:40Z</time>
      </trkpt>
      <trkpt lat="31.291852678885483" lon="121.21195264246315">
        <time>2026-04-25T10:45:42Z</time>
      </trkpt>
      <trkpt lat="31.291809690394654" lon="121.21194763995639">
        <time>2026-04-25T10:45:44Z</time>
      </trkpt>
      <trkpt lat="31.29176670774732" lon="121.21194764361195">
        <time>2026-04-25T10:45:46Z</time>
      </trkpt>
      <trkpt lat="31.291722738355993" lon="121.21195866090845">
        <time>2026-04-25T10:45:48Z</time>
      </trkpt>
      <trkpt lat="31.291680780999002" lon="121.21198069157846">
        <time>2026-04-25T10:45:50Z</time>
      </trkpt>
      <trkpt lat="31.291639829059086" lon="121.2120077282998">
        <time>2026-04-25T10:45:52Z</time>
      </trkpt>
      <trkpt lat="31.29160187705373" lon="121.21203576597068">
        <time>2026-04-25T10:45:54Z</time>
      </trkpt>
      <trkpt lat="31.29156592887839" lon="121.21206780835873">
        <time>2026-04-25T10:45:56Z</time>
      </trkpt>
      <trkpt lat="31.291532980626226" lon="121.21210085168399">
        <time>2026-04-25T10:45:58Z</time>
      </trkpt>
      <trkpt lat="31.291505034974527" lon="121.21213789945132">
        <time>2026-04-25T10:46:00Z</time>
      </trkpt>
      <trkpt lat="31.291483089182652" lon="121.21217694911114">
        <time>2026-04-25T10:46:02Z</time>
      </trkpt>
      <trkpt lat="31.29146315182013" lon="121.21222400833459">
        <time>2026-04-25T10:46:04Z</time>
      </trkpt>
      <trkpt lat="31.291446218973494" lon="121.21227607333417">
        <time>2026-04-25T10:46:06Z</time>
      </trkpt>
      <trkpt lat="31.291434287497502" lon="121.21233114147422">
        <time>2026-04-25T10:46:08Z</time>
      </trkpt>
      <trkpt lat="31.291429353103464" lon="121.21238620891525">
        <time>2026-04-25T10:46:10Z</time>
      </trkpt>
      <trkpt lat="31.29142541590742" lon="121.21243927373584">
        <time>2026-04-25T10:46:12Z</time>
      </trkpt>
      <trkpt lat="31.2914234755149" lon="121.21249033586187">
        <time>2026-04-25T10:46:14Z</time>
      </trkpt>
      <trkpt lat="31.29142553342848" lon="121.21254139755825">
        <time>2026-04-25T10:46:16Z</time>
      </trkpt>
      <trkpt lat="31.291435584585" lon="121.21258945485349">
        <time>2026-04-25T10:46:18Z</time>
      </trkpt>
      <trkpt lat="31.291444631484968" lon="121.21263350731842">
        <time>2026-04-25T10:46:20Z</time>
      </trkpt>
      <trkpt lat="31.291464671590703" lon="121.2126755563664">
        <time>2026-04-25T10:46:24Z</time>
      </trkpt>
      <trkpt lat="31.29148871002822" lon="121.21271760501345">
        <time>2026-04-25T10:46:26Z</time>
      </trkpt>
      <trkpt lat="31.29152274551883" lon="121.21276065395412">
        <time>2026-04-25T10:46:28Z</time>
      </trkpt>
      <trkpt lat="31.29155277799885" lon="121.21279969835804">
        <time>2026-04-25T10:46:30Z</time>
      </trkpt>
      <trkpt lat="31.291586800826312" lon="121.212831733955">
        <time>2026-04-25T10:46:32Z</time>
      </trkpt>
      <trkpt lat="31.291624820868208" lon="121.21286276797542">
        <time>2026-04-25T10:46:34Z</time>
      </trkpt>
      <trkpt lat="31.291662836322253" lon="121.2128897971622">
        <time>2026-04-25T10:46:36Z</time>
      </trkpt>
      <trkpt lat="31.291700848337662" lon="121.21291382272594">
        <time>2026-04-25T10:46:38Z</time>
      </trkpt>
      <trkpt lat="31.29173984968414" lon="121.21292883739684">
        <time>2026-04-25T10:46:40Z</time>
      </trkpt>
      <trkpt lat="31.291777842319952" lon="121.21293584255758">
        <time>2026-04-25T10:46:42Z</time>
      </trkpt>
      <trkpt lat="31.29181782617825" lon="121.21293583915754">
        <time>2026-04-25T10:46:44Z</time>
      </trkpt>
      <trkpt lat="31.291861805007937" lon="121.21293283182163">
        <time>2026-04-25T10:46:46Z</time>
      </trkpt>
      <trkpt lat="31.29190978564233" lon="121.21293282774157">
        <time>2026-04-25T10:46:48Z</time>
      </trkpt>
      <trkpt lat="31.291961762387913" lon="121.21293082092407">
        <time>2026-04-25T10:46:50Z</time>
      </trkpt>
      <trkpt lat="31.29201573719061" lon="121.21292781273759">
        <time>2026-04-25T10:46:52Z</time>
      </trkpt>
      <trkpt lat="31.292070709314622" lon="121.21292280206782">
        <time>2026-04-25T10:46:54Z</time>
      </trkpt>
      <trkpt lat="31.292123681108148" lon="121.21291679036797">
        <time>2026-04-25T10:46:56Z</time>
      </trkpt>
      <trkpt lat="31.29217365981012" lon="121.21291578491861">
        <time>2026-04-25T10:46:58Z</time>
      </trkpt>
      <trkpt lat="31.29222263663895" lon="121.21291277715552">
        <time>2026-04-25T10:47:00Z</time>
      </trkpt>
      <trkpt lat="31.29227061729155" lon="121.21291277307539">
        <time>2026-04-25T10:47:02Z</time>
      </trkpt>
      <trkpt lat="31.292317600628397" lon="121.2129147714789">
        <time>2026-04-25T10:47:04Z</time>
      </trkpt>
      <trkpt lat="31.29236158745487" lon="121.21291877253567">
        <time>2026-04-25T10:47:06Z</time>
      </trkpt>
      <trkpt lat="31.29240557656112" lon="121.21292477598988">
        <time>2026-04-25T10:47:08Z</time>
      </trkpt>
      <trkpt lat="31.29244556955749" lon="121.21293278218023">
        <time>2026-04-25T10:47:10Z</time>
      </trkpt>
      <trkpt lat="31.292486564427918" lon="121.2129427906801">
        <time>2026-04-25T10:47:12Z</time>
      </trkpt>
      <trkpt lat="31.292528563447007" lon="121.21295680388315">
        <time>2026-04-25T10:47:14Z</time>
      </trkpt>
      <trkpt lat="31.292574556300107" lon="121.21296681194968">
        <time>2026-04-25T10:47:16Z</time>
      </trkpt>
      <trkpt lat="31.292620543464487" lon="121.21297181402657">
        <time>2026-04-25T10:47:18Z</time>
      </trkpt>
      <trkpt lat="31.292666521529316" lon="121.21296880652427">
        <time>2026-04-25T10:47:20Z</time>
      </trkpt>
      <trkpt lat="31.292710496987606" lon="121.21296279559893">
        <time>2026-04-25T10:47:22Z</time>
      </trkpt>
      <trkpt lat="31.292750468366062" lon="121.21295177902267">
        <time>2026-04-25T10:47:24Z</time>
      </trkpt>
      <trkpt lat="31.292787434117916" lon="121.21293475550618">
        <time>2026-04-25T10:47:26Z</time>
      </trkpt>
      <trkpt lat="31.292814395911364" lon="121.21291072443447">
        <time>2026-04-25T10:47:28Z</time>
      </trkpt>
      <trkpt lat="31.292835348699043" lon="121.21287668184831">
        <time>2026-04-25T10:47:30Z</time>
      </trkpt>
      <trkpt lat="31.292857291916373" lon="121.21283462952157">
        <time>2026-04-25T10:47:32Z</time>
      </trkpt>
      <trkpt lat="31.29288422849639" lon="121.21278857189422">
        <time>2026-04-25T10:47:36Z</time>
      </trkpt>
      <trkpt lat="31.292912170333445" lon="121.21274752013449">
        <time>2026-04-25T10:47:38Z</time>
      </trkpt>
      <trkpt lat="31.292933116082672" lon="121.21270747011809">
        <time>2026-04-25T10:47:40Z</time>
      </trkpt>
      <trkpt lat="31.292954061784123" lon="121.21266742004636">
        <time>2026-04-25T10:47:42Z</time>
      </trkpt>
      <trkpt lat="31.29297100215824" lon="121.21262136300331">
        <time>2026-04-25T10:47:44Z</time>
      </trkpt>
      <trkpt lat="31.29298194373308" lon="121.21257430518617">
        <time>2026-04-25T10:47:46Z</time>
      </trkpt>
      <trkpt lat="31.2929848850066" lon="121.21252424433465">
        <time>2026-04-25T10:47:48Z</time>
      </trkpt>
      <trkpt lat="31.292980832478822" lon="121.2124771876354">
        <time>2026-04-25T10:47:50Z</time>
      </trkpt>
      <trkpt lat="31.292971783050163" lon="121.21243113250111">
        <time>2026-04-25T10:47:52Z</time>
      </trkpt>
      <trkpt lat="31.29295873632264" lon="121.2123860788516">
        <time>2026-04-25T10:47:54Z</time>
      </trkpt>
      <trkpt lat="31.29294069270284" lon="121.21234202677654">
        <time>2026-04-25T10:47:56Z</time>
      </trkpt>
      <trkpt lat="31.29292165174349" lon="121.21229997716104">
        <time>2026-04-25T10:47:58Z</time>
      </trkpt>
      <trkpt lat="31.292902610731662" lon="121.21225792748494">
        <time>2026-04-25T10:48:00Z</time>
      </trkpt>
      <trkpt lat="31.292882570069793" lon="121.21221587783332">
        <time>2026-04-25T10:48:02Z</time>
      </trkpt>
      <trkpt lat="31.292855534495754" lon="121.21217583116585">
        <time>2026-04-25T10:48:04Z</time>
      </trkpt>
      <trkpt lat="31.292824505135325" lon="121.21213978968782">
        <time>2026-04-25T10:48:06Z</time>
      </trkpt>
      <trkpt lat="31.29279048159934" lon="121.21210775332908">
        <time>2026-04-25T10:48:08Z</time>
      </trkpt>
      <trkpt lat="31.292754462332617" lon="121.21207872078969">
        <time>2026-04-25T10:48:10Z</time>
      </trkpt>
      <trkpt lat="31.29271644967363" lon="121.21205469453649">
        <time>2026-04-25T10:48:12Z</time>
      </trkpt>
      <trkpt lat="31.292679444757002" lon="121.21203767678578">
        <time>2026-04-25T10:48:14Z</time>
      </trkpt>
      <trkpt lat="31.292644450688478" lon="121.2120306711541">
        <time>2026-04-25T10:48:16Z</time>
      </trkpt>
      <trkpt lat="31.292613458507265" lon="121.2120266688704">
        <time>2026-04-25T10:48:18Z</time>
      </trkpt>
      <trkpt lat="31.29258047296239" lon="121.2120276729057">
        <time>2026-04-25T10:48:20Z</time>
      </trkpt>
      <trkpt lat="31.29254349136153" lon="121.21203067974055">
        <time>2026-04-25T10:48:22Z</time>
      </trkpt>
      <trkpt lat="31.292504508235734" lon="121.2120316842858">
        <time>2026-04-25T10:48:24Z</time>
      </trkpt>
      <trkpt lat="31.292464523182584" lon="121.21203068645667">
        <time>2026-04-25T10:48:26Z</time>
      </trkpt>
      <trkpt lat="31.292425534230247" lon="121.21202668485306">
        <time>2026-04-25T10:48:28Z</time>
      </trkpt>
      <trkpt lat="31.292384547251014" lon="121.21202368464891">
        <time>2026-04-25T10:48:30Z</time>
      </trkpt>
      <trkpt lat="31.292344559870315" lon="121.21202068435944">
        <time>2026-04-25T10:48:32Z</time>
      </trkpt>
      <trkpt lat="31.292300571770408" lon="121.21201568194932">
        <time>2026-04-25T10:48:34Z</time>
      </trkpt>
      <trkpt lat="31.292257582102213" lon="121.21200967822291">
        <time>2026-04-25T10:48:36Z</time>
      </trkpt>
      <trkpt lat="31.292216589295194" lon="121.21200167186392">
        <time>2026-04-25T10:48:38Z</time>
      </trkpt>
      <trkpt lat="31.292176596084882" lon="121.2119936654177">
        <time>2026-04-25T10:48:40Z</time>
      </trkpt>
      <trkpt lat="31.292136601707078" lon="121.21198465773804">
        <time>2026-04-25T10:48:42Z</time>
      </trkpt>
      <trkpt lat="31.292094605799832" lon="121.21197364776238">
        <time>2026-04-25T10:48:44Z</time>
      </trkpt>
      <trkpt lat="31.29205460674835" lon="121.2119606351484">
        <time>2026-04-25T10:48:46Z</time>
      </trkpt>
      <trkpt lat="31.292019605676966" lon="121.21194762210361">
        <time>2026-04-25T10:48:48Z</time>
      </trkpt>
      <trkpt lat="31.2919876104039" lon="121.21194061619535">
        <time>2026-04-25T10:48:50Z</time>
      </trkpt>
      <trkpt lat="31.29195862093262" lon="121.21193961742794">
        <time>2026-04-25T10:48:52Z</time>
      </trkpt>
      <trkpt lat="31.29192863770849" lon="121.21194362490935">
        <time>2026-04-25T10:48:54Z</time>
      </trkpt>
      <trkpt lat="31.29189965524977" lon="121.21194863353774">
        <time>2026-04-25T10:48:56Z</time>
      </trkpt>
      <trkpt lat="31.29186567480852" lon="121.21195364259034">
        <time>2026-04-25T10:48:58Z</time>
      </trkpt>
      <trkpt lat="31.291823696427738" lon="121.21195765108999">
        <time>2026-04-25T10:49:00Z</time>
      </trkpt>
      <trkpt lat="31.291776724737765" lon="121.21196566494214">
        <time>2026-04-25T10:49:02Z</time>
      </trkpt>
      <trkpt lat="31.291733757271455" lon="121.21197868460992">
        <time>2026-04-25T10:49:04Z</time>
      </trkpt>
      <trkpt lat="31.291693796759883" lon="121.2119987126333">
        <time>2026-04-25T10:49:06Z</time>
      </trkpt>
      <trkpt lat="31.291662837269726" lon="121.2120227447981">
        <time>2026-04-25T10:49:08Z</time>
      </trkpt>
      <trkpt lat="31.291632880855847" lon="121.2120497805455">
        <time>2026-04-25T10:49:10Z</time>
      </trkpt>
      <trkpt lat="31.291601925989426" lon="121.21207781758105">
        <time>2026-04-25T10:49:12Z</time>
      </trkpt>
      <trkpt lat="31.29156797114826" lon="121.2121048536176">
        <time>2026-04-25T10:49:14Z</time>
      </trkpt>
      <trkpt lat="31.29153401744941" lon="121.21213289085539">
        <time>2026-04-25T10:49:16Z</time>
      </trkpt>
      <trkpt lat="31.29150306600275" lon="121.21216393148688">
        <time>2026-04-25T10:49:18Z</time>
      </trkpt>
      <trkpt lat="31.29147313385737" lon="121.21221199280491">
        <time>2026-04-25T10:49:20Z</time>
      </trkpt>
      <trkpt lat="31.291450208088204" lon="121.21226806322258">
        <time>2026-04-25T10:49:24Z</time>
      </trkpt>
      <trkpt lat="31.291437289756423" lon="121.21233414487732">
        <time>2026-04-25T10:49:26Z</time>
      </trkpt>
      <trkpt lat="31.291434355704755" lon="121.21239021336005">
        <time>2026-04-25T10:49:28Z</time>
      </trkpt>
      <trkpt lat="31.291436414925187" lon="121.21244227644773">
        <time>2026-04-25T10:49:30Z</time>
      </trkpt>
      <trkpt lat="31.291437469859915" lon="121.2124903346718">
        <time>2026-04-25T10:49:32Z</time>
      </trkpt>
      <trkpt lat="31.29143952086918" lon="121.21253538909444">
        <time>2026-04-25T10:49:34Z</time>
      </trkpt>
      <trkpt lat="31.291442566815554" lon="121.21257643851862">
        <time>2026-04-25T10:49:36Z</time>
      </trkpt>
      <trkpt lat="31.291450608395056" lon="121.21261548504059">
        <time>2026-04-25T10:49:38Z</time>
      </trkpt>
      <trkpt lat="31.29146065026825" lon="121.21265553254828">
        <time>2026-04-25T10:49:40Z</time>
      </trkpt>
      <trkpt lat="31.291476693107906" lon="121.21269858311115">
        <time>2026-04-25T10:49:42Z</time>
      </trkpt>
      <trkpt lat="31.291497732728164" lon="121.21274063197981">
        <time>2026-04-25T10:49:44Z</time>
      </trkpt>
      <trkpt lat="31.291527766374386" lon="121.21278067761466">
        <time>2026-04-25T10:49:46Z</time>
      </trkpt>
      <trkpt lat="31.291563790696614" lon="121.21281471546823">
        <time>2026-04-25T10:49:48Z</time>
      </trkpt>
      <trkpt lat="31.291602809208282" lon="121.21284474822019">
        <time>2026-04-25T10:49:50Z</time>
      </trkpt>
      <trkpt lat="31.29164482077989" lon="121.21286977468219">
        <time>2026-04-25T10:49:52Z</time>
      </trkpt>
      <trkpt lat="31.291688826966944" lon="121.21289079615231">
        <time>2026-04-25T10:49:54Z</time>
      </trkpt>
      <trkpt lat="31.291734822078975" lon="121.21290280664122">
        <time>2026-04-25T10:49:56Z</time>
      </trkpt>
      <trkpt lat="31.291780812631092" lon="121.21291081232769">
        <time>2026-04-25T10:49:58Z</time>
      </trkpt>
      <trkpt lat="31.291825799029716" lon="121.21291481330007">
        <time>2026-04-25T10:50:00Z</time>
      </trkpt>
      <trkpt lat="31.291869786972697" lon="121.21291981555602">
        <time>2026-04-25T10:50:02Z</time>
      </trkpt>
      <trkpt lat="31.291913770360388" lon="121.21292081301505">
        <time>2026-04-25T10:50:04Z</time>
      </trkpt>
      <trkpt lat="31.291956753014265" lon="121.21292080935997">
        <time>2026-04-25T10:50:06Z</time>
      </trkpt>
      <trkpt lat="31.291998734934204" lon="121.21291980459078">
        <time>2026-04-25T10:50:08Z</time>
      </trkpt>
      <trkpt lat="31.29203772148348" lon="121.21292180367386">
        <time>2026-04-25T10:50:10Z</time>
      </trkpt>
      <trkpt lat="31.29207770877008" lon="121.21292480387078">
        <time>2026-04-25T10:50:12Z</time>
      </trkpt>
      <trkpt lat="31.292120695987453" lon="121.21292880501119">
        <time>2026-04-25T10:50:14Z</time>
      </trkpt>
      <trkpt lat="31.292164683941948" lon="121.21293380726469">
        <time>2026-04-25T10:50:16Z</time>
      </trkpt>
      <trkpt lat="31.29220867075905" lon="121.21293780831886">
        <time>2026-04-25T10:50:18Z</time>
      </trkpt>
      <trkpt lat="31.29225065382932" lon="121.21293780474875">
        <time>2026-04-25T10:50:20Z</time>
      </trkpt>
      <trkpt lat="31.292294634956704" lon="121.21293679981011">
        <time>2026-04-25T10:50:22Z</time>
      </trkpt>
      <trkpt lat="31.292337613072682" lon="121.21293279136057">
        <time>2026-04-25T10:50:24Z</time>
      </trkpt>
      <trkpt lat="31.292382592662126" lon="121.21293078513803">
        <time>2026-04-25T10:50:26Z</time>
      </trkpt>
      <trkpt lat="31.292424572323245" lon="121.2129277779715">
        <time>2026-04-25T10:50:28Z</time>
      </trkpt>
      <trkpt lat="31.29246955875026" lon="121.21293177894147">
        <time>2026-04-25T10:50:30Z</time>
      </trkpt>
      <trkpt lat="31.292508547595673" lon="121.21293578042088">
        <time>2026-04-25T10:50:34Z</time>
      </trkpt>
      <trkpt lat="31.292546537983565" lon="121.21294078318316">
        <time>2026-04-25T10:50:36Z</time>
      </trkpt>
      <trkpt lat="31.292581525026346" lon="121.21294178140643">
        <time>2026-04-25T10:50:38Z</time>
      </trkpt>
      <trkpt lat="31.29262051159819" lon="121.21294378048793">
        <time>2026-04-25T10:50:40Z</time>
      </trkpt>
      <trkpt lat="31.29266049776888" lon="121.2129457794843">
        <time>2026-04-25T10:50:42Z</time>
      </trkpt>
      <trkpt lat="31.292702481997537" lon="121.21294677711234">
        <time>2026-04-25T10:50:44Z</time>
      </trkpt>
      <trkpt lat="31.292745462410192" lon="121.21294477106072">
        <time>2026-04-25T10:50:46Z</time>
      </trkpt>
      <trkpt lat="31.292790435187907" lon="121.21293675764834">
        <time>2026-04-25T10:50:48Z</time>
      </trkpt>
      <trkpt lat="31.29283140274133" lon="121.21292273738018">
        <time>2026-04-25T10:50:50Z</time>
      </trkpt>
      <trkpt lat="31.292866367006894" lon="121.21290371161729">
        <time>2026-04-25T10:50:52Z</time>
      </trkpt>
      <trkpt lat="31.292894329518127" lon="121.21288068163521">
        <time>2026-04-25T10:50:54Z</time>
      </trkpt>
      <trkpt lat="31.292919292080157" lon="121.2128566506885">
        <time>2026-04-25T10:50:56Z</time>
      </trkpt>
      <trkpt lat="31.292945234807092" lon="121.21281559919531">
        <time>2026-04-25T10:50:58Z</time>
      </trkpt>
      <trkpt lat="31.292966174920835" lon="121.212770543252">
        <time>2026-04-25T10:51:02Z</time>
      </trkpt>
      <trkpt lat="31.292968091689207" lon="121.21269845628316">
        <time>2026-04-25T10:51:04Z</time>
      </trkpt>
      <trkpt lat="31.29296501834864" lon="121.21263337802421">
        <time>2026-04-25T10:51:06Z</time>
      </trkpt>
      <trkpt lat="31.292961943731" lon="121.21256729840803">
        <time>2026-04-25T10:51:08Z</time>
      </trkpt>
      <trkpt lat="31.292970889487652" lon="121.21252324431198">
        <time>2026-04-25T10:51:10Z</time>
      </trkpt>
      <trkpt lat="31.292974837197676" lon="121.21247919057421">
        <time>2026-04-25T10:51:12Z</time>
      </trkpt>
      <trkpt lat="31.292971785357977" lon="121.21243313493304">
        <time>2026-04-25T10:51:14Z</time>
      </trkpt>
      <trkpt lat="31.292961735115682" lon="121.21238607859655">
        <time>2026-04-25T10:51:16Z</time>
      </trkpt>
      <trkpt lat="31.29294669260198" lon="121.2123440287045">
        <time>2026-04-25T10:51:18Z</time>
      </trkpt>
      <trkpt lat="31.292931650035623" lon="121.21230197875185">
        <time>2026-04-25T10:51:20Z</time>
      </trkpt>
      <trkpt lat="31.29291260902611" lon="121.21225992907864">
        <time>2026-04-25T10:51:22Z</time>
      </trkpt>
      <trkpt lat="31.292893571444996" lon="121.21222088301467">
        <time>2026-04-25T10:51:24Z</time>
      </trkpt>
      <trkpt lat="31.29287054355744" lon="121.21218884580958">
        <time>2026-04-25T10:51:26Z</time>
      </trkpt>
      <trkpt lat="31.292845517606825" lon="121.21215780996481">
        <time>2026-04-25T10:51:28Z</time>
      </trkpt>
      <trkpt lat="31.292810496815868" lon="121.21212777616367">
        <time>2026-04-25T10:51:30Z</time>
      </trkpt>
      <trkpt lat="31.292773481459733" lon="121.21210174741118">
        <time>2026-04-25T10:51:32Z</time>
      </trkpt>
      <trkpt lat="31.29273547230986" lon="121.21208072486105">
        <time>2026-04-25T10:51:34Z</time>
      </trkpt>
      <trkpt lat="31.29270246579532" lon="121.21206370678541">
        <time>2026-04-25T10:51:36Z</time>
      </trkpt>
      <trkpt lat="31.292665465545294" lon="121.21205069395636">
        <time>2026-04-25T10:51:38Z</time>
      </trkpt>
      <trkpt lat="31.292629470717127" lon="121.2120426871835">
        <time>2026-04-25T10:51:40Z</time>
      </trkpt>
      <trkpt lat="31.29258848139919" lon="121.2120376845221">
        <time>2026-04-25T10:51:42Z</time>
      </trkpt>
      <trkpt lat="31.29255349549466" lon="121.2120376874976">
        <time>2026-04-25T10:51:44Z</time>
      </trkpt>
      <trkpt lat="31.292517506496964" lon="121.21203468686953">
        <time>2026-04-25T10:51:46Z</time>
      </trkpt>
      <trkpt lat="31.292484519789404" lon="121.212034689675">
        <time>2026-04-25T10:51:48Z</time>
      </trkpt>
      <trkpt lat="31.29245153075135" lon="121.2120326900212">
        <time>2026-04-25T10:51:50Z</time>
      </trkpt>
      <trkpt lat="31.292413541396893" lon="121.21202868833288">
        <time>2026-04-25T10:51:52Z</time>
      </trkpt>
      <trkpt lat="31.292376548142144" lon="121.21202168286904">
        <time>2026-04-25T10:51:54Z</time>
      </trkpt>
      <trkpt lat="31.292337556859685" lon="121.21201567880381">
        <time>2026-04-25T10:51:56Z</time>
      </trkpt>
      <trkpt lat="31.292298571410065" lon="121.2120146808891">
        <time>2026-04-25T10:51:58Z</time>
      </trkpt>
      <trkpt lat="31.29225758443523" lon="121.21201168068373">
        <time>2026-04-25T10:52:00Z</time>
      </trkpt>
      <trkpt lat="31.292219595086014" lon="121.21200767899249">
        <time>2026-04-25T10:52:02Z</time>
      </trkpt>
      <trkpt lat="31.2921826006676" lon="121.21199967229288">
        <time>2026-04-25T10:52:04Z</time>
      </trkpt>
      <trkpt lat="31.292143616390707" lon="121.2119996756084">
        <time>2026-04-25T10:52:06Z</time>
      </trkpt>
      <trkpt lat="31.29210263758895" lon="121.21200368401678">
        <time>2026-04-25T10:52:08Z</time>
      </trkpt>
      <trkpt lat="31.2920616646211" lon="121.21201269857667">
        <time>2026-04-25T10:52:10Z</time>
      </trkpt>
      <trkpt lat="31.292019685058293" lon="121.21201570583803">
        <time>2026-04-25T10:52:12Z</time>
      </trkpt>
      <trkpt lat="31.29197969535926" lon="121.21201070308699">
        <time>2026-04-25T10:52:14Z</time>
      </trkpt>
      <trkpt lat="31.291938700230897" lon="121.21200069426685">
        <time>2026-04-25T10:52:16Z</time>
      </trkpt>
      <trkpt lat="31.291897703934197" lon="121.21198968421217">
        <time>2026-04-25T10:52:18Z</time>
      </trkpt>
      <trkpt lat="31.291857714236414" lon="121.21198468145668">
        <time>2026-04-25T10:52:20Z</time>
      </trkpt>
      <trkpt lat="31.291819723732527" lon="121.21197967853031">
        <time>2026-04-25T10:52:22Z</time>
      </trkpt>
      <trkpt lat="31.29178273632846" lon="121.2119776792128">
        <time>2026-04-25T10:52:24Z</time>
      </trkpt>
      <trkpt lat="31.291744755166697" lon="121.21198068613768">
        <time>2026-04-25T10:52:26Z</time>
      </trkpt>
      <trkpt lat="31.2917077829401" lon="121.21199170282668">
        <time>2026-04-25T10:52:28Z</time>
      </trkpt>
      <trkpt lat="31.291672823902797" lon="121.21201473410704">
        <time>2026-04-25T10:52:30Z</time>
      </trkpt>
      <trkpt lat="31.291634870724707" lon="121.21204177054192">
        <time>2026-04-25T10:52:32Z</time>
      </trkpt>
      <trkpt lat="31.29159392223184" lon="121.21207181089191">
        <time>2026-04-25T10:52:34Z</time>
      </trkpt>
      <trkpt lat="31.291552973713866" lon="121.21210185121107">
        <time>2026-04-25T10:52:36Z</time>
      </trkpt>
      <trkpt lat="31.291521025024807" lon="121.21213489441287">
        <time>2026-04-25T10:52:38Z</time>
      </trkpt>
      <trkpt lat="31.29149807615486" lon="121.21217094048714">
        <time>2026-04-25T10:52:40Z</time>
      </trkpt>
      <trkpt lat="31.291479124470534" lon="121.21220598495321">
        <time>2026-04-25T10:52:42Z</time>
      </trkpt>
      <trkpt lat="31.29146417113437" lon="121.21224102903722">
        <time>2026-04-25T10:52:44Z</time>
      </trkpt>
      <trkpt lat="31.291451221588066" lon="121.21228007779409">
        <time>2026-04-25T10:52:46Z</time>
      </trkpt>
      <trkpt lat="31.291435275522687" lon="121.21232112919331">
        <time>2026-04-25T10:52:48Z</time>
      </trkpt>
      <trkpt lat="31.29142132975531" lon="121.2123631815831">
        <time>2026-04-25T10:52:50Z</time>
      </trkpt>
      <trkpt lat="31.291409383127338" lon="121.21240523374216">
        <time>2026-04-25T10:52:52Z</time>
      </trkpt>
      <trkpt lat="31.29140643281096" lon="121.21244728507547">
        <time>2026-04-25T10:52:54Z</time>
      </trkpt>
      <trkpt lat="31.2914034835938" lon="121.21249033756197">
        <time>2026-04-25T10:52:56Z</time>
      </trkpt>
      <trkpt lat="31.29140653419904" lon="121.2125353918996">
        <time>2026-04-25T10:52:58Z</time>
      </trkpt>
      <trkpt lat="31.291415582319722" lon="121.21258044565738">
        <time>2026-04-25T10:53:00Z</time>
      </trkpt>
      <trkpt lat="31.291429628359893" lon="121.21262549892026">
        <time>2026-04-25T10:53:02Z</time>
      </trkpt>
      <trkpt lat="31.291443670898897" lon="121.21266754848989">
        <time>2026-04-25T10:53:04Z</time>
      </trkpt>
      <trkpt lat="31.291458712981054" lon="121.21270959791354">
        <time>2026-04-25T10:53:06Z</time>
      </trkpt>
      <trkpt lat="31.291477749961675" lon="121.21274864332126">
        <time>2026-04-25T10:53:08Z</time>
      </trkpt>
      <trkpt lat="31.291504777949466" lon="121.21278268197749">
        <time>2026-04-25T10:53:10Z</time>
      </trkpt>
      <trkpt lat="31.291536800456853" lon="121.2128137165605">
        <time>2026-04-25T10:53:12Z</time>
      </trkpt>
      <trkpt lat="31.291568819511657" lon="121.21284174750495">
        <time>2026-04-25T10:53:14Z</time>
      </trkpt>
      <trkpt lat="31.291601834717724" lon="121.21286677473454">
        <time>2026-04-25T10:53:16Z</time>
      </trkpt>
      <trkpt lat="31.29163784071361" lon="121.21288479328602">
        <time>2026-04-25T10:53:18Z</time>
      </trkpt>
      <trkpt lat="31.291674836038435" lon="121.21289380094255">
        <time>2026-04-25T10:53:20Z</time>
      </trkpt>
      <trkpt lat="31.29171082606677" lon="121.21289780268229">
        <time>2026-04-25T10:53:22Z</time>
      </trkpt>
      <trkpt lat="31.29174881300918" lon="121.21289980185192">
        <time>2026-04-25T10:53:24Z</time>
      </trkpt>
      <trkpt lat="31.291790801757966" lon="121.21290480428048">
        <time>2026-04-25T10:53:26Z</time>
      </trkpt>
      <trkpt lat="31.29183579157635" lon="121.21291180885201">
        <time>2026-04-25T10:53:28Z</time>
      </trkpt>
      <trkpt lat="31.291886778974664" lon="121.21291881291185">
        <time>2026-04-25T10:53:30Z</time>
      </trkpt>
      <trkpt lat="31.291939762150147" lon="121.2129228132031">
        <time>2026-04-25T10:53:32Z</time>
      </trkpt>
      <trkpt lat="31.291994743382386" lon="121.21292581212488">
        <time>2026-04-25T10:53:34Z</time>
      </trkpt>
      <trkpt lat="31.2920457296474" lon="121.21293181498262">
        <time>2026-04-25T10:53:36Z</time>
      </trkpt>
      <trkpt lat="31.2920927209429" lon="121.21294082177445">
        <time>2026-04-25T10:53:38Z</time>
      </trkpt>
      <trkpt lat="31.292137717597697" lon="121.21295383352553">
        <time>2026-04-25T10:53:40Z</time>
      </trkpt>
      <trkpt lat="31.29217971887222" lon="121.21296984911807">
        <time>2026-04-25T10:53:42Z</time>
      </trkpt>
      <trkpt lat="31.292221717866315" lon="121.212983862308">
        <time>2026-04-25T10:53:44Z</time>
      </trkpt>
      <trkpt lat="31.292263708897483" lon="121.21299086711537">
        <time>2026-04-25T10:53:46Z</time>
      </trkpt>
      <trkpt lat="31.2923036927762" lon="121.21299086371528">
        <time>2026-04-25T10:53:48Z</time>
      </trkpt>
      <trkpt lat="31.292341675188315" lon="121.2129888580918">
        <time>2026-04-25T10:53:50Z</time>
      </trkpt>
      <trkpt lat="31.2923756648992" lon="121.21299185879175">
        <time>2026-04-25T10:53:52Z</time>
      </trkpt>
      <trkpt lat="31.292411656079096" lon="121.21299686171436">
        <time>2026-04-25T10:53:54Z</time>
      </trkpt>
      <trkpt lat="31.292452645245312" lon="121.21300186421108">
        <time>2026-04-25T10:53:56Z</time>
      </trkpt>
      <trkpt lat="31.292490627664044" lon="121.21299985858836">
        <time>2026-04-25T10:53:58Z</time>
      </trkpt>
      <trkpt lat="31.292525610155614" lon="121.21299685202405">
        <time>2026-04-25T10:54:00Z</time>
      </trkpt>
      <trkpt lat="31.29255659084806" lon="121.21299084220962">
        <time>2026-04-25T10:54:02Z</time>
      </trkpt>
      <trkpt lat="31.2925915744784" lon="121.21298883684112">
        <time>2026-04-25T10:54:04Z</time>
      </trkpt>
      <trkpt lat="31.292630555362013" lon="121.21298582993563">
        <time>2026-04-25T10:54:06Z</time>
      </trkpt>
      <trkpt lat="31.292668537786888" lon="121.21298382431178">
        <time>2026-04-25T10:54:08Z</time>
      </trkpt>
      <trkpt lat="31.29270650997574" lon="121.21297280791356">
        <time>2026-04-25T10:54:10Z</time>
      </trkpt>
      <trkpt lat="31.292740474667987" lon="121.21295378226868">
        <time>2026-04-25T10:54:12Z</time>
      </trkpt>
      <trkpt lat="31.29276343352804" lon="121.21292574675742">
        <time>2026-04-25T10:54:14Z</time>
      </trkpt>
      <trkpt lat="31.292784396589493" lon="121.21290071498846">
        <time>2026-04-25T10:54:16Z</time>
      </trkpt>
      <trkpt lat="31.29280735768697" lon="121.21287468182716">
        <time>2026-04-25T10:54:18Z</time>
      </trkpt>
      <trkpt lat="31.2928393174252" lon="121.21285065028043">
        <time>2026-04-25T10:54:20Z</time>
      </trkpt>
      <trkpt lat="31.292865270424294" lon="121.21281860960386">
        <time>2026-04-25T10:54:22Z</time>
      </trkpt>
      <trkpt lat="31.292891217676548" lon="121.21278156287265">
        <time>2026-04-25T10:54:24Z</time>
      </trkpt>
      <trkpt lat="31.292914166095287" lon="121.21274451634905">
        <time>2026-04-25T10:54:26Z</time>
      </trkpt>
      <trkpt lat="31.2929421136072" lon="121.21270847055948">
        <time>2026-04-25T10:54:28Z</time>
      </trkpt>
      <trkpt lat="31.29296906148317" lon="121.2126724248101">
        <time>2026-04-25T10:54:30Z</time>
      </trkpt>
      <trkpt lat="31.292994006681965" lon="121.21263337555897">
        <time>2026-04-25T10:54:32Z</time>
      </trkpt>
      <trkpt lat="31.293007952813262" lon="121.21259132355908">
        <time>2026-04-25T10:54:34Z</time>
      </trkpt>
      <trkpt lat="31.2930149040082" lon="121.21255127451718">
        <time>2026-04-25T10:54:36Z</time>
      </trkpt>
      <trkpt lat="31.29301485797087" lon="121.21251122601514">
        <time>2026-04-25T10:54:38Z</time>
      </trkpt>
      <trkpt lat="31.29300980121484" lon="121.21246016452011">
        <time>2026-04-25T10:54:40Z</time>
      </trkpt>
      <trkpt lat="31.293000741371177" lon="121.21240509840825">
        <time>2026-04-25T10:54:44Z</time>
      </trkpt>
      <trkpt lat="31.292989678772145" lon="121.21234702870582">
        <time>2026-04-25T10:54:46Z</time>
      </trkpt>
      <trkpt lat="31.292980632637356" lon="121.21230397702703">
        <time>2026-04-25T10:54:48Z</time>
      </trkpt>
      <trkpt lat="31.292962586590807" lon="121.21225792238417">
        <time>2026-04-25T10:54:50Z</time>
      </trkpt>
      <trkpt lat="31.29293755490113" lon="121.21222188049728">
        <time>2026-04-25T10:54:54Z</time>
      </trkpt>
      <trkpt lat="31.29289853577373" lon="121.21219184710198">
        <time>2026-04-25T10:54:56Z</time>
      </trkpt>
      <trkpt lat="31.292852538026143" lon="121.21217783387033">
        <time>2026-04-25T10:54:58Z</time>
      </trkpt>
      <trkpt lat="31.292795550511574" lon="121.21216882769251">
        <time>2026-04-25T10:55:00Z</time>
      </trkpt>
      <trkpt lat="31.292732564251256" lon="121.2121588207967">
        <time>2026-04-25T10:55:02Z</time>
      </trkpt>
      <trkpt lat="31.29266956869208" lon="121.2121408040909">
        <time>2026-04-25T10:55:04Z</time>
      </trkpt>
      <trkpt lat="31.292603562702336" lon="121.21211277536165">
        <time>2026-04-25T10:55:06Z</time>
      </trkpt>
      <trkpt lat="31.292540556649747" lon="121.21208574757839">
        <time>2026-04-25T10:55:08Z</time>
      </trkpt>
      <trkpt lat="31.292476559137178" lon="121.21206572845568">
        <time>2026-04-25T10:55:10Z</time>
      </trkpt>
      <trkpt lat="31.292412572104933" lon="121.21205472038075">
        <time>2026-04-25T10:55:12Z</time>
      </trkpt>
      <trkpt lat="31.292349591663015" lon="121.21204971959169">
        <time>2026-04-25T10:55:14Z</time>
      </trkpt>
      <trkpt lat="31.292291597552985" lon="121.21203470608263">
        <time>2026-04-25T10:55:16Z</time>
      </trkpt>
      <trkpt lat="31.292232602676602" lon="121.21201869142078">
        <time>2026-04-25T10:55:18Z</time>
      </trkpt>
      <trkpt lat="31.292169614075576" lon="121.21200668201266">
        <time>2026-04-25T10:55:20Z</time>
      </trkpt>
      <trkpt lat="31.29210163682544" lon="121.21200268287113">
        <time>2026-04-25T10:55:22Z</time>
      </trkpt>
      <trkpt lat="31.292036650201023" lon="121.21199167485754">
        <time>2026-04-25T10:55:24Z</time>
      </trkpt>
      <trkpt lat="31.291983643558467" lon="121.21196764980827">
        <time>2026-04-25T10:55:26Z</time>
      </trkpt>
      <trkpt lat="31.291940630530664" lon="121.21194162142376">
        <time>2026-04-25T10:55:28Z</time>
      </trkpt>
      <trkpt lat="31.29190562478006" lon="121.21192460343747">
        <time>2026-04-25T10:55:30Z</time>
      </trkpt>
      <trkpt lat="31.291889633573106" lon="121.21192660726427">
        <time>2026-04-25T10:55:32Z</time>
      </trkpt>
    </trkseg>
  </trk>
</gpx>