<?xml version="1.0" encoding="UTF-8"?>
<gpx xmlns="http://www.topografix.com/GPX/1/1" xmlns:gpxtpx="http://www.garmin.com/xmlschemas/TrackPointExtension/v1" xmlns:xsi="http://www.w3.org/2001/XMLSchema-instance" xsi:schemaLocation="http://www.topografix.com/GPX/1/1 http://www.topografix.com/GPX/1/1/gpx.xsd" version="1.1" creator="gpx.py -- https://github.com/tkrajina/gpxpy">
  <trk>
    <name>gpx from keep</name>
    <type>Walk</type>
    <trkseg>
      <trkpt lat="31.28794496703949" lon="121.21008198749676">
        <ele>-5.0</ele>
        <time>2024-03-15T10:15:27Z</time>
        <extensions>
          <gpxtpx:TrackPointExtension>
            <gpxtpx:hr>105</gpxtpx:hr>
          </gpxtpx:TrackPointExtension>
        </extensions>
      </trkpt>
      <trkpt lat="31.28794496703949" lon="121.21008198749676">
        <ele>-5.0</ele>
        <time>2024-03-15T10:21:10Z</time>
      </trkpt>
      <trkpt lat="31.28793883208802" lon="121.21008183163033">
        <ele>-5.0</ele>
        <time>2024-03-15T10:21:11Z</time>
      </trkpt>
      <trkpt lat="31.287937325919177" lon="121.21008182860879">
        <ele>-5.0</ele>
        <time>2024-03-15T10:21:12Z</time>
      </trkpt>
      <trkpt lat="31.28793348506751" lon="121.21008105632052">
        <ele>-5.0</ele>
        <time>2024-03-15T10:21:13Z</time>
      </trkpt>
      <trkpt lat="31.287930691231576" lon="121.2100801834384">
        <ele>-5.0</ele>
        <time>2024-03-15T10:21:14Z</time>
      </trkpt>
      <trkpt lat="31.287928040980404" lon="121.21007917528875">
        <ele>-5.0</ele>
        <time>2024-03-15T10:21:15Z</time>
      </trkpt>
      <trkpt lat="31.287924657044027" lon="121.21007747243365">
        <ele>-5.0</ele>
        <time>2024-03-15T10:21:16Z</time>
      </trkpt>
      <trkpt lat="31.287921170495192" lon="121.2100756056434">
        <ele>-5.0</ele>
        <time>2024-03-15T10:21:17Z</time>
      </trkpt>
      <trkpt lat="31.287917342402082" lon="121.21007301215964">
        <ele>-5.0</ele>
        <time>2024-03-15T10:21:18Z</time>
      </trkpt>
      <trkpt lat="31.28791440595345" lon="121.21007077812888">
        <ele>-5.0</ele>
        <time>2024-03-15T10:21:19Z</time>
      </trkpt>
      <trkpt lat="31.287910279023723" lon="121.21006784786053">
        <ele>-5.0</ele>
        <time>2024-03-15T10:21:20Z</time>
      </trkpt>
      <trkpt lat="31.287905271946922" lon="121.21006470228306">
        <ele>-5.0</ele>
        <time>2024-03-15T10:21:21Z</time>
      </trkpt>
      <trkpt lat="31.28790011350955" lon="121.21006183654406">
        <ele>-5.0</ele>
        <time>2024-03-15T10:21:22Z</time>
      </trkpt>
      <trkpt lat="31.287896396504152" lon="121.210060097597">
        <ele>-5.0</ele>
        <time>2024-03-15T10:21:23Z</time>
      </trkpt>
      <trkpt lat="31.287892640061035" lon="121.21005821963429">
        <ele>-5.0</ele>
        <time>2024-03-15T10:21:24Z</time>
      </trkpt>
      <trkpt lat="31.28788922902357" lon="121.2100564830146">
        <ele>-5.0</ele>
        <time>2024-03-15T10:21:25Z</time>
      </trkpt>
      <trkpt lat="31.287885022430757" lon="121.21005396193343">
        <ele>-5.0</ele>
        <time>2024-03-15T10:21:26Z</time>
      </trkpt>
      <trkpt lat="31.28788279740788" lon="121.21005286014775">
        <ele>-5.0</ele>
        <time>2024-03-15T10:21:27Z</time>
      </trkpt>
      <trkpt lat="31.28788124777176" lon="121.2100519110988">
        <ele>-5.0</ele>
        <time>2024-03-15T10:21:28Z</time>
      </trkpt>
      <trkpt lat="31.287880368518472" lon="121.21005073871787">
        <ele>-5.0</ele>
        <time>2024-03-15T10:21:29Z</time>
      </trkpt>
      <trkpt lat="31.28787866937339" lon="121.21004758232573">
        <ele>-5.0</ele>
        <time>2024-03-15T10:21:30Z</time>
      </trkpt>
      <trkpt lat="31.28787661174268" lon="121.21004317659435">
        <ele>-5.0</ele>
        <time>2024-03-15T10:21:31Z</time>
      </trkpt>
      <trkpt lat="31.287874507990328" lon="121.21003830399533">
        <ele>-5.0</ele>
        <time>2024-03-15T10:21:32Z</time>
      </trkpt>
      <trkpt lat="31.287872747826434" lon="121.2100348688952">
        <ele>-5.0</ele>
        <time>2024-03-15T10:21:33Z</time>
      </trkpt>
      <trkpt lat="31.28787158428376" lon="121.21003265289781">
        <ele>-5.0</ele>
        <time>2024-03-15T10:21:34Z</time>
      </trkpt>
      <trkpt lat="31.28787007229426" lon="121.2100310177995">
        <ele>-5.0</ele>
        <time>2024-03-15T10:21:35Z</time>
      </trkpt>
      <trkpt lat="31.287867755006065" lon="121.21002787112607">
        <ele>-5.0</ele>
        <time>2024-03-15T10:21:36Z</time>
      </trkpt>
      <trkpt lat="31.287864876282242" lon="121.21002278735028">
        <ele>-5.0</ele>
        <time>2024-03-15T10:21:37Z</time>
      </trkpt>
      <trkpt lat="31.28786255377392" lon="121.21001775299582">
        <ele>-5.0</ele>
        <time>2024-03-15T10:21:38Z</time>
      </trkpt>
      <trkpt lat="31.287860609433224" lon="121.21001222569322">
        <ele>-5.0</ele>
        <time>2024-03-15T10:21:39Z</time>
      </trkpt>
      <trkpt lat="31.287859575823667" lon="121.21000875843337">
        <ele>-5.0</ele>
        <time>2024-03-15T10:21:40Z</time>
      </trkpt>
      <trkpt lat="31.28785900290311" lon="121.21000579503327">
        <ele>-5.0</ele>
        <time>2024-03-15T10:21:41Z</time>
      </trkpt>
      <trkpt lat="31.287859061853528" lon="121.21000414137191">
        <ele>-5.0</ele>
        <time>2024-03-15T10:21:42Z</time>
      </trkpt>
      <trkpt lat="31.28785930159635" lon="121.21000145007669">
        <ele>-5.0</ele>
        <time>2024-03-15T10:21:43Z</time>
      </trkpt>
      <trkpt lat="31.287860008628808" lon="121.20999922177937">
        <ele>-5.0</ele>
        <time>2024-03-15T10:21:44Z</time>
      </trkpt>
      <trkpt lat="31.287860630316498" lon="121.20999421504415">
        <ele>-5.0</ele>
        <time>2024-03-15T10:21:45Z</time>
      </trkpt>
      <trkpt lat="31.287861320201266" lon="121.20999096375864">
        <ele>-5.0</ele>
        <time>2024-03-15T10:21:46Z</time>
      </trkpt>
      <trkpt lat="31.28786155070231" lon="121.2099875328143">
        <ele>-5.0</ele>
        <time>2024-03-15T10:21:47Z</time>
      </trkpt>
      <trkpt lat="31.28786166707978" lon="121.2099860054336">
        <ele>-5.0</ele>
        <time>2024-03-15T10:21:48Z</time>
      </trkpt>
      <trkpt lat="31.28786143740932" lon="121.20998404148897">
        <ele>-5.0</ele>
        <time>2024-03-15T10:21:49Z</time>
      </trkpt>
      <trkpt lat="31.287861544596538" lon="121.20998243730665">
        <ele>-5.0</ele>
        <time>2024-03-15T10:21:50Z</time>
      </trkpt>
      <trkpt lat="31.28786202828054" lon="121.20998160804471">
        <ele>-5.0</ele>
        <time>2024-03-15T10:21:51Z</time>
      </trkpt>
      <trkpt lat="31.28786325176516" lon="121.20997907038253">
        <ele>-5.0</ele>
        <time>2024-03-15T10:21:52Z</time>
      </trkpt>
      <trkpt lat="31.287864756745833" lon="121.20997544323778">
        <ele>-5.0</ele>
        <time>2024-03-15T10:21:53Z</time>
      </trkpt>
      <trkpt lat="31.287865714597043" lon="121.20997334815856">
        <ele>-5.0</ele>
        <time>2024-03-15T10:21:54Z</time>
      </trkpt>
      <trkpt lat="31.28786622981954" lon="121.20997172234422">
        <ele>-5.0</ele>
        <time>2024-03-15T10:21:55Z</time>
      </trkpt>
    </trkseg>
  </trk>
</gpx>