<?xml version="1.0" encoding="UTF-8"?>
<gpx xmlns="http://www.topografix.com/GPX/1/1" xmlns:gpxtpx="http://www.garmin.com/xmlschemas/TrackPointExtension/v1" xmlns:xsi="http://www.w3.org/2001/XMLSchema-instance" xsi:schemaLocation="http://www.topografix.com/GPX/1/1 http://www.topografix.com/GPX/1/1/gpx.xsd" version="1.1" creator="gpx.py -- https://github.com/tkrajina/gpxpy">
  <trk>
    <name>gpx from keep</name>
    <type>Walk</type>
    <trkseg>
      <trkpt lat="31.288987061252726" lon="121.21385559481669">
        <ele>14.9</ele>
        <time>2024-03-30T14:38:08Z</time>
        <extensions>
          <gpxtpx:TrackPointExtension>
            <gpxtpx:hr>116</gpxtpx:hr>
          </gpxtpx:TrackPointExtension>
        </extensions>
      </trkpt>
      <trkpt lat="31.289011345754407" lon="121.21384667094509">
        <ele>14.9</ele>
        <time>2024-03-30T14:38:09Z</time>
        <extensions>
          <gpxtpx:TrackPointExtension>
            <gpxtpx:hr>116</gpxtpx:hr>
          </gpxtpx:TrackPointExtension>
        </extensions>
      </trkpt>
      <trkpt lat="31.289015896647363" lon="121.21384888248382">
        <ele>14.9</ele>
        <time>2024-03-30T14:38:10Z</time>
        <extensions>
          <gpxtpx:TrackPointExtension>
            <gpxtpx:hr>116</gpxtpx:hr>
          </gpxtpx:TrackPointExtension>
        </extensions>
      </trkpt>
      <trkpt lat="31.289026166412306" lon="121.21385498811382">
        <ele>17.2</ele>
        <time>2024-03-30T14:38:11Z</time>
        <extensions>
          <gpxtpx:TrackPointExtension>
            <gpxtpx:hr>118</gpxtpx:hr>
          </gpxtpx:TrackPointExtension>
        </extensions>
      </trkpt>
      <trkpt lat="31.289040730037286" lon="121.21386559707427">
        <ele>17.2</ele>
        <time>2024-03-30T14:38:12Z</time>
        <extensions>
          <gpxtpx:TrackPointExtension>
            <gpxtpx:hr>118</gpxtpx:hr>
          </gpxtpx:TrackPointExtension>
        </extensions>
      </trkpt>
      <trkpt lat="31.289071154538657" lon="121.21387321369401">
        <ele>17.2</ele>
        <time>2024-03-30T14:38:13Z</time>
        <extensions>
          <gpxtpx:TrackPointExtension>
            <gpxtpx:hr>118</gpxtpx:hr>
          </gpxtpx:TrackPointExtension>
        </extensions>
      </trkpt>
      <trkpt lat="31.289112643599225" lon="121.2138758549678">
        <ele>17.2</ele>
        <time>2024-03-30T14:38:14Z</time>
        <extensions>
          <gpxtpx:TrackPointExtension>
            <gpxtpx:hr>118</gpxtpx:hr>
          </gpxtpx:TrackPointExtension>
        </extensions>
      </trkpt>
      <trkpt lat="31.2891535793299" lon="121.21387742265482">
        <ele>17.2</ele>
        <time>2024-03-30T14:38:15Z</time>
        <extensions>
          <gpxtpx:TrackPointExtension>
            <gpxtpx:hr>118</gpxtpx:hr>
          </gpxtpx:TrackPointExtension>
        </extensions>
      </trkpt>
      <trkpt lat="31.289182167079456" lon="121.2138778027463">
        <ele>17.2</ele>
        <time>2024-03-30T14:38:16Z</time>
        <extensions>
          <gpxtpx:TrackPointExtension>
            <gpxtpx:hr>119</gpxtpx:hr>
          </gpxtpx:TrackPointExtension>
        </extensions>
      </trkpt>
      <trkpt lat="31.289203103986356" lon="121.21387443190156">
        <ele>17.2</ele>
        <time>2024-03-30T14:38:18Z</time>
        <extensions>
          <gpxtpx:TrackPointExtension>
            <gpxtpx:hr>119</gpxtpx:hr>
          </gpxtpx:TrackPointExtension>
        </extensions>
      </trkpt>
      <trkpt lat="31.28921470689736" lon="121.21387125073868">
        <ele>17.2</ele>
        <time>2024-03-30T14:38:19Z</time>
        <extensions>
          <gpxtpx:TrackPointExtension>
            <gpxtpx:hr>119</gpxtpx:hr>
          </gpxtpx:TrackPointExtension>
        </extensions>
      </trkpt>
      <trkpt lat="31.2892216476085" lon="121.21386840636829">
        <ele>17.2</ele>
        <time>2024-03-30T14:38:20Z</time>
        <extensions>
          <gpxtpx:TrackPointExtension>
            <gpxtpx:hr>119</gpxtpx:hr>
          </gpxtpx:TrackPointExtension>
        </extensions>
      </trkpt>
      <trkpt lat="31.289220328542" lon="121.21387025718491">
        <ele>19.3</ele>
        <time>2024-03-30T14:38:21Z</time>
        <extensions>
          <gpxtpx:TrackPointExtension>
            <gpxtpx:hr>119</gpxtpx:hr>
          </gpxtpx:TrackPointExtension>
        </extensions>
      </trkpt>
      <trkpt lat="31.289212896468687" lon="121.21387455323915">
        <ele>19.3</ele>
        <time>2024-03-30T14:38:22Z</time>
        <extensions>
          <gpxtpx:TrackPointExtension>
            <gpxtpx:hr>119</gpxtpx:hr>
          </gpxtpx:TrackPointExtension>
        </extensions>
      </trkpt>
      <trkpt lat="31.28919724709402" lon="121.21388462702332">
        <ele>19.3</ele>
        <time>2024-03-30T14:38:23Z</time>
        <extensions>
          <gpxtpx:TrackPointExtension>
            <gpxtpx:hr>119</gpxtpx:hr>
          </gpxtpx:TrackPointExtension>
        </extensions>
      </trkpt>
      <trkpt lat="31.289174542697694" lon="121.2138996623039">
        <ele>19.3</ele>
        <time>2024-03-30T14:38:24Z</time>
        <extensions>
          <gpxtpx:TrackPointExtension>
            <gpxtpx:hr>119</gpxtpx:hr>
          </gpxtpx:TrackPointExtension>
        </extensions>
      </trkpt>
      <trkpt lat="31.289139911934864" lon="121.2139236672939">
        <ele>19.3</ele>
        <time>2024-03-30T14:38:26Z</time>
        <extensions>
          <gpxtpx:TrackPointExtension>
            <gpxtpx:hr>117</gpxtpx:hr>
          </gpxtpx:TrackPointExtension>
        </extensions>
      </trkpt>
      <trkpt lat="31.289100484588644" lon="121.21395105031297">
        <ele>19.3</ele>
        <time>2024-03-30T14:38:27Z</time>
        <extensions>
          <gpxtpx:TrackPointExtension>
            <gpxtpx:hr>117</gpxtpx:hr>
          </gpxtpx:TrackPointExtension>
        </extensions>
      </trkpt>
      <trkpt lat="31.289056838941185" lon="121.2139818050552">
        <ele>19.3</ele>
        <time>2024-03-30T14:38:28Z</time>
        <extensions>
          <gpxtpx:TrackPointExtension>
            <gpxtpx:hr>117</gpxtpx:hr>
          </gpxtpx:TrackPointExtension>
        </extensions>
      </trkpt>
      <trkpt lat="31.28901806539722" lon="121.21400863799889">
        <ele>19.3</ele>
        <time>2024-03-30T14:38:29Z</time>
        <extensions>
          <gpxtpx:TrackPointExtension>
            <gpxtpx:hr>117</gpxtpx:hr>
          </gpxtpx:TrackPointExtension>
        </extensions>
      </trkpt>
      <trkpt lat="31.28897886188067" lon="121.21403000531802">
        <ele>19.3</ele>
        <time>2024-03-30T14:38:30Z</time>
        <extensions>
          <gpxtpx:TrackPointExtension>
            <gpxtpx:hr>117</gpxtpx:hr>
          </gpxtpx:TrackPointExtension>
        </extensions>
      </trkpt>
      <trkpt lat="31.28893799720546" lon="121.21404286031887">
        <ele>21.1</ele>
        <time>2024-03-30T14:38:31Z</time>
        <extensions>
          <gpxtpx:TrackPointExtension>
            <gpxtpx:hr>118</gpxtpx:hr>
          </gpxtpx:TrackPointExtension>
        </extensions>
      </trkpt>
      <trkpt lat="31.288889006773537" lon="121.21405032551887">
        <ele>21.1</ele>
        <time>2024-03-30T14:38:32Z</time>
        <extensions>
          <gpxtpx:TrackPointExtension>
            <gpxtpx:hr>118</gpxtpx:hr>
          </gpxtpx:TrackPointExtension>
        </extensions>
      </trkpt>
      <trkpt lat="31.28883672279859" lon="121.21405595416343">
        <ele>21.1</ele>
        <time>2024-03-30T14:38:33Z</time>
        <extensions>
          <gpxtpx:TrackPointExtension>
            <gpxtpx:hr>118</gpxtpx:hr>
          </gpxtpx:TrackPointExtension>
        </extensions>
      </trkpt>
      <trkpt lat="31.288796125990576" lon="121.21406399200593">
        <ele>21.1</ele>
        <time>2024-03-30T14:38:34Z</time>
        <extensions>
          <gpxtpx:TrackPointExtension>
            <gpxtpx:hr>118</gpxtpx:hr>
          </gpxtpx:TrackPointExtension>
        </extensions>
      </trkpt>
      <trkpt lat="31.288779120550423" lon="121.21407531619613">
        <ele>21.1</ele>
        <time>2024-03-30T14:38:35Z</time>
        <extensions>
          <gpxtpx:TrackPointExtension>
            <gpxtpx:hr>118</gpxtpx:hr>
          </gpxtpx:TrackPointExtension>
        </extensions>
      </trkpt>
      <trkpt lat="31.288782842691898" lon="121.21408643956892">
        <ele>21.1</ele>
        <time>2024-03-30T14:38:36Z</time>
        <extensions>
          <gpxtpx:TrackPointExtension>
            <gpxtpx:hr>119</gpxtpx:hr>
          </gpxtpx:TrackPointExtension>
        </extensions>
      </trkpt>
      <trkpt lat="31.28879434870296" lon="121.21409503889862">
        <ele>21.1</ele>
        <time>2024-03-30T14:38:37Z</time>
        <extensions>
          <gpxtpx:TrackPointExtension>
            <gpxtpx:hr>119</gpxtpx:hr>
          </gpxtpx:TrackPointExtension>
        </extensions>
      </trkpt>
      <trkpt lat="31.288803332564385" lon="121.2140994479971">
        <ele>21.1</ele>
        <time>2024-03-30T14:38:39Z</time>
        <extensions>
          <gpxtpx:TrackPointExtension>
            <gpxtpx:hr>119</gpxtpx:hr>
          </gpxtpx:TrackPointExtension>
        </extensions>
      </trkpt>
      <trkpt lat="31.288805512696268" lon="121.21410069190594">
        <ele>21.1</ele>
        <time>2024-03-30T14:38:40Z</time>
        <extensions>
          <gpxtpx:TrackPointExtension>
            <gpxtpx:hr>119</gpxtpx:hr>
          </gpxtpx:TrackPointExtension>
        </extensions>
      </trkpt>
      <trkpt lat="31.288802389384095" lon="121.21410128494605">
        <ele>22.5</ele>
        <time>2024-03-30T14:38:41Z</time>
        <extensions>
          <gpxtpx:TrackPointExtension>
            <gpxtpx:hr>119</gpxtpx:hr>
          </gpxtpx:TrackPointExtension>
        </extensions>
      </trkpt>
      <trkpt lat="31.28879720286486" lon="121.21410179185447">
        <ele>22.5</ele>
        <time>2024-03-30T14:38:42Z</time>
        <extensions>
          <gpxtpx:TrackPointExtension>
            <gpxtpx:hr>119</gpxtpx:hr>
          </gpxtpx:TrackPointExtension>
        </extensions>
      </trkpt>
      <trkpt lat="31.288794085020808" lon="121.21410443161223">
        <ele>22.5</ele>
        <time>2024-03-30T14:38:43Z</time>
        <extensions>
          <gpxtpx:TrackPointExtension>
            <gpxtpx:hr>119</gpxtpx:hr>
          </gpxtpx:TrackPointExtension>
        </extensions>
      </trkpt>
      <trkpt lat="31.288790896771843" lon="121.21410844057216">
        <ele>22.5</ele>
        <time>2024-03-30T14:38:44Z</time>
        <extensions>
          <gpxtpx:TrackPointExtension>
            <gpxtpx:hr>119</gpxtpx:hr>
          </gpxtpx:TrackPointExtension>
        </extensions>
      </trkpt>
      <trkpt lat="31.288788616577126" lon="121.21411326127999">
        <ele>22.5</ele>
        <time>2024-03-30T14:38:45Z</time>
        <extensions>
          <gpxtpx:TrackPointExtension>
            <gpxtpx:hr>119</gpxtpx:hr>
          </gpxtpx:TrackPointExtension>
        </extensions>
      </trkpt>
      <trkpt lat="31.28878645787339" lon="121.21411913039923">
        <ele>22.5</ele>
        <time>2024-03-30T14:38:46Z</time>
        <extensions>
          <gpxtpx:TrackPointExtension>
            <gpxtpx:hr>117</gpxtpx:hr>
          </gpxtpx:TrackPointExtension>
        </extensions>
      </trkpt>
      <trkpt lat="31.288785046278857" lon="121.21412478710174">
        <ele>22.5</ele>
        <time>2024-03-30T14:38:47Z</time>
        <extensions>
          <gpxtpx:TrackPointExtension>
            <gpxtpx:hr>117</gpxtpx:hr>
          </gpxtpx:TrackPointExtension>
        </extensions>
      </trkpt>
      <trkpt lat="31.28878424667999" lon="121.21412917515002">
        <ele>22.5</ele>
        <time>2024-03-30T14:38:48Z</time>
        <extensions>
          <gpxtpx:TrackPointExtension>
            <gpxtpx:hr>117</gpxtpx:hr>
          </gpxtpx:TrackPointExtension>
        </extensions>
      </trkpt>
      <trkpt lat="31.288783063043375" lon="121.21413435996438">
        <ele>22.5</ele>
        <time>2024-03-30T14:38:49Z</time>
        <extensions>
          <gpxtpx:TrackPointExtension>
            <gpxtpx:hr>117</gpxtpx:hr>
          </gpxtpx:TrackPointExtension>
        </extensions>
      </trkpt>
      <trkpt lat="31.288781140664437" lon="121.21414021930504">
        <ele>22.5</ele>
        <time>2024-03-30T14:38:50Z</time>
        <extensions>
          <gpxtpx:TrackPointExtension>
            <gpxtpx:hr>117</gpxtpx:hr>
          </gpxtpx:TrackPointExtension>
        </extensions>
      </trkpt>
      <trkpt lat="31.28877790531033" lon="121.2141482737051">
        <ele>22.5</ele>
        <time>2024-03-30T14:38:51Z</time>
        <extensions>
          <gpxtpx:TrackPointExtension>
            <gpxtpx:hr>117</gpxtpx:hr>
          </gpxtpx:TrackPointExtension>
        </extensions>
      </trkpt>
      <trkpt lat="31.28877439255582" lon="121.21415696449095">
        <ele>22.5</ele>
        <time>2024-03-30T14:38:52Z</time>
        <extensions>
          <gpxtpx:TrackPointExtension>
            <gpxtpx:hr>117</gpxtpx:hr>
          </gpxtpx:TrackPointExtension>
        </extensions>
      </trkpt>
      <trkpt lat="31.288771680976353" lon="121.21416700621636">
        <ele>22.5</ele>
        <time>2024-03-30T14:38:53Z</time>
        <extensions>
          <gpxtpx:TrackPointExtension>
            <gpxtpx:hr>117</gpxtpx:hr>
          </gpxtpx:TrackPointExtension>
        </extensions>
      </trkpt>
      <trkpt lat="31.288769818323907" lon="121.21417843774138">
        <ele>22.5</ele>
        <time>2024-03-30T14:38:54Z</time>
        <extensions>
          <gpxtpx:TrackPointExtension>
            <gpxtpx:hr>117</gpxtpx:hr>
          </gpxtpx:TrackPointExtension>
        </extensions>
      </trkpt>
      <trkpt lat="31.28876811079125" lon="121.21419127672804">
        <ele>22.5</ele>
        <time>2024-03-30T14:38:55Z</time>
        <extensions>
          <gpxtpx:TrackPointExtension>
            <gpxtpx:hr>117</gpxtpx:hr>
          </gpxtpx:TrackPointExtension>
        </extensions>
      </trkpt>
      <trkpt lat="31.28876671724133" lon="121.21420373239647">
        <ele>22.5</ele>
        <time>2024-03-30T14:38:56Z</time>
        <extensions>
          <gpxtpx:TrackPointExtension>
            <gpxtpx:hr>116</gpxtpx:hr>
          </gpxtpx:TrackPointExtension>
        </extensions>
      </trkpt>
      <trkpt lat="31.288765011231373" lon="121.21421750175429">
        <ele>22.5</ele>
        <time>2024-03-30T14:38:57Z</time>
        <extensions>
          <gpxtpx:TrackPointExtension>
            <gpxtpx:hr>116</gpxtpx:hr>
          </gpxtpx:TrackPointExtension>
        </extensions>
      </trkpt>
      <trkpt lat="31.288763909040103" lon="121.2142313228971">
        <ele>22.5</ele>
        <time>2024-03-30T14:38:58Z</time>
        <extensions>
          <gpxtpx:TrackPointExtension>
            <gpxtpx:hr>116</gpxtpx:hr>
          </gpxtpx:TrackPointExtension>
        </extensions>
      </trkpt>
      <trkpt lat="31.288762642039494" lon="121.21424642390372">
        <ele>22.5</ele>
        <time>2024-03-30T14:38:59Z</time>
        <extensions>
          <gpxtpx:TrackPointExtension>
            <gpxtpx:hr>116</gpxtpx:hr>
          </gpxtpx:TrackPointExtension>
        </extensions>
      </trkpt>
      <trkpt lat="31.288761803398124" lon="121.21426088751458">
        <ele>22.5</ele>
        <time>2024-03-30T14:39:00Z</time>
        <extensions>
          <gpxtpx:TrackPointExtension>
            <gpxtpx:hr>116</gpxtpx:hr>
          </gpxtpx:TrackPointExtension>
        </extensions>
      </trkpt>
      <trkpt lat="31.288761140188335" lon="121.21427501323998">
        <ele>22.5</ele>
        <time>2024-03-30T14:39:01Z</time>
        <extensions>
          <gpxtpx:TrackPointExtension>
            <gpxtpx:hr>116</gpxtpx:hr>
          </gpxtpx:TrackPointExtension>
        </extensions>
      </trkpt>
      <trkpt lat="31.28876043452891" lon="121.21428793787753">
        <ele>22.5</ele>
        <time>2024-03-30T14:39:02Z</time>
        <extensions>
          <gpxtpx:TrackPointExtension>
            <gpxtpx:hr>116</gpxtpx:hr>
          </gpxtpx:TrackPointExtension>
        </extensions>
      </trkpt>
      <trkpt lat="31.288759279221836" lon="121.21429895107983">
        <ele>22.5</ele>
        <time>2024-03-30T14:39:03Z</time>
        <extensions>
          <gpxtpx:TrackPointExtension>
            <gpxtpx:hr>116</gpxtpx:hr>
          </gpxtpx:TrackPointExtension>
        </extensions>
      </trkpt>
      <trkpt lat="31.288758097130803" lon="121.21430787424316">
        <ele>22.5</ele>
        <time>2024-03-30T14:39:04Z</time>
        <extensions>
          <gpxtpx:TrackPointExtension>
            <gpxtpx:hr>116</gpxtpx:hr>
          </gpxtpx:TrackPointExtension>
        </extensions>
      </trkpt>
      <trkpt lat="31.288756799244293" lon="121.21431570730815">
        <ele>22.5</ele>
        <time>2024-03-30T14:39:05Z</time>
        <extensions>
          <gpxtpx:TrackPointExtension>
            <gpxtpx:hr>116</gpxtpx:hr>
          </gpxtpx:TrackPointExtension>
        </extensions>
      </trkpt>
      <trkpt lat="31.288755742385007" lon="121.21432130920198">
        <ele>22.5</ele>
        <time>2024-03-30T14:39:06Z</time>
        <extensions>
          <gpxtpx:TrackPointExtension>
            <gpxtpx:hr>120</gpxtpx:hr>
          </gpxtpx:TrackPointExtension>
        </extensions>
      </trkpt>
      <trkpt lat="31.28875441099697" lon="121.21432739273031">
        <ele>22.5</ele>
        <time>2024-03-30T14:39:07Z</time>
        <extensions>
          <gpxtpx:TrackPointExtension>
            <gpxtpx:hr>120</gpxtpx:hr>
          </gpxtpx:TrackPointExtension>
        </extensions>
      </trkpt>
      <trkpt lat="31.28875314246093" lon="121.21433368288534">
        <ele>22.5</ele>
        <time>2024-03-30T14:39:08Z</time>
        <extensions>
          <gpxtpx:TrackPointExtension>
            <gpxtpx:hr>120</gpxtpx:hr>
          </gpxtpx:TrackPointExtension>
        </extensions>
      </trkpt>
      <trkpt lat="31.28875217513912" lon="121.2143419611662">
        <ele>22.5</ele>
        <time>2024-03-30T14:39:09Z</time>
        <extensions>
          <gpxtpx:TrackPointExtension>
            <gpxtpx:hr>120</gpxtpx:hr>
          </gpxtpx:TrackPointExtension>
        </extensions>
      </trkpt>
      <trkpt lat="31.288752164727583" lon="121.21435062408447">
        <ele>22.5</ele>
        <time>2024-03-30T14:39:10Z</time>
        <extensions>
          <gpxtpx:TrackPointExtension>
            <gpxtpx:hr>120</gpxtpx:hr>
          </gpxtpx:TrackPointExtension>
        </extensions>
      </trkpt>
      <trkpt lat="31.28875341791739" lon="121.21436023316183">
        <ele>22.5</ele>
        <time>2024-03-30T14:39:11Z</time>
        <extensions>
          <gpxtpx:TrackPointExtension>
            <gpxtpx:hr>130</gpxtpx:hr>
          </gpxtpx:TrackPointExtension>
        </extensions>
      </trkpt>
      <trkpt lat="31.28875576115402" lon="121.21437136175949">
        <ele>22.5</ele>
        <time>2024-03-30T14:39:12Z</time>
        <extensions>
          <gpxtpx:TrackPointExtension>
            <gpxtpx:hr>130</gpxtpx:hr>
          </gpxtpx:TrackPointExtension>
        </extensions>
      </trkpt>
      <trkpt lat="31.288759026711393" lon="121.21438360826886">
        <ele>22.5</ele>
        <time>2024-03-30T14:39:13Z</time>
        <extensions>
          <gpxtpx:TrackPointExtension>
            <gpxtpx:hr>130</gpxtpx:hr>
          </gpxtpx:TrackPointExtension>
        </extensions>
      </trkpt>
      <trkpt lat="31.28876326942421" lon="121.21439587382842">
        <ele>22.5</ele>
        <time>2024-03-30T14:39:14Z</time>
        <extensions>
          <gpxtpx:TrackPointExtension>
            <gpxtpx:hr>130</gpxtpx:hr>
          </gpxtpx:TrackPointExtension>
        </extensions>
      </trkpt>
      <trkpt lat="31.288767661441316" lon="121.2144110950269">
        <ele>22.5</ele>
        <time>2024-03-30T14:39:16Z</time>
        <extensions>
          <gpxtpx:TrackPointExtension>
            <gpxtpx:hr>131</gpxtpx:hr>
          </gpxtpx:TrackPointExtension>
        </extensions>
      </trkpt>
      <trkpt lat="31.28877091907443" lon="121.21443053990184">
        <ele>22.5</ele>
        <time>2024-03-30T14:39:18Z</time>
        <extensions>
          <gpxtpx:TrackPointExtension>
            <gpxtpx:hr>131</gpxtpx:hr>
          </gpxtpx:TrackPointExtension>
        </extensions>
      </trkpt>
      <trkpt lat="31.28877158380911" lon="121.21445351806956">
        <ele>22.5</ele>
        <time>2024-03-30T14:39:19Z</time>
        <extensions>
          <gpxtpx:TrackPointExtension>
            <gpxtpx:hr>131</gpxtpx:hr>
          </gpxtpx:TrackPointExtension>
        </extensions>
      </trkpt>
      <trkpt lat="31.28876998334755" lon="121.21447441630517">
        <ele>22.5</ele>
        <time>2024-03-30T14:39:20Z</time>
        <extensions>
          <gpxtpx:TrackPointExtension>
            <gpxtpx:hr>131</gpxtpx:hr>
          </gpxtpx:TrackPointExtension>
        </extensions>
      </trkpt>
      <trkpt lat="31.28876676739418" lon="121.21449277107138">
        <ele>22.7</ele>
        <time>2024-03-30T14:39:21Z</time>
        <extensions>
          <gpxtpx:TrackPointExtension>
            <gpxtpx:hr>131</gpxtpx:hr>
          </gpxtpx:TrackPointExtension>
        </extensions>
      </trkpt>
      <trkpt lat="31.288763158727154" lon="121.21450922578177">
        <ele>22.7</ele>
        <time>2024-03-30T14:39:22Z</time>
        <extensions>
          <gpxtpx:TrackPointExtension>
            <gpxtpx:hr>131</gpxtpx:hr>
          </gpxtpx:TrackPointExtension>
        </extensions>
      </trkpt>
      <trkpt lat="31.28875951086909" lon="121.21452373466757">
        <ele>22.7</ele>
        <time>2024-03-30T14:39:23Z</time>
        <extensions>
          <gpxtpx:TrackPointExtension>
            <gpxtpx:hr>131</gpxtpx:hr>
          </gpxtpx:TrackPointExtension>
        </extensions>
      </trkpt>
      <trkpt lat="31.288755364803844" lon="121.21453568315698">
        <ele>22.7</ele>
        <time>2024-03-30T14:39:24Z</time>
        <extensions>
          <gpxtpx:TrackPointExtension>
            <gpxtpx:hr>131</gpxtpx:hr>
          </gpxtpx:TrackPointExtension>
        </extensions>
      </trkpt>
      <trkpt lat="31.288751327088697" lon="121.21454371307807">
        <ele>22.7</ele>
        <time>2024-03-30T14:39:25Z</time>
        <extensions>
          <gpxtpx:TrackPointExtension>
            <gpxtpx:hr>131</gpxtpx:hr>
          </gpxtpx:TrackPointExtension>
        </extensions>
      </trkpt>
      <trkpt lat="31.288747941588394" lon="121.21454854215364">
        <ele>22.7</ele>
        <time>2024-03-30T14:39:26Z</time>
        <extensions>
          <gpxtpx:TrackPointExtension>
            <gpxtpx:hr>130</gpxtpx:hr>
          </gpxtpx:TrackPointExtension>
        </extensions>
      </trkpt>
      <trkpt lat="31.28874567607211" lon="121.21455045707654">
        <ele>22.7</ele>
        <time>2024-03-30T14:39:27Z</time>
        <extensions>
          <gpxtpx:TrackPointExtension>
            <gpxtpx:hr>130</gpxtpx:hr>
          </gpxtpx:TrackPointExtension>
        </extensions>
      </trkpt>
      <trkpt lat="31.288742987221116" lon="121.2145518924208">
        <ele>22.7</ele>
        <time>2024-03-30T14:39:28Z</time>
        <extensions>
          <gpxtpx:TrackPointExtension>
            <gpxtpx:hr>130</gpxtpx:hr>
          </gpxtpx:TrackPointExtension>
        </extensions>
      </trkpt>
      <trkpt lat="31.288740301878086" lon="121.2145543189273">
        <ele>22.7</ele>
        <time>2024-03-30T14:39:29Z</time>
        <extensions>
          <gpxtpx:TrackPointExtension>
            <gpxtpx:hr>130</gpxtpx:hr>
          </gpxtpx:TrackPointExtension>
        </extensions>
      </trkpt>
      <trkpt lat="31.288737933093294" lon="121.21455711184248">
        <ele>22.7</ele>
        <time>2024-03-30T14:39:30Z</time>
        <extensions>
          <gpxtpx:TrackPointExtension>
            <gpxtpx:hr>130</gpxtpx:hr>
          </gpxtpx:TrackPointExtension>
        </extensions>
      </trkpt>
      <trkpt lat="31.288736832659527" lon="121.21455988116001">
        <ele>22.7</ele>
        <time>2024-03-30T14:39:31Z</time>
        <extensions>
          <gpxtpx:TrackPointExtension>
            <gpxtpx:hr>122</gpxtpx:hr>
          </gpxtpx:TrackPointExtension>
        </extensions>
      </trkpt>
      <trkpt lat="31.28873534033468" lon="121.2145625591027">
        <ele>22.7</ele>
        <time>2024-03-30T14:39:32Z</time>
        <extensions>
          <gpxtpx:TrackPointExtension>
            <gpxtpx:hr>122</gpxtpx:hr>
          </gpxtpx:TrackPointExtension>
        </extensions>
      </trkpt>
      <trkpt lat="31.28873410762462" lon="121.21456487833166">
        <ele>22.7</ele>
        <time>2024-03-30T14:39:33Z</time>
        <extensions>
          <gpxtpx:TrackPointExtension>
            <gpxtpx:hr>122</gpxtpx:hr>
          </gpxtpx:TrackPointExtension>
        </extensions>
      </trkpt>
      <trkpt lat="31.28873309433103" lon="121.21456650524041">
        <ele>22.7</ele>
        <time>2024-03-30T14:39:34Z</time>
        <extensions>
          <gpxtpx:TrackPointExtension>
            <gpxtpx:hr>122</gpxtpx:hr>
          </gpxtpx:TrackPointExtension>
        </extensions>
      </trkpt>
      <trkpt lat="31.28873194783113" lon="121.21456752652134">
        <ele>22.7</ele>
        <time>2024-03-30T14:39:35Z</time>
        <extensions>
          <gpxtpx:TrackPointExtension>
            <gpxtpx:hr>122</gpxtpx:hr>
          </gpxtpx:TrackPointExtension>
        </extensions>
      </trkpt>
      <trkpt lat="31.28873162645947" lon="121.21456800581856">
        <ele>22.7</ele>
        <time>2024-03-30T14:39:36Z</time>
        <extensions>
          <gpxtpx:TrackPointExtension>
            <gpxtpx:hr>118</gpxtpx:hr>
          </gpxtpx:TrackPointExtension>
        </extensions>
      </trkpt>
      <trkpt lat="31.28873050862942" lon="121.2145677173301">
        <ele>22.7</ele>
        <time>2024-03-30T14:39:37Z</time>
        <extensions>
          <gpxtpx:TrackPointExtension>
            <gpxtpx:hr>118</gpxtpx:hr>
          </gpxtpx:TrackPointExtension>
        </extensions>
      </trkpt>
      <trkpt lat="31.28873102659068" lon="121.21456711367875">
        <ele>22.7</ele>
        <time>2024-03-30T14:39:38Z</time>
        <extensions>
          <gpxtpx:TrackPointExtension>
            <gpxtpx:hr>118</gpxtpx:hr>
          </gpxtpx:TrackPointExtension>
        </extensions>
      </trkpt>
      <trkpt lat="31.288731484604813" lon="121.21456612072946">
        <ele>22.7</ele>
        <time>2024-03-30T14:39:39Z</time>
        <extensions>
          <gpxtpx:TrackPointExtension>
            <gpxtpx:hr>118</gpxtpx:hr>
          </gpxtpx:TrackPointExtension>
        </extensions>
      </trkpt>
      <trkpt lat="31.288733425406186" lon="121.21456489113594">
        <ele>22.7</ele>
        <time>2024-03-30T14:39:40Z</time>
        <extensions>
          <gpxtpx:TrackPointExtension>
            <gpxtpx:hr>118</gpxtpx:hr>
          </gpxtpx:TrackPointExtension>
        </extensions>
      </trkpt>
      <trkpt lat="31.288735828341906" lon="121.21456252958879">
        <ele>22.7</ele>
        <time>2024-03-30T14:39:41Z</time>
        <extensions>
          <gpxtpx:TrackPointExtension>
            <gpxtpx:hr>117</gpxtpx:hr>
          </gpxtpx:TrackPointExtension>
        </extensions>
      </trkpt>
      <trkpt lat="31.28873925931811" lon="121.21455819713572">
        <ele>22.7</ele>
        <time>2024-03-30T14:39:42Z</time>
        <extensions>
          <gpxtpx:TrackPointExtension>
            <gpxtpx:hr>117</gpxtpx:hr>
          </gpxtpx:TrackPointExtension>
        </extensions>
      </trkpt>
      <trkpt lat="31.2887438386856" lon="121.21455121102142">
        <ele>22.7</ele>
        <time>2024-03-30T14:39:43Z</time>
        <extensions>
          <gpxtpx:TrackPointExtension>
            <gpxtpx:hr>117</gpxtpx:hr>
          </gpxtpx:TrackPointExtension>
        </extensions>
      </trkpt>
      <trkpt lat="31.288750165961016" lon="121.21453986425877">
        <ele>22.7</ele>
        <time>2024-03-30T14:39:44Z</time>
        <extensions>
          <gpxtpx:TrackPointExtension>
            <gpxtpx:hr>117</gpxtpx:hr>
          </gpxtpx:TrackPointExtension>
        </extensions>
      </trkpt>
      <trkpt lat="31.28875618087138" lon="121.21452863163249">
        <ele>22.7</ele>
        <time>2024-03-30T14:39:45Z</time>
        <extensions>
          <gpxtpx:TrackPointExtension>
            <gpxtpx:hr>117</gpxtpx:hr>
          </gpxtpx:TrackPointExtension>
        </extensions>
      </trkpt>
      <trkpt lat="31.288760708322034" lon="121.21451978983804">
        <ele>22.7</ele>
        <time>2024-03-30T14:39:46Z</time>
        <extensions>
          <gpxtpx:TrackPointExtension>
            <gpxtpx:hr>117</gpxtpx:hr>
          </gpxtpx:TrackPointExtension>
        </extensions>
      </trkpt>
      <trkpt lat="31.288763049188756" lon="121.21451618720019">
        <ele>22.7</ele>
        <time>2024-03-30T14:39:47Z</time>
        <extensions>
          <gpxtpx:TrackPointExtension>
            <gpxtpx:hr>117</gpxtpx:hr>
          </gpxtpx:TrackPointExtension>
        </extensions>
      </trkpt>
      <trkpt lat="31.28876157446854" lon="121.21451471282118">
        <ele>22.7</ele>
        <time>2024-03-30T14:39:48Z</time>
        <extensions>
          <gpxtpx:TrackPointExtension>
            <gpxtpx:hr>117</gpxtpx:hr>
          </gpxtpx:TrackPointExtension>
        </extensions>
      </trkpt>
      <trkpt lat="31.288760173672973" lon="121.2145146397305">
        <ele>22.7</ele>
        <time>2024-03-30T14:39:50Z</time>
        <extensions>
          <gpxtpx:TrackPointExtension>
            <gpxtpx:hr>117</gpxtpx:hr>
          </gpxtpx:TrackPointExtension>
        </extensions>
      </trkpt>
      <trkpt lat="31.288758027848218" lon="121.2145160016365">
        <ele>22.7</ele>
        <time>2024-03-30T14:39:51Z</time>
        <extensions>
          <gpxtpx:TrackPointExtension>
            <gpxtpx:hr>117</gpxtpx:hr>
          </gpxtpx:TrackPointExtension>
        </extensions>
      </trkpt>
      <trkpt lat="31.288757822740546" lon="121.21451811254497">
        <ele>22.7</ele>
        <time>2024-03-30T14:39:52Z</time>
        <extensions>
          <gpxtpx:TrackPointExtension>
            <gpxtpx:hr>117</gpxtpx:hr>
          </gpxtpx:TrackPointExtension>
        </extensions>
      </trkpt>
      <trkpt lat="31.28875750520035" lon="121.21451972702161">
        <ele>22.7</ele>
        <time>2024-03-30T14:39:53Z</time>
        <extensions>
          <gpxtpx:TrackPointExtension>
            <gpxtpx:hr>117</gpxtpx:hr>
          </gpxtpx:TrackPointExtension>
        </extensions>
      </trkpt>
      <trkpt lat="31.288757469055547" lon="121.21452036732649">
        <ele>22.7</ele>
        <time>2024-03-30T14:39:54Z</time>
        <extensions>
          <gpxtpx:TrackPointExtension>
            <gpxtpx:hr>117</gpxtpx:hr>
          </gpxtpx:TrackPointExtension>
        </extensions>
      </trkpt>
      <trkpt lat="31.28875668163359" lon="121.21452095628338">
        <ele>22.7</ele>
        <time>2024-03-30T14:39:55Z</time>
        <extensions>
          <gpxtpx:TrackPointExtension>
            <gpxtpx:hr>117</gpxtpx:hr>
          </gpxtpx:TrackPointExtension>
        </extensions>
      </trkpt>
      <trkpt lat="31.288754970144804" lon="121.21452249860724">
        <ele>22.7</ele>
        <time>2024-03-30T14:39:56Z</time>
        <extensions>
          <gpxtpx:TrackPointExtension>
            <gpxtpx:hr>114</gpxtpx:hr>
          </gpxtpx:TrackPointExtension>
        </extensions>
      </trkpt>
      <trkpt lat="31.28875232825132" lon="121.2145256609408">
        <ele>22.7</ele>
        <time>2024-03-30T14:39:57Z</time>
        <extensions>
          <gpxtpx:TrackPointExtension>
            <gpxtpx:hr>114</gpxtpx:hr>
          </gpxtpx:TrackPointExtension>
        </extensions>
      </trkpt>
      <trkpt lat="31.28875104428738" lon="121.21452800562966">
        <ele>22.7</ele>
        <time>2024-03-30T14:39:58Z</time>
        <extensions>
          <gpxtpx:TrackPointExtension>
            <gpxtpx:hr>114</gpxtpx:hr>
          </gpxtpx:TrackPointExtension>
        </extensions>
      </trkpt>
      <trkpt lat="31.288748595617186" lon="121.21453160457766">
        <ele>22.7</ele>
        <time>2024-03-30T14:40:00Z</time>
        <extensions>
          <gpxtpx:TrackPointExtension>
            <gpxtpx:hr>114</gpxtpx:hr>
          </gpxtpx:TrackPointExtension>
        </extensions>
      </trkpt>
      <trkpt lat="31.288746204322344" lon="121.2145333871325">
        <ele>22.7</ele>
        <time>2024-03-30T14:40:01Z</time>
        <extensions>
          <gpxtpx:TrackPointExtension>
            <gpxtpx:hr>114</gpxtpx:hr>
          </gpxtpx:TrackPointExtension>
        </extensions>
      </trkpt>
      <trkpt lat="31.28874384433014" lon="121.21453527652457">
        <ele>22.7</ele>
        <time>2024-03-30T14:40:02Z</time>
        <extensions>
          <gpxtpx:TrackPointExtension>
            <gpxtpx:hr>114</gpxtpx:hr>
          </gpxtpx:TrackPointExtension>
        </extensions>
      </trkpt>
      <trkpt lat="31.288742328137502" lon="121.21453454191709">
        <ele>22.7</ele>
        <time>2024-03-30T14:40:03Z</time>
        <extensions>
          <gpxtpx:TrackPointExtension>
            <gpxtpx:hr>114</gpxtpx:hr>
          </gpxtpx:TrackPointExtension>
        </extensions>
      </trkpt>
      <trkpt lat="31.28874052128778" lon="121.21453333660705">
        <ele>22.7</ele>
        <time>2024-03-30T14:40:04Z</time>
        <extensions>
          <gpxtpx:TrackPointExtension>
            <gpxtpx:hr>114</gpxtpx:hr>
          </gpxtpx:TrackPointExtension>
        </extensions>
      </trkpt>
      <trkpt lat="31.288738943184818" lon="121.21453258201758">
        <ele>22.7</ele>
        <time>2024-03-30T14:40:05Z</time>
        <extensions>
          <gpxtpx:TrackPointExtension>
            <gpxtpx:hr>114</gpxtpx:hr>
          </gpxtpx:TrackPointExtension>
        </extensions>
      </trkpt>
      <trkpt lat="31.28873758208209" lon="121.21453248881005">
        <ele>22.7</ele>
        <time>2024-03-30T14:40:06Z</time>
        <extensions>
          <gpxtpx:TrackPointExtension>
            <gpxtpx:hr>112</gpxtpx:hr>
          </gpxtpx:TrackPointExtension>
        </extensions>
      </trkpt>
      <trkpt lat="31.288736295161698" lon="121.21453319148969">
        <ele>22.7</ele>
        <time>2024-03-30T14:40:07Z</time>
        <extensions>
          <gpxtpx:TrackPointExtension>
            <gpxtpx:hr>112</gpxtpx:hr>
          </gpxtpx:TrackPointExtension>
        </extensions>
      </trkpt>
      <trkpt lat="31.288735551177467" lon="121.21453361778838">
        <ele>22.7</ele>
        <time>2024-03-30T14:40:08Z</time>
        <extensions>
          <gpxtpx:TrackPointExtension>
            <gpxtpx:hr>112</gpxtpx:hr>
          </gpxtpx:TrackPointExtension>
        </extensions>
      </trkpt>
      <trkpt lat="31.28873527927914" lon="121.21453341603974">
        <ele>22.7</ele>
        <time>2024-03-30T14:40:09Z</time>
        <extensions>
          <gpxtpx:TrackPointExtension>
            <gpxtpx:hr>112</gpxtpx:hr>
          </gpxtpx:TrackPointExtension>
        </extensions>
      </trkpt>
      <trkpt lat="31.288735482645667" lon="121.21453187460965">
        <ele>22.7</ele>
        <time>2024-03-30T14:40:10Z</time>
        <extensions>
          <gpxtpx:TrackPointExtension>
            <gpxtpx:hr>112</gpxtpx:hr>
          </gpxtpx:TrackPointExtension>
        </extensions>
      </trkpt>
      <trkpt lat="31.28873561765359" lon="121.2145308241671">
        <ele>22.7</ele>
        <time>2024-03-30T14:40:11Z</time>
        <extensions>
          <gpxtpx:TrackPointExtension>
            <gpxtpx:hr>111</gpxtpx:hr>
          </gpxtpx:TrackPointExtension>
        </extensions>
      </trkpt>
      <trkpt lat="31.288735824842632" lon="121.21453021951386">
        <ele>22.7</ele>
        <time>2024-03-30T14:40:12Z</time>
        <extensions>
          <gpxtpx:TrackPointExtension>
            <gpxtpx:hr>111</gpxtpx:hr>
          </gpxtpx:TrackPointExtension>
        </extensions>
      </trkpt>
      <trkpt lat="31.288736010092887" lon="121.21453087646339">
        <ele>22.7</ele>
        <time>2024-03-30T14:40:13Z</time>
        <extensions>
          <gpxtpx:TrackPointExtension>
            <gpxtpx:hr>111</gpxtpx:hr>
          </gpxtpx:TrackPointExtension>
        </extensions>
      </trkpt>
      <trkpt lat="31.288735169637796" lon="121.21453136337968">
        <ele>22.7</ele>
        <time>2024-03-30T14:40:14Z</time>
        <extensions>
          <gpxtpx:TrackPointExtension>
            <gpxtpx:hr>111</gpxtpx:hr>
          </gpxtpx:TrackPointExtension>
        </extensions>
      </trkpt>
      <trkpt lat="31.288734400582086" lon="121.21453259461971">
        <ele>22.7</ele>
        <time>2024-03-30T14:40:15Z</time>
        <extensions>
          <gpxtpx:TrackPointExtension>
            <gpxtpx:hr>111</gpxtpx:hr>
          </gpxtpx:TrackPointExtension>
        </extensions>
      </trkpt>
      <trkpt lat="31.288734729005814" lon="121.21453318806435">
        <ele>22.7</ele>
        <time>2024-03-30T14:40:16Z</time>
        <extensions>
          <gpxtpx:TrackPointExtension>
            <gpxtpx:hr>110</gpxtpx:hr>
          </gpxtpx:TrackPointExtension>
        </extensions>
      </trkpt>
      <trkpt lat="31.288735830104695" lon="121.21453310448928">
        <ele>22.7</ele>
        <time>2024-03-30T14:40:17Z</time>
        <extensions>
          <gpxtpx:TrackPointExtension>
            <gpxtpx:hr>110</gpxtpx:hr>
          </gpxtpx:TrackPointExtension>
        </extensions>
      </trkpt>
      <trkpt lat="31.288736768740744" lon="121.21453280389329">
        <ele>22.7</ele>
        <time>2024-03-30T14:40:18Z</time>
        <extensions>
          <gpxtpx:TrackPointExtension>
            <gpxtpx:hr>110</gpxtpx:hr>
          </gpxtpx:TrackPointExtension>
        </extensions>
      </trkpt>
      <trkpt lat="31.288736653596946" lon="121.21453307931272">
        <ele>22.7</ele>
        <time>2024-03-30T14:40:19Z</time>
        <extensions>
          <gpxtpx:TrackPointExtension>
            <gpxtpx:hr>110</gpxtpx:hr>
          </gpxtpx:TrackPointExtension>
        </extensions>
      </trkpt>
      <trkpt lat="31.28873538667742" lon="121.2145332126902">
        <ele>22.7</ele>
        <time>2024-03-30T14:40:20Z</time>
        <extensions>
          <gpxtpx:TrackPointExtension>
            <gpxtpx:hr>110</gpxtpx:hr>
          </gpxtpx:TrackPointExtension>
        </extensions>
      </trkpt>
      <trkpt lat="31.28873383044547" lon="121.21453225098644">
        <ele>22.7</ele>
        <time>2024-03-30T14:40:21Z</time>
        <extensions>
          <gpxtpx:TrackPointExtension>
            <gpxtpx:hr>112</gpxtpx:hr>
          </gpxtpx:TrackPointExtension>
        </extensions>
      </trkpt>
      <trkpt lat="31.288731668219203" lon="121.21453006345105">
        <ele>22.7</ele>
        <time>2024-03-30T14:40:22Z</time>
        <extensions>
          <gpxtpx:TrackPointExtension>
            <gpxtpx:hr>112</gpxtpx:hr>
          </gpxtpx:TrackPointExtension>
        </extensions>
      </trkpt>
      <trkpt lat="31.288730623695848" lon="121.21452799541134">
        <ele>22.7</ele>
        <time>2024-03-30T14:40:23Z</time>
        <extensions>
          <gpxtpx:TrackPointExtension>
            <gpxtpx:hr>112</gpxtpx:hr>
          </gpxtpx:TrackPointExtension>
        </extensions>
      </trkpt>
      <trkpt lat="31.28872909048213" lon="121.21452402352784">
        <ele>22.7</ele>
        <time>2024-03-30T14:40:25Z</time>
        <extensions>
          <gpxtpx:TrackPointExtension>
            <gpxtpx:hr>112</gpxtpx:hr>
          </gpxtpx:TrackPointExtension>
        </extensions>
      </trkpt>
      <trkpt lat="31.288728807501272" lon="121.21452108909823">
        <ele>22.7</ele>
        <time>2024-03-30T14:40:26Z</time>
        <extensions>
          <gpxtpx:TrackPointExtension>
            <gpxtpx:hr>112</gpxtpx:hr>
          </gpxtpx:TrackPointExtension>
        </extensions>
      </trkpt>
      <trkpt lat="31.288728486537096" lon="121.21451845540237">
        <ele>22.7</ele>
        <time>2024-03-30T14:40:27Z</time>
        <extensions>
          <gpxtpx:TrackPointExtension>
            <gpxtpx:hr>112</gpxtpx:hr>
          </gpxtpx:TrackPointExtension>
        </extensions>
      </trkpt>
      <trkpt lat="31.28872926973939" lon="121.21451796156441">
        <ele>22.7</ele>
        <time>2024-03-30T14:40:28Z</time>
        <extensions>
          <gpxtpx:TrackPointExtension>
            <gpxtpx:hr>112</gpxtpx:hr>
          </gpxtpx:TrackPointExtension>
        </extensions>
      </trkpt>
      <trkpt lat="31.288729331991505" lon="121.21451707857288">
        <ele>22.7</ele>
        <time>2024-03-30T14:40:29Z</time>
        <extensions>
          <gpxtpx:TrackPointExtension>
            <gpxtpx:hr>112</gpxtpx:hr>
          </gpxtpx:TrackPointExtension>
        </extensions>
      </trkpt>
      <trkpt lat="31.28872855407202" lon="121.21451675769183">
        <ele>22.7</ele>
        <time>2024-03-30T14:40:30Z</time>
        <extensions>
          <gpxtpx:TrackPointExtension>
            <gpxtpx:hr>112</gpxtpx:hr>
          </gpxtpx:TrackPointExtension>
        </extensions>
      </trkpt>
      <trkpt lat="31.288727004773765" lon="121.2145164330946">
        <ele>22.7</ele>
        <time>2024-03-30T14:40:31Z</time>
        <extensions>
          <gpxtpx:TrackPointExtension>
            <gpxtpx:hr>113</gpxtpx:hr>
          </gpxtpx:TrackPointExtension>
        </extensions>
      </trkpt>
      <trkpt lat="31.28872576181371" lon="121.21451691046015">
        <ele>22.7</ele>
        <time>2024-03-30T14:40:32Z</time>
        <extensions>
          <gpxtpx:TrackPointExtension>
            <gpxtpx:hr>113</gpxtpx:hr>
          </gpxtpx:TrackPointExtension>
        </extensions>
      </trkpt>
      <trkpt lat="31.288724992032375" lon="121.21451610129964">
        <ele>22.7</ele>
        <time>2024-03-30T14:40:33Z</time>
        <extensions>
          <gpxtpx:TrackPointExtension>
            <gpxtpx:hr>113</gpxtpx:hr>
          </gpxtpx:TrackPointExtension>
        </extensions>
      </trkpt>
      <trkpt lat="31.288725199789535" lon="121.21451579691126">
        <ele>22.7</ele>
        <time>2024-03-30T14:40:34Z</time>
        <extensions>
          <gpxtpx:TrackPointExtension>
            <gpxtpx:hr>113</gpxtpx:hr>
          </gpxtpx:TrackPointExtension>
        </extensions>
      </trkpt>
      <trkpt lat="31.28872621740307" lon="121.2145151245143">
        <ele>22.7</ele>
        <time>2024-03-30T14:40:35Z</time>
        <extensions>
          <gpxtpx:TrackPointExtension>
            <gpxtpx:hr>113</gpxtpx:hr>
          </gpxtpx:TrackPointExtension>
        </extensions>
      </trkpt>
      <trkpt lat="31.288727240143455" lon="121.21451561344585">
        <ele>22.7</ele>
        <time>2024-03-30T14:40:36Z</time>
        <extensions>
          <gpxtpx:TrackPointExtension>
            <gpxtpx:hr>112</gpxtpx:hr>
          </gpxtpx:TrackPointExtension>
        </extensions>
      </trkpt>
      <trkpt lat="31.288728308662613" lon="121.21451524171094">
        <ele>22.7</ele>
        <time>2024-03-30T14:40:37Z</time>
        <extensions>
          <gpxtpx:TrackPointExtension>
            <gpxtpx:hr>112</gpxtpx:hr>
          </gpxtpx:TrackPointExtension>
        </extensions>
      </trkpt>
      <trkpt lat="31.288727790254715" lon="121.21451643788798">
        <ele>22.7</ele>
        <time>2024-03-30T14:40:38Z</time>
        <extensions>
          <gpxtpx:TrackPointExtension>
            <gpxtpx:hr>112</gpxtpx:hr>
          </gpxtpx:TrackPointExtension>
        </extensions>
      </trkpt>
      <trkpt lat="31.288728357665022" lon="121.2145155895105">
        <ele>22.7</ele>
        <time>2024-03-30T14:40:39Z</time>
        <extensions>
          <gpxtpx:TrackPointExtension>
            <gpxtpx:hr>112</gpxtpx:hr>
          </gpxtpx:TrackPointExtension>
        </extensions>
      </trkpt>
      <trkpt lat="31.288727698603875" lon="121.21451681273975">
        <ele>22.7</ele>
        <time>2024-03-30T14:40:40Z</time>
        <extensions>
          <gpxtpx:TrackPointExtension>
            <gpxtpx:hr>112</gpxtpx:hr>
          </gpxtpx:TrackPointExtension>
        </extensions>
      </trkpt>
      <trkpt lat="31.288728726396688" lon="121.21451573814701">
        <ele>23.1</ele>
        <time>2024-03-30T14:40:41Z</time>
        <extensions>
          <gpxtpx:TrackPointExtension>
            <gpxtpx:hr>110</gpxtpx:hr>
          </gpxtpx:TrackPointExtension>
        </extensions>
      </trkpt>
      <trkpt lat="31.288728650903664" lon="121.21451604488317">
        <ele>23.1</ele>
        <time>2024-03-30T14:40:42Z</time>
        <extensions>
          <gpxtpx:TrackPointExtension>
            <gpxtpx:hr>110</gpxtpx:hr>
          </gpxtpx:TrackPointExtension>
        </extensions>
      </trkpt>
      <trkpt lat="31.288728914140414" lon="121.21451607143042">
        <ele>23.1</ele>
        <time>2024-03-30T14:40:43Z</time>
        <extensions>
          <gpxtpx:TrackPointExtension>
            <gpxtpx:hr>110</gpxtpx:hr>
          </gpxtpx:TrackPointExtension>
        </extensions>
      </trkpt>
      <trkpt lat="31.28872855464659" lon="121.21451661434831">
        <ele>23.1</ele>
        <time>2024-03-30T14:40:44Z</time>
        <extensions>
          <gpxtpx:TrackPointExtension>
            <gpxtpx:hr>110</gpxtpx:hr>
          </gpxtpx:TrackPointExtension>
        </extensions>
      </trkpt>
      <trkpt lat="31.288728657348763" lon="121.21451695146989">
        <ele>23.1</ele>
        <time>2024-03-30T14:40:45Z</time>
        <extensions>
          <gpxtpx:TrackPointExtension>
            <gpxtpx:hr>110</gpxtpx:hr>
          </gpxtpx:TrackPointExtension>
        </extensions>
      </trkpt>
      <trkpt lat="31.288729304120356" lon="121.2145160296482">
        <ele>23.1</ele>
        <time>2024-03-30T14:40:46Z</time>
        <extensions>
          <gpxtpx:TrackPointExtension>
            <gpxtpx:hr>113</gpxtpx:hr>
          </gpxtpx:TrackPointExtension>
        </extensions>
      </trkpt>
      <trkpt lat="31.288729430387367" lon="121.21451462330242">
        <ele>23.1</ele>
        <time>2024-03-30T14:40:47Z</time>
        <extensions>
          <gpxtpx:TrackPointExtension>
            <gpxtpx:hr>113</gpxtpx:hr>
          </gpxtpx:TrackPointExtension>
        </extensions>
      </trkpt>
      <trkpt lat="31.28872917839698" lon="121.21451468059564">
        <ele>23.1</ele>
        <time>2024-03-30T14:40:48Z</time>
        <extensions>
          <gpxtpx:TrackPointExtension>
            <gpxtpx:hr>113</gpxtpx:hr>
          </gpxtpx:TrackPointExtension>
        </extensions>
      </trkpt>
      <trkpt lat="31.288728414406926" lon="121.21451479546468">
        <ele>23.1</ele>
        <time>2024-03-30T14:40:49Z</time>
        <extensions>
          <gpxtpx:TrackPointExtension>
            <gpxtpx:hr>113</gpxtpx:hr>
          </gpxtpx:TrackPointExtension>
        </extensions>
      </trkpt>
      <trkpt lat="31.288728354669622" lon="121.21451615917991">
        <ele>23.1</ele>
        <time>2024-03-30T14:40:50Z</time>
        <extensions>
          <gpxtpx:TrackPointExtension>
            <gpxtpx:hr>113</gpxtpx:hr>
          </gpxtpx:TrackPointExtension>
        </extensions>
      </trkpt>
      <trkpt lat="31.288727458018695" lon="121.21451624044711">
        <ele>23.0</ele>
        <time>2024-03-30T14:40:51Z</time>
        <extensions>
          <gpxtpx:TrackPointExtension>
            <gpxtpx:hr>113</gpxtpx:hr>
          </gpxtpx:TrackPointExtension>
        </extensions>
      </trkpt>
      <trkpt lat="31.28872736047799" lon="121.21451685858662">
        <ele>23.0</ele>
        <time>2024-03-30T14:40:52Z</time>
        <extensions>
          <gpxtpx:TrackPointExtension>
            <gpxtpx:hr>113</gpxtpx:hr>
          </gpxtpx:TrackPointExtension>
        </extensions>
      </trkpt>
      <trkpt lat="31.288727052344754" lon="121.21451731394154">
        <ele>23.0</ele>
        <time>2024-03-30T14:40:53Z</time>
        <extensions>
          <gpxtpx:TrackPointExtension>
            <gpxtpx:hr>113</gpxtpx:hr>
          </gpxtpx:TrackPointExtension>
        </extensions>
      </trkpt>
      <trkpt lat="31.288727380543822" lon="121.21451782167142">
        <ele>23.0</ele>
        <time>2024-03-30T14:40:54Z</time>
        <extensions>
          <gpxtpx:TrackPointExtension>
            <gpxtpx:hr>113</gpxtpx:hr>
          </gpxtpx:TrackPointExtension>
        </extensions>
      </trkpt>
      <trkpt lat="31.2887275744611" lon="121.21451753368817">
        <ele>23.0</ele>
        <time>2024-03-30T14:40:55Z</time>
        <extensions>
          <gpxtpx:TrackPointExtension>
            <gpxtpx:hr>113</gpxtpx:hr>
          </gpxtpx:TrackPointExtension>
        </extensions>
      </trkpt>
      <trkpt lat="31.28872757352018" lon="121.214516277916">
        <ele>23.0</ele>
        <time>2024-03-30T14:40:56Z</time>
        <extensions>
          <gpxtpx:TrackPointExtension>
            <gpxtpx:hr>112</gpxtpx:hr>
          </gpxtpx:TrackPointExtension>
        </extensions>
      </trkpt>
      <trkpt lat="31.2887275029822" lon="121.21451626105798">
        <ele>23.0</ele>
        <time>2024-03-30T14:40:57Z</time>
        <extensions>
          <gpxtpx:TrackPointExtension>
            <gpxtpx:hr>112</gpxtpx:hr>
          </gpxtpx:TrackPointExtension>
        </extensions>
      </trkpt>
      <trkpt lat="31.2887269786302" lon="121.21451581797615">
        <ele>23.0</ele>
        <time>2024-03-30T14:40:58Z</time>
        <extensions>
          <gpxtpx:TrackPointExtension>
            <gpxtpx:hr>112</gpxtpx:hr>
          </gpxtpx:TrackPointExtension>
        </extensions>
      </trkpt>
      <trkpt lat="31.2887264235171" lon="121.21451671719147">
        <ele>23.0</ele>
        <time>2024-03-30T14:40:59Z</time>
        <extensions>
          <gpxtpx:TrackPointExtension>
            <gpxtpx:hr>112</gpxtpx:hr>
          </gpxtpx:TrackPointExtension>
        </extensions>
      </trkpt>
      <trkpt lat="31.288726286395736" lon="121.21451579668047">
        <ele>23.0</ele>
        <time>2024-03-30T14:41:00Z</time>
        <extensions>
          <gpxtpx:TrackPointExtension>
            <gpxtpx:hr>112</gpxtpx:hr>
          </gpxtpx:TrackPointExtension>
        </extensions>
      </trkpt>
      <trkpt lat="31.28872798729331" lon="121.21451451552704">
        <ele>22.7</ele>
        <time>2024-03-30T14:41:01Z</time>
        <extensions>
          <gpxtpx:TrackPointExtension>
            <gpxtpx:hr>111</gpxtpx:hr>
          </gpxtpx:TrackPointExtension>
        </extensions>
      </trkpt>
      <trkpt lat="31.288726917264746" lon="121.2145142649512">
        <ele>22.7</ele>
        <time>2024-03-30T14:41:02Z</time>
        <extensions>
          <gpxtpx:TrackPointExtension>
            <gpxtpx:hr>111</gpxtpx:hr>
          </gpxtpx:TrackPointExtension>
        </extensions>
      </trkpt>
      <trkpt lat="31.288726397566673" lon="121.214514021789">
        <ele>22.7</ele>
        <time>2024-03-30T14:41:03Z</time>
        <extensions>
          <gpxtpx:TrackPointExtension>
            <gpxtpx:hr>111</gpxtpx:hr>
          </gpxtpx:TrackPointExtension>
        </extensions>
      </trkpt>
      <trkpt lat="31.288726444502725" lon="121.21451510128063">
        <ele>22.7</ele>
        <time>2024-03-30T14:41:04Z</time>
        <extensions>
          <gpxtpx:TrackPointExtension>
            <gpxtpx:hr>111</gpxtpx:hr>
          </gpxtpx:TrackPointExtension>
        </extensions>
      </trkpt>
      <trkpt lat="31.288728404862667" lon="121.21451608397025">
        <ele>22.7</ele>
        <time>2024-03-30T14:41:05Z</time>
        <extensions>
          <gpxtpx:TrackPointExtension>
            <gpxtpx:hr>111</gpxtpx:hr>
          </gpxtpx:TrackPointExtension>
        </extensions>
      </trkpt>
      <trkpt lat="31.288729853374345" lon="121.21451697757966">
        <ele>22.7</ele>
        <time>2024-03-30T14:41:06Z</time>
        <extensions>
          <gpxtpx:TrackPointExtension>
            <gpxtpx:hr>111</gpxtpx:hr>
          </gpxtpx:TrackPointExtension>
        </extensions>
      </trkpt>
      <trkpt lat="31.28873019255021" lon="121.21451671453539">
        <ele>22.7</ele>
        <time>2024-03-30T14:41:07Z</time>
        <extensions>
          <gpxtpx:TrackPointExtension>
            <gpxtpx:hr>111</gpxtpx:hr>
          </gpxtpx:TrackPointExtension>
        </extensions>
      </trkpt>
      <trkpt lat="31.288729270734667" lon="121.21451641412261">
        <ele>22.7</ele>
        <time>2024-03-30T14:41:08Z</time>
        <extensions>
          <gpxtpx:TrackPointExtension>
            <gpxtpx:hr>111</gpxtpx:hr>
          </gpxtpx:TrackPointExtension>
        </extensions>
      </trkpt>
      <trkpt lat="31.28872908820091" lon="121.21451630603231">
        <ele>22.7</ele>
        <time>2024-03-30T14:41:09Z</time>
        <extensions>
          <gpxtpx:TrackPointExtension>
            <gpxtpx:hr>111</gpxtpx:hr>
          </gpxtpx:TrackPointExtension>
        </extensions>
      </trkpt>
      <trkpt lat="31.288728137573976" lon="121.21451614641923">
        <ele>22.7</ele>
        <time>2024-03-30T14:41:10Z</time>
        <extensions>
          <gpxtpx:TrackPointExtension>
            <gpxtpx:hr>111</gpxtpx:hr>
          </gpxtpx:TrackPointExtension>
        </extensions>
      </trkpt>
      <trkpt lat="31.288727623168562" lon="121.21451646361534">
        <ele>22.9</ele>
        <time>2024-03-30T14:41:11Z</time>
        <extensions>
          <gpxtpx:TrackPointExtension>
            <gpxtpx:hr>111</gpxtpx:hr>
          </gpxtpx:TrackPointExtension>
        </extensions>
      </trkpt>
      <trkpt lat="31.288726597835925" lon="121.21451641043676">
        <ele>22.9</ele>
        <time>2024-03-30T14:41:12Z</time>
        <extensions>
          <gpxtpx:TrackPointExtension>
            <gpxtpx:hr>111</gpxtpx:hr>
          </gpxtpx:TrackPointExtension>
        </extensions>
      </trkpt>
      <trkpt lat="31.288726373993626" lon="121.21451638796667">
        <ele>22.9</ele>
        <time>2024-03-30T14:41:14Z</time>
      </trkpt>
      <trkpt lat="31.28872686552961" lon="121.2145159713886">
        <ele>22.9</ele>
        <time>2024-03-30T14:41:15Z</time>
      </trkpt>
      <trkpt lat="31.288728240839554" lon="121.21451599170126">
        <ele>22.9</ele>
        <time>2024-03-30T14:41:16Z</time>
      </trkpt>
      <trkpt lat="31.288728590170646" lon="121.21451572318425">
        <ele>22.9</ele>
        <time>2024-03-30T14:41:17Z</time>
      </trkpt>
      <trkpt lat="31.28872843973471" lon="121.21451586082924">
        <ele>22.9</ele>
        <time>2024-03-30T14:41:18Z</time>
      </trkpt>
      <trkpt lat="31.288728437862304" lon="121.21451624354621">
        <ele>22.9</ele>
        <time>2024-03-30T14:41:19Z</time>
      </trkpt>
      <trkpt lat="31.288728613321023" lon="121.21451683587748">
        <ele>22.9</ele>
        <time>2024-03-30T14:41:20Z</time>
      </trkpt>
      <trkpt lat="31.28872926459959" lon="121.21451728746874">
        <ele>22.4</ele>
        <time>2024-03-30T14:41:21Z</time>
      </trkpt>
      <trkpt lat="31.288728961024965" lon="121.2145170570664">
        <ele>22.4</ele>
        <time>2024-03-30T14:41:22Z</time>
      </trkpt>
      <trkpt lat="31.28872916241087" lon="121.2145170479658">
        <ele>22.4</ele>
        <time>2024-03-30T14:41:23Z</time>
      </trkpt>
      <trkpt lat="31.288728633428562" lon="121.21451678178373">
        <ele>22.4</ele>
        <time>2024-03-30T14:41:24Z</time>
      </trkpt>
      <trkpt lat="31.28872828366625" lon="121.21451662221203">
        <ele>22.4</ele>
        <time>2024-03-30T14:41:25Z</time>
      </trkpt>
      <trkpt lat="31.288727763856496" lon="121.21451644132635">
        <ele>22.4</ele>
        <time>2024-03-30T14:41:26Z</time>
      </trkpt>
      <trkpt lat="31.28872789841968" lon="121.21451644086895">
        <ele>22.4</ele>
        <time>2024-03-30T14:41:27Z</time>
      </trkpt>
      <trkpt lat="31.288728034478297" lon="121.21451645285755">
        <ele>22.4</ele>
        <time>2024-03-30T14:41:28Z</time>
      </trkpt>
      <trkpt lat="31.288728419384302" lon="121.21451653268964">
        <ele>22.4</ele>
        <time>2024-03-30T14:41:29Z</time>
      </trkpt>
      <trkpt lat="31.28872824641771" lon="121.21451648503954">
        <ele>22.4</ele>
        <time>2024-03-30T14:41:30Z</time>
      </trkpt>
      <trkpt lat="31.288728182925123" lon="121.21451646634723">
        <ele>22.4</ele>
        <time>2024-03-30T14:41:31Z</time>
      </trkpt>
      <trkpt lat="31.28872809518483" lon="121.21451644351365">
        <ele>22.4</ele>
        <time>2024-03-30T14:41:32Z</time>
      </trkpt>
      <trkpt lat="31.288728049486142" lon="121.21451643156762">
        <ele>22.4</ele>
        <time>2024-03-30T14:41:33Z</time>
      </trkpt>
      <trkpt lat="31.28872801689534" lon="121.21451642322586">
        <ele>22.4</ele>
        <time>2024-03-30T14:41:34Z</time>
      </trkpt>
      <trkpt lat="31.288727998982385" lon="121.2145164186408">
        <ele>22.4</ele>
        <time>2024-03-30T14:41:35Z</time>
      </trkpt>
      <trkpt lat="31.288727988020156" lon="121.21451641585463">
        <ele>22.4</ele>
        <time>2024-03-30T14:41:36Z</time>
      </trkpt>
      <trkpt lat="31.288727981916022" lon="121.21451641430396">
        <ele>22.4</ele>
        <time>2024-03-30T14:41:37Z</time>
      </trkpt>
      <trkpt lat="31.288727978377025" lon="121.21451641340748">
        <ele>22.4</ele>
        <time>2024-03-30T14:41:38Z</time>
      </trkpt>
      <trkpt lat="31.288727976400377" lon="121.21451641290699">
        <ele>22.4</ele>
        <time>2024-03-30T14:41:39Z</time>
      </trkpt>
      <trkpt lat="31.2887279752789" lon="121.21451641262337">
        <ele>22.4</ele>
        <time>2024-03-30T14:41:40Z</time>
      </trkpt>
      <trkpt lat="31.288727974652268" lon="121.21451641246495">
        <ele>22.2</ele>
        <time>2024-03-30T14:41:41Z</time>
      </trkpt>
      <trkpt lat="31.288727974299967" lon="121.21451641237591">
        <ele>22.2</ele>
        <time>2024-03-30T14:41:42Z</time>
      </trkpt>
      <trkpt lat="31.288727974103157" lon="121.21451641232619">
        <ele>22.2</ele>
        <time>2024-03-30T14:41:43Z</time>
      </trkpt>
      <trkpt lat="31.288727973992945" lon="121.21451641229835">
        <ele>22.2</ele>
        <time>2024-03-30T14:41:44Z</time>
      </trkpt>
      <trkpt lat="31.28872797393139" lon="121.2145164122828">
        <ele>22.2</ele>
        <time>2024-03-30T14:41:45Z</time>
      </trkpt>
      <trkpt lat="31.288727973896982" lon="121.21451641227412">
        <ele>22.2</ele>
        <time>2024-03-30T14:41:46Z</time>
      </trkpt>
      <trkpt lat="31.288727973877766" lon="121.21451641226926">
        <ele>22.2</ele>
        <time>2024-03-30T14:41:47Z</time>
      </trkpt>
      <trkpt lat="31.288727973867037" lon="121.21451641226655">
        <ele>22.2</ele>
        <time>2024-03-30T14:41:48Z</time>
      </trkpt>
      <trkpt lat="31.288727973861043" lon="121.21451641226504">
        <ele>22.2</ele>
        <time>2024-03-30T14:41:49Z</time>
      </trkpt>
      <trkpt lat="31.288727973857696" lon="121.2145164122642">
        <ele>22.2</ele>
        <time>2024-03-30T14:41:50Z</time>
      </trkpt>
      <trkpt lat="31.288727973855828" lon="121.21451641226372">
        <ele>22.2</ele>
        <time>2024-03-30T14:41:51Z</time>
      </trkpt>
      <trkpt lat="31.288727973854787" lon="121.21451641226346">
        <ele>22.2</ele>
        <time>2024-03-30T14:41:52Z</time>
      </trkpt>
      <trkpt lat="31.288727973854204" lon="121.21451641226332">
        <ele>22.2</ele>
        <time>2024-03-30T14:41:53Z</time>
      </trkpt>
      <trkpt lat="31.288727973853877" lon="121.21451641226324">
        <ele>22.2</ele>
        <time>2024-03-30T14:41:54Z</time>
      </trkpt>
      <trkpt lat="31.288727973853696" lon="121.2145164122632">
        <ele>22.2</ele>
        <time>2024-03-30T14:41:55Z</time>
      </trkpt>
      <trkpt lat="31.288727973853593" lon="121.21451641226317">
        <ele>22.2</ele>
        <time>2024-03-30T14:41:56Z</time>
      </trkpt>
      <trkpt lat="31.288727973853536" lon="121.21451641226315">
        <ele>22.2</ele>
        <time>2024-03-30T14:41:57Z</time>
      </trkpt>
      <trkpt lat="31.288727973853504" lon="121.21451641226314">
        <ele>22.2</ele>
        <time>2024-03-30T14:41:58Z</time>
      </trkpt>
      <trkpt lat="31.288727973853486" lon="121.21451641226314">
        <ele>22.2</ele>
        <time>2024-03-30T14:41:59Z</time>
      </trkpt>
      <trkpt lat="31.288727973853476" lon="121.21451641226314">
        <ele>22.2</ele>
        <time>2024-03-30T14:42:00Z</time>
      </trkpt>
      <trkpt lat="31.288727973853472" lon="121.21451641226314">
        <ele>22.2</ele>
        <time>2024-03-30T14:42:01Z</time>
      </trkpt>
      <trkpt lat="31.28872797385347" lon="121.21451641226314">
        <ele>22.2</ele>
        <time>2024-03-30T14:42:02Z</time>
      </trkpt>
      <trkpt lat="31.288727973853465" lon="121.21451641226312">
        <ele>22.2</ele>
        <time>2024-03-30T14:42:03Z</time>
      </trkpt>
      <trkpt lat="31.288727973853465" lon="121.21451641226312">
        <ele>22.2</ele>
        <time>2024-03-30T14:42:04Z</time>
      </trkpt>
      <trkpt lat="31.28872797385346" lon="121.21451641226312">
        <ele>22.2</ele>
        <time>2024-03-30T14:42:05Z</time>
      </trkpt>
      <trkpt lat="31.28872797385346" lon="121.21451641226312">
        <ele>22.2</ele>
        <time>2024-03-30T14:42:06Z</time>
      </trkpt>
      <trkpt lat="31.28872797385346" lon="121.21451641226312">
        <ele>22.2</ele>
        <time>2024-03-30T14:42:07Z</time>
      </trkpt>
      <trkpt lat="31.28872797385346" lon="121.21451641226312">
        <ele>22.2</ele>
        <time>2024-03-30T14:42:08Z</time>
      </trkpt>
      <trkpt lat="31.28872797385346" lon="121.21451641226312">
        <ele>22.2</ele>
        <time>2024-03-30T14:42:09Z</time>
      </trkpt>
      <trkpt lat="31.28872797385346" lon="121.21451641226312">
        <ele>22.2</ele>
        <time>2024-03-30T14:42:10Z</time>
      </trkpt>
      <trkpt lat="31.28872797385346" lon="121.21451641226312">
        <ele>22.2</ele>
        <time>2024-03-30T14:42:11Z</time>
      </trkpt>
      <trkpt lat="31.28872797385346" lon="121.21451641226312">
        <ele>22.2</ele>
        <time>2024-03-30T14:42:12Z</time>
      </trkpt>
      <trkpt lat="31.28872797385346" lon="121.21451641226312">
        <ele>22.2</ele>
        <time>2024-03-30T14:42:13Z</time>
      </trkpt>
      <trkpt lat="31.28872797385346" lon="121.21451641226312">
        <ele>22.2</ele>
        <time>2024-03-30T14:42:14Z</time>
      </trkpt>
      <trkpt lat="31.28872797385346" lon="121.21451641226312">
        <ele>22.2</ele>
        <time>2024-03-30T14:42:15Z</time>
      </trkpt>
      <trkpt lat="31.288727973786898" lon="121.21451641230486">
        <ele>22.2</ele>
        <time>2024-03-30T14:42:16Z</time>
      </trkpt>
      <trkpt lat="31.288727973707015" lon="121.21451641235493">
        <ele>22.2</ele>
        <time>2024-03-30T14:42:17Z</time>
      </trkpt>
      <trkpt lat="31.288727973611163" lon="121.21451641241502">
        <ele>22.2</ele>
        <time>2024-03-30T14:42:18Z</time>
      </trkpt>
      <trkpt lat="31.28872797364258" lon="121.21451641239533">
        <ele>22.2</ele>
        <time>2024-03-30T14:42:19Z</time>
      </trkpt>
      <trkpt lat="31.288727973696258" lon="121.21451641236168">
        <ele>22.2</ele>
        <time>2024-03-30T14:42:20Z</time>
      </trkpt>
      <trkpt lat="31.288727973779846" lon="121.21451641230928">
        <ele>22.2</ele>
        <time>2024-03-30T14:42:21Z</time>
      </trkpt>
      <trkpt lat="31.288727973807298" lon="121.21451641229207">
        <ele>22.2</ele>
        <time>2024-03-30T14:42:22Z</time>
      </trkpt>
      <trkpt lat="31.28872797382951" lon="121.21451641227814">
        <ele>22.2</ele>
        <time>2024-03-30T14:42:23Z</time>
      </trkpt>
      <trkpt lat="31.288727973839435" lon="121.21451641227192">
        <ele>22.2</ele>
        <time>2024-03-30T14:42:24Z</time>
      </trkpt>
      <trkpt lat="31.28872797384587" lon="121.2145164122679">
        <ele>22.2</ele>
        <time>2024-03-30T14:42:25Z</time>
      </trkpt>
      <trkpt lat="31.28872797384914" lon="121.21451641226584">
        <ele>22.2</ele>
        <time>2024-03-30T14:42:26Z</time>
      </trkpt>
      <trkpt lat="31.288727973851078" lon="121.21451641226462">
        <ele>22.2</ele>
        <time>2024-03-30T14:42:27Z</time>
      </trkpt>
      <trkpt lat="31.288727973852122" lon="121.21451641226398">
        <ele>22.2</ele>
        <time>2024-03-30T14:42:28Z</time>
      </trkpt>
      <trkpt lat="31.288727973852716" lon="121.21451641226359">
        <ele>22.2</ele>
        <time>2024-03-30T14:42:29Z</time>
      </trkpt>
      <trkpt lat="31.288727973853042" lon="121.2145164122634">
        <ele>22.2</ele>
        <time>2024-03-30T14:42:30Z</time>
      </trkpt>
      <trkpt lat="31.28872797385323" lon="121.21451641226328">
        <ele>22.2</ele>
        <time>2024-03-30T14:42:31Z</time>
      </trkpt>
      <trkpt lat="31.28872797385333" lon="121.21451641226321">
        <ele>22.2</ele>
        <time>2024-03-30T14:42:32Z</time>
      </trkpt>
      <trkpt lat="31.28872797385339" lon="121.21451641226318">
        <ele>22.2</ele>
        <time>2024-03-30T14:42:33Z</time>
      </trkpt>
      <trkpt lat="31.288727973853423" lon="121.21451641226315">
        <ele>22.2</ele>
        <time>2024-03-30T14:42:34Z</time>
      </trkpt>
      <trkpt lat="31.28872797385344" lon="121.21451641226314">
        <ele>22.2</ele>
        <time>2024-03-30T14:42:35Z</time>
      </trkpt>
      <trkpt lat="31.288727973853447" lon="121.21451641226314">
        <ele>22.2</ele>
        <time>2024-03-30T14:42:36Z</time>
      </trkpt>
      <trkpt lat="31.288727973853455" lon="121.21451641226314">
        <ele>22.2</ele>
        <time>2024-03-30T14:42:37Z</time>
      </trkpt>
      <trkpt lat="31.288727973853458" lon="121.21451641226314">
        <ele>22.2</ele>
        <time>2024-03-30T14:42:38Z</time>
      </trkpt>
      <trkpt lat="31.288727973853458" lon="121.21451641226314">
        <ele>22.2</ele>
        <time>2024-03-30T14:42:39Z</time>
      </trkpt>
      <trkpt lat="31.28872797385346" lon="121.21451641226312">
        <ele>22.2</ele>
        <time>2024-03-30T14:42:40Z</time>
      </trkpt>
      <trkpt lat="31.28872797385346" lon="121.21451641226312">
        <ele>22.2</ele>
        <time>2024-03-30T14:42:41Z</time>
      </trkpt>
      <trkpt lat="31.28872797385346" lon="121.21451641226312">
        <ele>22.2</ele>
        <time>2024-03-30T14:42:43Z</time>
      </trkpt>
      <trkpt lat="31.28872797385346" lon="121.21451641226312">
        <ele>22.2</ele>
        <time>2024-03-30T14:42:44Z</time>
      </trkpt>
      <trkpt lat="31.28872797385346" lon="121.21451641226312">
        <ele>22.2</ele>
        <time>2024-03-30T14:42:45Z</time>
      </trkpt>
      <trkpt lat="31.28872797385346" lon="121.21451641226312">
        <ele>22.2</ele>
        <time>2024-03-30T14:42:46Z</time>
      </trkpt>
      <trkpt lat="31.28872797385346" lon="121.21451641226312">
        <ele>22.2</ele>
        <time>2024-03-30T14:42:47Z</time>
      </trkpt>
      <trkpt lat="31.28872797385346" lon="121.21451641226312">
        <ele>22.2</ele>
        <time>2024-03-30T14:42:48Z</time>
      </trkpt>
      <trkpt lat="31.28872797385346" lon="121.21451641226312">
        <ele>22.2</ele>
        <time>2024-03-30T14:42:49Z</time>
      </trkpt>
      <trkpt lat="31.28872797385346" lon="121.21451641226312">
        <ele>22.2</ele>
        <time>2024-03-30T14:42:50Z</time>
      </trkpt>
      <trkpt lat="31.28872797385346" lon="121.21451641226312">
        <ele>22.2</ele>
        <time>2024-03-30T14:42:51Z</time>
      </trkpt>
      <trkpt lat="31.28872797385346" lon="121.21451641226312">
        <ele>22.2</ele>
        <time>2024-03-30T14:42:52Z</time>
      </trkpt>
      <trkpt lat="31.28872797385346" lon="121.21451641226312">
        <ele>22.2</ele>
        <time>2024-03-30T14:42:53Z</time>
      </trkpt>
      <trkpt lat="31.28872797385346" lon="121.21451641226312">
        <ele>22.2</ele>
        <time>2024-03-30T14:42:54Z</time>
      </trkpt>
      <trkpt lat="31.28872797385346" lon="121.21451641226312">
        <ele>22.2</ele>
        <time>2024-03-30T14:42:55Z</time>
      </trkpt>
      <trkpt lat="31.28872797385346" lon="121.21451641226312">
        <ele>22.2</ele>
        <time>2024-03-30T14:42:56Z</time>
      </trkpt>
      <trkpt lat="31.28872797385346" lon="121.21451641226312">
        <ele>22.2</ele>
        <time>2024-03-30T14:42:57Z</time>
      </trkpt>
      <trkpt lat="31.28872797385346" lon="121.21451641226312">
        <ele>22.2</ele>
        <time>2024-03-30T14:42:58Z</time>
      </trkpt>
      <trkpt lat="31.28872797385346" lon="121.21451641226312">
        <ele>22.2</ele>
        <time>2024-03-30T14:42:59Z</time>
      </trkpt>
      <trkpt lat="31.28872797385346" lon="121.21451641226312">
        <ele>22.2</ele>
        <time>2024-03-30T14:43:00Z</time>
      </trkpt>
      <trkpt lat="31.28872797385346" lon="121.21451641226312">
        <ele>22.2</ele>
        <time>2024-03-30T14:43:01Z</time>
      </trkpt>
      <trkpt lat="31.28872797385346" lon="121.21451641226312">
        <ele>22.2</ele>
        <time>2024-03-30T14:43:02Z</time>
      </trkpt>
      <trkpt lat="31.28872797385346" lon="121.21451641226312">
        <ele>22.2</ele>
        <time>2024-03-30T14:43:03Z</time>
      </trkpt>
      <trkpt lat="31.28872797385346" lon="121.21451641226312">
        <ele>22.2</ele>
        <time>2024-03-30T14:43:04Z</time>
      </trkpt>
      <trkpt lat="31.28872797385346" lon="121.21451641226312">
        <ele>22.2</ele>
        <time>2024-03-30T14:43:05Z</time>
      </trkpt>
      <trkpt lat="31.28872797385346" lon="121.21451641226312">
        <ele>22.2</ele>
        <time>2024-03-30T14:43:06Z</time>
      </trkpt>
      <trkpt lat="31.28872797385346" lon="121.21451641226312">
        <ele>22.2</ele>
        <time>2024-03-30T14:43:07Z</time>
      </trkpt>
      <trkpt lat="31.28872797385346" lon="121.21451641226312">
        <ele>22.2</ele>
        <time>2024-03-30T14:43:08Z</time>
      </trkpt>
      <trkpt lat="31.28872797385346" lon="121.21451641226312">
        <ele>22.2</ele>
        <time>2024-03-30T14:43:09Z</time>
      </trkpt>
      <trkpt lat="31.28872797385346" lon="121.21451641226312">
        <ele>22.2</ele>
        <time>2024-03-30T14:43:10Z</time>
      </trkpt>
      <trkpt lat="31.28872797385346" lon="121.21451641226312">
        <ele>22.2</ele>
        <time>2024-03-30T14:43:11Z</time>
      </trkpt>
      <trkpt lat="31.28872797385346" lon="121.21451641226312">
        <ele>22.2</ele>
        <time>2024-03-30T14:43:12Z</time>
      </trkpt>
      <trkpt lat="31.28872797385346" lon="121.21451641226312">
        <ele>22.2</ele>
        <time>2024-03-30T14:43:13Z</time>
      </trkpt>
      <trkpt lat="31.28872797385346" lon="121.21451641226312">
        <ele>22.2</ele>
        <time>2024-03-30T14:43:14Z</time>
      </trkpt>
      <trkpt lat="31.28872797385346" lon="121.21451641226312">
        <ele>22.2</ele>
        <time>2024-03-30T14:43:15Z</time>
      </trkpt>
      <trkpt lat="31.28872797385346" lon="121.21451641226312">
        <ele>22.2</ele>
        <time>2024-03-30T14:43:16Z</time>
      </trkpt>
      <trkpt lat="31.28872797385346" lon="121.21451641226312">
        <ele>22.2</ele>
        <time>2024-03-30T14:43:17Z</time>
      </trkpt>
      <trkpt lat="31.28872797385346" lon="121.21451641226312">
        <ele>22.2</ele>
        <time>2024-03-30T14:43:18Z</time>
      </trkpt>
      <trkpt lat="31.28872797385346" lon="121.21451641226312">
        <ele>22.2</ele>
        <time>2024-03-30T14:43:19Z</time>
      </trkpt>
      <trkpt lat="31.28872797385346" lon="121.21451641226312">
        <ele>22.2</ele>
        <time>2024-03-30T14:43:20Z</time>
      </trkpt>
      <trkpt lat="31.28872797385346" lon="121.21451641226312">
        <ele>22.1</ele>
        <time>2024-03-30T14:43:21Z</time>
      </trkpt>
      <trkpt lat="31.28872797385346" lon="121.21451641226312">
        <ele>22.1</ele>
        <time>2024-03-30T14:43:22Z</time>
      </trkpt>
      <trkpt lat="31.28872797385346" lon="121.21451641226312">
        <ele>22.1</ele>
        <time>2024-03-30T14:43:23Z</time>
      </trkpt>
      <trkpt lat="31.28872797385346" lon="121.21451641226312">
        <ele>22.1</ele>
        <time>2024-03-30T14:43:24Z</time>
      </trkpt>
      <trkpt lat="31.28872797385346" lon="121.21451641226312">
        <ele>22.1</ele>
        <time>2024-03-30T14:43:25Z</time>
      </trkpt>
      <trkpt lat="31.28872797385346" lon="121.21451641226312">
        <ele>22.1</ele>
        <time>2024-03-30T14:43:26Z</time>
      </trkpt>
      <trkpt lat="31.28872797385346" lon="121.21451641226312">
        <ele>22.1</ele>
        <time>2024-03-30T14:43:27Z</time>
      </trkpt>
      <trkpt lat="31.28872797385346" lon="121.21451641226312">
        <ele>22.1</ele>
        <time>2024-03-30T14:43:28Z</time>
      </trkpt>
      <trkpt lat="31.28872797385346" lon="121.21451641226312">
        <ele>22.1</ele>
        <time>2024-03-30T14:43:29Z</time>
      </trkpt>
      <trkpt lat="31.28872797385346" lon="121.21451641226312">
        <ele>22.1</ele>
        <time>2024-03-30T14:43:30Z</time>
      </trkpt>
      <trkpt lat="31.28872797385346" lon="121.21451641226312">
        <ele>22.2</ele>
        <time>2024-03-30T14:43:31Z</time>
      </trkpt>
      <trkpt lat="31.28872797385346" lon="121.21451641226312">
        <ele>22.2</ele>
        <time>2024-03-30T14:43:32Z</time>
      </trkpt>
      <trkpt lat="31.28872797385346" lon="121.21451641226312">
        <ele>22.2</ele>
        <time>2024-03-30T14:43:33Z</time>
      </trkpt>
      <trkpt lat="31.28872797385346" lon="121.21451641226312">
        <ele>22.2</ele>
        <time>2024-03-30T14:43:34Z</time>
      </trkpt>
      <trkpt lat="31.28872797385346" lon="121.21451641226312">
        <ele>22.2</ele>
        <time>2024-03-30T14:43:35Z</time>
      </trkpt>
      <trkpt lat="31.28872797385346" lon="121.21451641226312">
        <ele>22.2</ele>
        <time>2024-03-30T14:43:36Z</time>
      </trkpt>
      <trkpt lat="31.28872797385346" lon="121.21451641226312">
        <ele>22.2</ele>
        <time>2024-03-30T14:43:37Z</time>
      </trkpt>
      <trkpt lat="31.28872797385346" lon="121.21451641226312">
        <ele>22.2</ele>
        <time>2024-03-30T14:43:38Z</time>
      </trkpt>
      <trkpt lat="31.28872797385346" lon="121.21451641226312">
        <ele>22.2</ele>
        <time>2024-03-30T14:43:39Z</time>
      </trkpt>
      <trkpt lat="31.28872797385346" lon="121.21451641226312">
        <ele>22.2</ele>
        <time>2024-03-30T14:43:40Z</time>
      </trkpt>
      <trkpt lat="31.28872797385346" lon="121.21451641226312">
        <ele>22.1</ele>
        <time>2024-03-30T14:43:41Z</time>
      </trkpt>
      <trkpt lat="31.28872797385346" lon="121.21451641226312">
        <ele>22.1</ele>
        <time>2024-03-30T14:43:42Z</time>
      </trkpt>
      <trkpt lat="31.28872797385346" lon="121.21451641226312">
        <ele>22.1</ele>
        <time>2024-03-30T14:43:43Z</time>
      </trkpt>
      <trkpt lat="31.28872797385346" lon="121.21451641226312">
        <ele>22.1</ele>
        <time>2024-03-30T14:43:44Z</time>
      </trkpt>
      <trkpt lat="31.28872797385346" lon="121.21451641226312">
        <ele>22.1</ele>
        <time>2024-03-30T14:43:45Z</time>
      </trkpt>
    </trkseg>
  </trk>
</gpx>