<?xml version="1.0" encoding="UTF-8"?>
<gpx xmlns="http://www.topografix.com/GPX/1/1" xmlns:gpxtpx="http://www.garmin.com/xmlschemas/TrackPointExtension/v1" xmlns:xsi="http://www.w3.org/2001/XMLSchema-instance" xsi:schemaLocation="http://www.topografix.com/GPX/1/1 http://www.topografix.com/GPX/1/1/gpx.xsd" version="1.1" creator="gpx.py -- https://github.com/tkrajina/gpxpy">
  <trk>
    <name>gpx from keep</name>
    <type>Run</type>
    <trkseg>
      <trkpt lat="31.29003407753143" lon="121.21082338530694">
        <ele>15.2</ele>
        <time>2025-07-28T12:41:22Z</time>
      </trkpt>
      <trkpt lat="31.28987011157644" lon="121.21079636493334">
        <ele>10.4</ele>
        <time>2025-07-28T12:41:28Z</time>
      </trkpt>
      <trkpt lat="31.289651310910482" lon="121.21088850038423">
        <ele>3.8</ele>
        <time>2025-07-28T12:41:40Z</time>
      </trkpt>
      <trkpt lat="31.289608391900558" lon="121.21094157121607">
        <ele>3.4</ele>
        <time>2025-07-28T12:41:43Z</time>
      </trkpt>
      <trkpt lat="31.289555622628544" lon="121.2111167968585">
        <ele>4.0</ele>
        <time>2025-07-28T12:41:49Z</time>
      </trkpt>
      <trkpt lat="31.289529877119772" lon="121.21132205680124">
        <ele>12.2</ele>
        <time>2025-07-28T12:41:55Z</time>
      </trkpt>
      <trkpt lat="31.28953298971032" lon="121.21141817675198">
        <ele>12.6</ele>
        <time>2025-07-28T12:41:58Z</time>
      </trkpt>
      <trkpt lat="31.289571091365975" lon="121.21151729715679">
        <ele>12.4</ele>
        <time>2025-07-28T12:42:01Z</time>
      </trkpt>
      <trkpt lat="31.28976107780303" lon="121.21176375152653">
        <ele>13.6</ele>
        <time>2025-07-28T12:42:13Z</time>
      </trkpt>
      <trkpt lat="31.289872376151315" lon="121.21186370105292">
        <ele>1.4</ele>
        <time>2025-07-28T12:42:19Z</time>
      </trkpt>
      <trkpt lat="31.28996348187671" lon="121.2119858437812">
        <ele>-0.4</ele>
        <time>2025-07-28T12:42:25Z</time>
      </trkpt>
      <trkpt lat="31.2900534815598" lon="121.21201687428224">
        <ele>-1.3</ele>
        <time>2025-07-28T12:42:28Z</time>
      </trkpt>
      <trkpt lat="31.290110528381568" lon="121.21207694318542">
        <ele>-2.3</ele>
        <time>2025-07-28T12:42:31Z</time>
      </trkpt>
      <trkpt lat="31.290329598905338" lon="121.21221409249974">
        <ele>-2.5</ele>
        <time>2025-07-28T12:42:43Z</time>
      </trkpt>
      <trkpt lat="31.29045267076997" lon="121.21231921031442">
        <ele>-3.7</ele>
        <time>2025-07-28T12:42:52Z</time>
      </trkpt>
      <trkpt lat="31.29070069234742" lon="121.21233977086494">
        <ele>0.3</ele>
        <time>2025-07-28T12:43:04Z</time>
      </trkpt>
      <trkpt lat="31.290765116080173" lon="121.21231213191093">
        <ele>1.1</ele>
        <time>2025-07-28T12:43:07Z</time>
      </trkpt>
      <trkpt lat="31.290828399221148" lon="121.2122160525286">
        <ele>2.3</ele>
        <time>2025-07-28T12:43:10Z</time>
      </trkpt>
      <trkpt lat="31.290906299154035" lon="121.21215697366006">
        <ele>2.9</ele>
        <time>2025-07-28T12:43:16Z</time>
      </trkpt>
      <trkpt lat="31.290947222099213" lon="121.21210490640838">
        <ele>1.9</ele>
        <time>2025-07-28T12:43:19Z</time>
      </trkpt>
      <trkpt lat="31.29098110932646" lon="121.21201979908518">
        <ele>1.4</ele>
        <time>2025-07-28T12:43:22Z</time>
      </trkpt>
      <trkpt lat="31.290984737689946" lon="121.21170340833588">
        <ele>0.1</ele>
        <time>2025-07-28T12:43:31Z</time>
      </trkpt>
      <trkpt lat="31.29099762650484" lon="121.21161329541563">
        <ele>5.6</ele>
        <time>2025-07-28T12:43:34Z</time>
      </trkpt>
      <trkpt lat="31.290921891587967" lon="121.2114732744935">
        <ele>7.5</ele>
        <time>2025-07-28T12:43:40Z</time>
      </trkpt>
      <trkpt lat="31.29066943997421" lon="121.21134298620602">
        <ele>8.2</ele>
        <time>2025-07-28T12:43:52Z</time>
      </trkpt>
      <trkpt lat="31.2905743501353" lon="121.21123485875378">
        <ele>11.2</ele>
        <time>2025-07-28T12:43:58Z</time>
      </trkpt>
      <trkpt lat="31.290528269929673" lon="121.2111517582405">
        <ele>9.0</ele>
        <time>2025-07-28T12:44:04Z</time>
      </trkpt>
      <trkpt lat="31.290418189157315" lon="121.21104663515702">
        <ele>6.3</ele>
        <time>2025-07-28T12:44:10Z</time>
      </trkpt>
      <trkpt lat="31.290288656740778" lon="121.210942568057">
        <ele>3.8</ele>
        <time>2025-07-28T12:44:16Z</time>
      </trkpt>
      <trkpt lat="31.290231642701773" lon="121.21088429211935">
        <ele>4.3</ele>
        <time>2025-07-28T12:44:19Z</time>
      </trkpt>
      <trkpt lat="31.290152688750258" lon="121.21084217758771">
        <ele>3.2</ele>
        <time>2025-07-28T12:44:22Z</time>
      </trkpt>
      <trkpt lat="31.29007157808354" lon="121.21083987885349">
        <ele>3.7</ele>
        <time>2025-07-28T12:44:25Z</time>
      </trkpt>
      <trkpt lat="31.289982039701837" lon="121.21077432743088">
        <ele>1.9</ele>
        <time>2025-07-28T12:44:28Z</time>
      </trkpt>
      <trkpt lat="31.289819114222883" lon="121.21078135019384">
        <ele>-0.7</ele>
        <time>2025-07-28T12:44:37Z</time>
      </trkpt>
      <trkpt lat="31.28973122683883" lon="121.21084543901203">
        <ele>-0.5</ele>
        <time>2025-07-28T12:44:43Z</time>
      </trkpt>
      <trkpt lat="31.28964741559506" lon="121.21097460967925">
        <ele>-0.2</ele>
        <time>2025-07-28T12:44:52Z</time>
      </trkpt>
      <trkpt lat="31.28960853784989" lon="121.2110637254887">
        <ele>0.2</ele>
        <time>2025-07-28T12:44:55Z</time>
      </trkpt>
      <trkpt lat="31.289567916262815" lon="121.21136811120827">
        <ele>1.9</ele>
        <time>2025-07-28T12:45:07Z</time>
      </trkpt>
      <trkpt lat="31.28957209332236" lon="121.21151929956602">
        <ele>2.5</ele>
        <time>2025-07-28T12:45:13Z</time>
      </trkpt>
      <trkpt lat="31.289592178419536" lon="121.21159839628037">
        <ele>3.0</ele>
        <time>2025-07-28T12:45:16Z</time>
      </trkpt>
      <trkpt lat="31.289743334710742" lon="121.21178361307845">
        <ele>5.5</ele>
        <time>2025-07-28T12:45:25Z</time>
      </trkpt>
      <trkpt lat="31.290026413125716" lon="121.21194879284694">
        <ele>0.9</ele>
        <time>2025-07-28T12:45:40Z</time>
      </trkpt>
      <trkpt lat="31.290141514652905" lon="121.2120759393221">
        <ele>-2.9</ele>
        <time>2025-07-28T12:45:49Z</time>
      </trkpt>
      <trkpt lat="31.290308520294765" lon="121.21213900243167">
        <ele>-1.4</ele>
        <time>2025-07-28T12:45:58Z</time>
      </trkpt>
      <trkpt lat="31.290446624566655" lon="121.21227715956175">
        <ele>0.9</ele>
        <time>2025-07-28T12:46:07Z</time>
      </trkpt>
      <trkpt lat="31.290720580793334" lon="121.21233520704592">
        <ele>8.2</ele>
        <time>2025-07-28T12:46:19Z</time>
      </trkpt>
      <trkpt lat="31.290839504872512" lon="121.21231116765786">
        <ele>14.4</ele>
        <time>2025-07-28T12:46:25Z</time>
      </trkpt>
      <trkpt lat="31.290871443284452" lon="121.21226911366323">
        <ele>10.8</ele>
        <time>2025-07-28T12:46:28Z</time>
      </trkpt>
      <trkpt lat="31.2908943539526" lon="121.21220002733999">
        <ele>8.3</ele>
        <time>2025-07-28T12:46:31Z</time>
      </trkpt>
      <trkpt lat="31.29098612362893" lon="121.21203381587786">
        <ele>2.7</ele>
        <time>2025-07-28T12:46:40Z</time>
      </trkpt>
      <trkpt lat="31.29102878216508" lon="121.211756470313">
        <ele>-0.3</ele>
        <time>2025-07-28T12:46:52Z</time>
      </trkpt>
      <trkpt lat="31.29092447894716" lon="121.21146311465183">
        <ele>-1.6</ele>
        <time>2025-07-28T12:47:04Z</time>
      </trkpt>
      <trkpt lat="31.290677333416816" lon="121.21125587638066">
        <ele>-0.4</ele>
        <time>2025-07-28T12:47:19Z</time>
      </trkpt>
      <trkpt lat="31.290406240600408" lon="121.21108568541094">
        <ele>1.8</ele>
        <time>2025-07-28T12:47:34Z</time>
      </trkpt>
      <trkpt lat="31.290139139395713" lon="121.21091048679058">
        <ele>2.7</ele>
        <time>2025-07-28T12:47:49Z</time>
      </trkpt>
      <trkpt lat="31.289892165136603" lon="121.21084842913308">
        <ele>4.4</ele>
        <time>2025-07-28T12:48:01Z</time>
      </trkpt>
      <trkpt lat="31.289782221758603" lon="121.21085845118068">
        <ele>4.2</ele>
        <time>2025-07-28T12:48:07Z</time>
      </trkpt>
      <trkpt lat="31.28970130861383" lon="121.21090351515495">
        <ele>3.9</ele>
        <time>2025-07-28T12:48:13Z</time>
      </trkpt>
      <trkpt lat="31.289561622579086" lon="121.21111879886972">
        <ele>4.0</ele>
        <time>2025-07-28T12:48:25Z</time>
      </trkpt>
      <trkpt lat="31.289534936770142" lon="121.21137412152636">
        <ele>5.5</ele>
        <time>2025-07-28T12:48:37Z</time>
      </trkpt>
      <trkpt lat="31.289575089742492" lon="121.21151729681674">
        <ele>6.8</ele>
        <time>2025-07-28T12:48:43Z</time>
      </trkpt>
      <trkpt lat="31.289697242955235" lon="121.21168950045518">
        <ele>8.1</ele>
        <time>2025-07-28T12:48:52Z</time>
      </trkpt>
      <trkpt lat="31.289847307774238" lon="121.21179662033025">
        <ele>8.3</ele>
        <time>2025-07-28T12:49:01Z</time>
      </trkpt>
      <trkpt lat="31.29005146720572" lon="121.21200385845718">
        <ele>5.7</ele>
        <time>2025-07-28T12:49:16Z</time>
      </trkpt>
      <trkpt lat="31.29031157601528" lon="121.21218806220925">
        <ele>5.7</ele>
        <time>2025-07-28T12:49:31Z</time>
      </trkpt>
      <trkpt lat="31.290480624699217" lon="121.21228917132426">
        <ele>6.2</ele>
        <time>2025-07-28T12:49:40Z</time>
      </trkpt>
      <trkpt lat="31.29066256954794" lon="121.2123051753826">
        <ele>7.1</ele>
        <time>2025-07-28T12:49:49Z</time>
      </trkpt>
      <trkpt lat="31.290795477506745" lon="121.21227212378815">
        <ele>6.3</ele>
        <time>2025-07-28T12:49:58Z</time>
      </trkpt>
      <trkpt lat="31.290939195068344" lon="121.21207887517052">
        <ele>5.7</ele>
        <time>2025-07-28T12:50:07Z</time>
      </trkpt>
      <trkpt lat="31.290998954864534" lon="121.21189364229396">
        <ele>3.5</ele>
        <time>2025-07-28T12:50:19Z</time>
      </trkpt>
      <trkpt lat="31.29099066349414" lon="121.2116423320701">
        <ele>4.0</ele>
        <time>2025-07-28T12:50:28Z</time>
      </trkpt>
      <trkpt lat="31.290858472514827" lon="121.21143508527733">
        <ele>4.9</ele>
        <time>2025-07-28T12:50:37Z</time>
      </trkpt>
      <trkpt lat="31.290586358360045" lon="121.21124587155548">
        <ele>5.6</ele>
        <time>2025-07-28T12:50:52Z</time>
      </trkpt>
      <trkpt lat="31.290317261126617" lon="121.21107267657209">
        <ele>5.6</ele>
        <time>2025-07-28T12:51:07Z</time>
      </trkpt>
      <trkpt lat="31.290077139339385" lon="121.21088946543422">
        <ele>7.3</ele>
        <time>2025-07-28T12:51:22Z</time>
      </trkpt>
      <trkpt lat="31.289878111938897" lon="121.21079936806737">
        <ele>9.0</ele>
        <time>2025-07-28T12:51:34Z</time>
      </trkpt>
      <trkpt lat="31.289825724442625" lon="121.21078854037947">
        <ele>11.3</ele>
        <time>2025-07-28T12:51:37Z</time>
      </trkpt>
      <trkpt lat="31.289727313652303" lon="121.2109165294238">
        <ele>11.5</ele>
        <time>2025-07-28T12:51:46Z</time>
      </trkpt>
      <trkpt lat="31.28963742204723" lon="121.21097661306031">
        <ele>11.5</ele>
        <time>2025-07-28T12:51:49Z</time>
      </trkpt>
      <trkpt lat="31.289504862336173" lon="121.21130103258999">
        <ele>9.7</ele>
        <time>2025-07-28T12:52:04Z</time>
      </trkpt>
      <trkpt lat="31.289517922329058" lon="121.21135610042995">
        <ele>9.7</ele>
        <time>2025-07-28T12:52:07Z</time>
      </trkpt>
      <trkpt lat="31.289516227811234" lon="121.21140437921818">
        <ele>-3.3</ele>
        <time>2025-07-28T12:52:10Z</time>
      </trkpt>
      <trkpt lat="31.289559027679605" lon="121.21145922578445">
        <ele>6.3</ele>
        <time>2025-07-28T12:52:13Z</time>
      </trkpt>
      <trkpt lat="31.289567182671984" lon="121.21159339218312">
        <ele>11.5</ele>
        <time>2025-07-28T12:52:19Z</time>
      </trkpt>
      <trkpt lat="31.289614236632183" lon="121.21165546528646">
        <ele>11.2</ele>
        <time>2025-07-28T12:52:22Z</time>
      </trkpt>
      <trkpt lat="31.28972524570547" lon="121.2117015129683">
        <ele>7.2</ele>
        <time>2025-07-28T12:52:28Z</time>
      </trkpt>
      <trkpt lat="31.289827353403158" lon="121.21182866161864">
        <ele>5.0</ele>
        <time>2025-07-28T12:52:37Z</time>
      </trkpt>
      <trkpt lat="31.290102458198817" lon="121.21201386642626">
        <ele>4.4</ele>
        <time>2025-07-28T12:52:52Z</time>
      </trkpt>
      <trkpt lat="31.29034659782096" lon="121.21221909717133">
        <ele>2.5</ele>
        <time>2025-07-28T12:53:07Z</time>
      </trkpt>
      <trkpt lat="31.290451656127487" lon="121.21230619453887">
        <ele>2.6</ele>
        <time>2025-07-28T12:53:13Z</time>
      </trkpt>
      <trkpt lat="31.290519665623812" lon="121.21233822778949">
        <ele>3.3</ele>
        <time>2025-07-28T12:53:16Z</time>
      </trkpt>
      <trkpt lat="31.290725563728785" lon="121.21232219076745">
        <ele>4.5</ele>
        <time>2025-07-28T12:53:28Z</time>
      </trkpt>
      <trkpt lat="31.290827483095807" lon="121.21228814060657">
        <ele>4.3</ele>
        <time>2025-07-28T12:53:34Z</time>
      </trkpt>
      <trkpt lat="31.29092233333945" lon="121.2121920151674">
        <ele>4.6</ele>
        <time>2025-07-28T12:53:40Z</time>
      </trkpt>
      <trkpt lat="31.29096822873196" lon="121.21211792057348">
        <ele>4.9</ele>
        <time>2025-07-28T12:53:43Z</time>
      </trkpt>
      <trkpt lat="31.291021822550555" lon="121.21178851054042">
        <ele>4.4</ele>
        <time>2025-07-28T12:53:58Z</time>
      </trkpt>
      <trkpt lat="31.291015671043258" lon="121.21165734858495">
        <ele>3.7</ele>
        <time>2025-07-28T12:54:04Z</time>
      </trkpt>
      <trkpt lat="31.290931564739346" lon="121.2115382076371">
        <ele>4.5</ele>
        <time>2025-07-28T12:54:10Z</time>
      </trkpt>
      <trkpt lat="31.290676451374637" lon="121.21135500064531">
        <ele>7.1</ele>
        <time>2025-07-28T12:54:25Z</time>
      </trkpt>
      <trkpt lat="31.29055944652339" lon="121.21131095544226">
        <ele>8.2</ele>
        <time>2025-07-28T12:54:31Z</time>
      </trkpt>
      <trkpt lat="31.290466324822635" lon="121.21117679498913">
        <ele>8.3</ele>
        <time>2025-07-28T12:54:37Z</time>
      </trkpt>
      <trkpt lat="31.290447268149357" lon="121.2111227285867">
        <ele>8.5</ele>
        <time>2025-07-28T12:54:40Z</time>
      </trkpt>
      <trkpt lat="31.29015817004874" lon="121.21094252572216">
        <ele>9.4</ele>
        <time>2025-07-28T12:54:55Z</time>
      </trkpt>
      <trkpt lat="31.289981130248865" lon="121.21084942283596">
        <ele>10.2</ele>
        <time>2025-07-28T12:55:04Z</time>
      </trkpt>
      <trkpt lat="31.289793196883313" lon="121.2108414286613">
        <ele>11.7</ele>
        <time>2025-07-28T12:55:13Z</time>
      </trkpt>
      <trkpt lat="31.28968930388812" lon="121.21089550603122">
        <ele>12.1</ele>
        <time>2025-07-28T12:55:19Z</time>
      </trkpt>
      <trkpt lat="31.289563547751108" lon="121.2110567204763">
        <ele>12.1</ele>
        <time>2025-07-28T12:55:28Z</time>
      </trkpt>
      <trkpt lat="31.289542965517523" lon="121.21140115463815">
        <ele>11.8</ele>
        <time>2025-07-28T12:55:43Z</time>
      </trkpt>
      <trkpt lat="31.289581140429437" lon="121.21156235239462">
        <ele>12.9</ele>
        <time>2025-07-28T12:55:52Z</time>
      </trkpt>
      <trkpt lat="31.28966824178372" lon="121.21167848926387">
        <ele>13.0</ele>
        <time>2025-07-28T12:55:58Z</time>
      </trkpt>
      <trkpt lat="31.289688291275827" lon="121.21172754836584">
        <ele>12.7</ele>
        <time>2025-07-28T12:56:01Z</time>
      </trkpt>
      <trkpt lat="31.289824612031342" lon="121.21178729948997">
        <ele>14.7</ele>
        <time>2025-07-28T12:56:10Z</time>
      </trkpt>
      <trkpt lat="31.28987733898346" lon="121.21183366355075">
        <ele>16.1</ele>
        <time>2025-07-28T12:56:13Z</time>
      </trkpt>
      <trkpt lat="31.289907386539515" lon="121.21188472401339">
        <ele>16.7</ele>
        <time>2025-07-28T12:56:16Z</time>
      </trkpt>
      <trkpt lat="31.290078512229194" lon="121.21205191519203">
        <ele>14.9</ele>
        <time>2025-07-28T12:56:28Z</time>
      </trkpt>
      <trkpt lat="31.29029452712898" lon="121.21214000484774">
        <ele>10.1</ele>
        <time>2025-07-28T12:56:40Z</time>
      </trkpt>
      <trkpt lat="31.290366587399255" lon="121.21221709302466">
        <ele>11.5</ele>
        <time>2025-07-28T12:56:46Z</time>
      </trkpt>
      <trkpt lat="31.290393647189475" lon="121.21227816528824">
        <ele>10.5</ele>
        <time>2025-07-28T12:56:49Z</time>
      </trkpt>
      <trkpt lat="31.29053467458567" lon="121.2123512423607">
        <ele>10.5</ele>
        <time>2025-07-28T12:56:58Z</time>
      </trkpt>
    </trkseg>
  </trk>
</gpx>